{
"type": "FeatureCollection",
"name": "cctv_points",
"crs": { "type": "name", "properties": { "name": "urn:ogc:def:crs:OGC:1.3:CRS84" } },
"features": [
{ "type": "Feature", "properties": { "관리기관명": "광주광역시 사회재난과", "소재지지번주소": "동구 동명동 113-40", "소재지도로명주소": "동구 필문대로253번길 9-2", "카메라대수": 2, "카메라화소": "200만", "촬영방면": "360도", "보관일수": "30일", "설치연도": 2022, "위도": 35.148201, "경도": 126.929933, "데이터기준일자": "2026-06-30", "road_name_from_addr": "필문대로253번길" }, "geometry": { "type": "Point", "coordinates": [ 126.929933, 35.148201 ] } },
{ "type": "Feature", "properties": { "관리기관명": "광주광역시 사회재난과", "소재지지번주소": "동구 동명동 113-40", "소재지도로명주소": "동구 필문대로253번길 9-2", "카메라대수": 1, "카메라화소": "200만", "촬영방면": "360도", "보관일수": "30일", "설치연도": 2022, "위도": 35.148201, "경도": 126.929933, "데이터기준일자": "2026-06-30", "road_name_from_addr": "필문대로253번길" }, "geometry": { "type": "Point", "coordinates": [ 126.929933, 35.148201 ] } },
{ "type": "Feature", "properties": { "관리기관명": "광주광역시 사회재난과", "소재지지번주소": "동구 동명동 83-1", "소재지도로명주소": "동구 동계천로 170", "카메라대수": 1, "카메라화소": "200만", "촬영방면": "360도", "보관일수": "30일", "설치연도": 2023, "위도": 35.149033, "경도": 126.928044, "데이터기준일자": "2026-06-30", "road_name_from_addr": "동계천로" }, "geometry": { "type": "Point", "coordinates": [ 126.928044, 35.149033 ] } },
{ "type": "Feature", "properties": { "관리기관명": "광주광역시 사회재난과", "소재지지번주소": "동구 동명동 83-1", "소재지도로명주소": "동구 동계천로 170", "카메라대수": 1, "카메라화소": "200만", "촬영방면": "360도", "보관일수": "30일", "설치연도": 2023, "위도": 35.149033, "경도": 126.928044, "데이터기준일자": "2026-06-30", "road_name_from_addr": "동계천로" }, "geometry": { "type": "Point", "coordinates": [ 126.928044, 35.149033 ] } },
{ "type": "Feature", "properties": { "관리기관명": "광주광역시 사회재난과", "소재지지번주소": "동구 지산동 413-1", "소재지도로명주소": "동구 동명로98번길 17", "카메라대수": 1, "카메라화소": "200만", "촬영방면": "360도", "보관일수": "30일", "설치연도": 2024, "위도": 35.149228, "경도": 126.930611, "데이터기준일자": "2026-06-30", "road_name_from_addr": "동명로98번길" }, "geometry": { "type": "Point", "coordinates": [ 126.930611, 35.149228 ] } },
{ "type": "Feature", "properties": { "관리기관명": "광주광역시 사회재난과", "소재지지번주소": "동구 지산동 413-1", "소재지도로명주소": "동구 동명로98번길 17", "카메라대수": 3, "카메라화소": "200만", "촬영방면": "360도", "보관일수": "30일", "설치연도": 2019, "위도": 35.149228, "경도": 126.930611, "데이터기준일자": "2026-06-30", "road_name_from_addr": "동명로98번길" }, "geometry": { "type": "Point", "coordinates": [ 126.930611, 35.149228 ] } },
{ "type": "Feature", "properties": { "관리기관명": "광주광역시 사회재난과", "소재지지번주소": "동구 동명동 80-15", "소재지도로명주소": "동구 동계천로 172-1", "카메라대수": 2, "카메라화소": "200만", "촬영방면": "360도", "보관일수": "30일", "설치연도": 2019, "위도": 35.149421, "경도": 126.928293, "데이터기준일자": "2026-06-30", "road_name_from_addr": "동계천로" }, "geometry": { "type": "Point", "coordinates": [ 126.928293, 35.149421 ] } },
{ "type": "Feature", "properties": { "관리기관명": "광주광역시 사회재난과", "소재지지번주소": "동구 동명동 80-15", "소재지도로명주소": "동구 동계천로 172-1", "카메라대수": 1, "카메라화소": "200만", "촬영방면": "360도", "보관일수": "30일", "설치연도": 2016, "위도": 35.149421, "경도": 126.928293, "데이터기준일자": "2026-06-30", "road_name_from_addr": "동계천로" }, "geometry": { "type": "Point", "coordinates": [ 126.928293, 35.149421 ] } },
{ "type": "Feature", "properties": { "관리기관명": "광주광역시 사회재난과", "소재지지번주소": "동구 동명동 36-7", "소재지도로명주소": null, "카메라대수": 1, "카메라화소": "200만", "촬영방면": "360도", "보관일수": "30일", "설치연도": 2014, "위도": 35.149656, "경도": 126.928401, "데이터기준일자": "2026-06-30", "road_name_from_addr": null }, "geometry": { "type": "Point", "coordinates": [ 126.928401, 35.149656 ] } },
{ "type": "Feature", "properties": { "관리기관명": "광주광역시 사회재난과", "소재지지번주소": "동구 동명동 36-7", "소재지도로명주소": null, "카메라대수": 1, "카메라화소": "200만", "촬영방면": "360도", "보관일수": "30일", "설치연도": 2025, "위도": 35.149656, "경도": 126.928401, "데이터기준일자": "2026-06-30", "road_name_from_addr": null }, "geometry": { "type": "Point", "coordinates": [ 126.928401, 35.149656 ] } },
{ "type": "Feature", "properties": { "관리기관명": "광주광역시 사회재난과", "소재지지번주소": "동구 지산동 677-3", "소재지도로명주소": null, "카메라대수": 1, "카메라화소": "200만", "촬영방면": "360도", "보관일수": "30일", "설치연도": 2024, "위도": 35.150134, "경도": 126.928619, "데이터기준일자": "2026-06-30", "road_name_from_addr": null }, "geometry": { "type": "Point", "coordinates": [ 126.928619, 35.150134 ] } },
{ "type": "Feature", "properties": { "관리기관명": "광주광역시 사회재난과", "소재지지번주소": "동구 지산동 677-3", "소재지도로명주소": null, "카메라대수": 1, "카메라화소": "200만", "촬영방면": "360도", "보관일수": "30일", "설치연도": 2022, "위도": 35.150134, "경도": 126.928619, "데이터기준일자": "2026-06-30", "road_name_from_addr": null }, "geometry": { "type": "Point", "coordinates": [ 126.928619, 35.150134 ] } },
{ "type": "Feature", "properties": { "관리기관명": "광주광역시 사회재난과", "소재지지번주소": "동구 동명동 154-158", "소재지도로명주소": null, "카메라대수": 1, "카메라화소": "200만", "촬영방면": "360도", "보관일수": "30일", "설치연도": 2024, "위도": 35.150601, "경도": 126.927948, "데이터기준일자": "2026-06-30", "road_name_from_addr": null }, "geometry": { "type": "Point", "coordinates": [ 126.927948, 35.150601 ] } },
{ "type": "Feature", "properties": { "관리기관명": "광주광역시 사회재난과", "소재지지번주소": "동구 동명동 154-158", "소재지도로명주소": null, "카메라대수": 2, "카메라화소": "200만", "촬영방면": "360도", "보관일수": "30일", "설치연도": 2018, "위도": 35.150601, "경도": 126.927948, "데이터기준일자": "2026-06-30", "road_name_from_addr": null }, "geometry": { "type": "Point", "coordinates": [ 126.927948, 35.150601 ] } },
{ "type": "Feature", "properties": { "관리기관명": "광주광역시 사회재난과", "소재지지번주소": "동구 동명동 140-13", "소재지도로명주소": "동구 백서로 219", "카메라대수": 1, "카메라화소": "200만", "촬영방면": "360도", "보관일수": "30일", "설치연도": 2023, "위도": 35.14736, "경도": 126.926459, "데이터기준일자": "2026-06-30", "road_name_from_addr": "백서로" }, "geometry": { "type": "Point", "coordinates": [ 126.926459, 35.14736 ] } },
{ "type": "Feature", "properties": { "관리기관명": "광주광역시 사회재난과", "소재지지번주소": "동구 동명동 140-13", "소재지도로명주소": "동구 백서로 219", "카메라대수": 2, "카메라화소": "200만", "촬영방면": "360도", "보관일수": "30일", "설치연도": 2023, "위도": 35.14736, "경도": 126.926459, "데이터기준일자": "2026-06-30", "road_name_from_addr": "백서로" }, "geometry": { "type": "Point", "coordinates": [ 126.926459, 35.14736 ] } },
{ "type": "Feature", "properties": { "관리기관명": "광주광역시 사회재난과", "소재지지번주소": "동구 동명동 142-60", "소재지도로명주소": "동구 백서로224번길 2", "카메라대수": 1, "카메라화소": "200만", "촬영방면": "360도", "보관일수": "30일", "설치연도": 2023, "위도": 35.147724, "경도": 126.926693, "데이터기준일자": "2026-06-30", "road_name_from_addr": "백서로224번길" }, "geometry": { "type": "Point", "coordinates": [ 126.926693, 35.147724 ] } },
{ "type": "Feature", "properties": { "관리기관명": "광주광역시 사회재난과", "소재지지번주소": "동구 동명동 142-60", "소재지도로명주소": "동구 백서로224번길 2", "카메라대수": 1, "카메라화소": "200만", "촬영방면": "360도", "보관일수": "30일", "설치연도": 2022, "위도": 35.147724, "경도": 126.926693, "데이터기준일자": "2026-06-30", "road_name_from_addr": "백서로224번길" }, "geometry": { "type": "Point", "coordinates": [ 126.926693, 35.147724 ] } },
{ "type": "Feature", "properties": { "관리기관명": "광주광역시 사회재난과", "소재지지번주소": "동구 동명동 142-60", "소재지도로명주소": "동구 백서로224번길 2", "카메라대수": 1, "카메라화소": "200만", "촬영방면": "360도", "보관일수": "30일", "설치연도": 2018, "위도": 35.147724, "경도": 126.926693, "데이터기준일자": "2026-06-30", "road_name_from_addr": "백서로224번길" }, "geometry": { "type": "Point", "coordinates": [ 126.926693, 35.147724 ] } },
{ "type": "Feature", "properties": { "관리기관명": "광주광역시 사회재난과", "소재지지번주소": "동구 동명동 143-38", "소재지도로명주소": "동구 장동로43번길 10", "카메라대수": 2, "카메라화소": "200만", "촬영방면": "360도", "보관일수": "30일", "설치연도": 2023, "위도": 35.148349, "경도": 126.926428, "데이터기준일자": "2026-06-30", "road_name_from_addr": "장동로43번길" }, "geometry": { "type": "Point", "coordinates": [ 126.926428, 35.148349 ] } },
{ "type": "Feature", "properties": { "관리기관명": "광주광역시 사회재난과", "소재지지번주소": "동구 동명동 23-16", "소재지도로명주소": "동구 장동로 23-16", "카메라대수": 2, "카메라화소": "200만", "촬영방면": "360도", "보관일수": "30일", "설치연도": 2021, "위도": 35.148828, "경도": 126.925057, "데이터기준일자": "2026-06-30", "road_name_from_addr": "장동로" }, "geometry": { "type": "Point", "coordinates": [ 126.925057, 35.148828 ] } },
{ "type": "Feature", "properties": { "관리기관명": "광주광역시 사회재난과", "소재지지번주소": "동구 동명동 23-16", "소재지도로명주소": "동구 장동로 23-16", "카메라대수": 1, "카메라화소": "200만", "촬영방면": "360도", "보관일수": "30일", "설치연도": 2021, "위도": 35.148828, "경도": 126.925057, "데이터기준일자": "2026-06-30", "road_name_from_addr": "장동로" }, "geometry": { "type": "Point", "coordinates": [ 126.925057, 35.148828 ] } },
{ "type": "Feature", "properties": { "관리기관명": "광주광역시 사회재난과", "소재지지번주소": "동구 동명동 78-1", "소재지도로명주소": "동구 동계천로 162", "카메라대수": 3, "카메라화소": "200만", "촬영방면": "360도", "보관일수": "30일", "설치연도": 2023, "위도": 35.149109, "경도": 126.926774, "데이터기준일자": "2026-06-30", "road_name_from_addr": "동계천로" }, "geometry": { "type": "Point", "coordinates": [ 126.926774, 35.149109 ] } },
{ "type": "Feature", "properties": { "관리기관명": "광주광역시 사회재난과", "소재지지번주소": "동구 동명동 78-1", "소재지도로명주소": "동구 동계천로 162", "카메라대수": 1, "카메라화소": "200만", "촬영방면": "360도", "보관일수": "30일", "설치연도": 2023, "위도": 35.149109, "경도": 126.926774, "데이터기준일자": "2026-06-30", "road_name_from_addr": "동계천로" }, "geometry": { "type": "Point", "coordinates": [ 126.926774, 35.149109 ] } },
{ "type": "Feature", "properties": { "관리기관명": "광주광역시 사회재난과", "소재지지번주소": "동구 동명동 68-8", "소재지도로명주소": "동구 동계천로 159-11", "카메라대수": 4, "카메라화소": "200만", "촬영방면": "360도", "보관일수": "30일", "설치연도": 2019, "위도": 35.149821, "경도": 126.926351, "데이터기준일자": "2026-06-30", "road_name_from_addr": "동계천로" }, "geometry": { "type": "Point", "coordinates": [ 126.926351, 35.149821 ] } },
{ "type": "Feature", "properties": { "관리기관명": "광주광역시 사회재난과", "소재지지번주소": "동구 동명동 68-45", "소재지도로명주소": null, "카메라대수": 1, "카메라화소": "200만", "촬영방면": "360도", "보관일수": "30일", "설치연도": 2019, "위도": 35.150289, "경도": 126.926929, "데이터기준일자": "2026-06-30", "road_name_from_addr": null }, "geometry": { "type": "Point", "coordinates": [ 126.926929, 35.150289 ] } },
{ "type": "Feature", "properties": { "관리기관명": "광주광역시 사회재난과", "소재지지번주소": "동구 동명동 68-45", "소재지도로명주소": null, "카메라대수": 2, "카메라화소": "200만", "촬영방면": "360도", "보관일수": "30일", "설치연도": 2020, "위도": 35.150289, "경도": 126.926929, "데이터기준일자": "2026-06-30", "road_name_from_addr": null }, "geometry": { "type": "Point", "coordinates": [ 126.926929, 35.150289 ] } },
{ "type": "Feature", "properties": { "관리기관명": "광주광역시 사회재난과", "소재지지번주소": "동구 동명동 154-26", "소재지도로명주소": "동구 동명로20번길 9", "카메라대수": 1, "카메라화소": "200만", "촬영방면": "360도", "보관일수": "30일", "설치연도": 2019, "위도": 35.15061, "경도": 126.92465, "데이터기준일자": "2026-06-30", "road_name_from_addr": "동명로20번길" }, "geometry": { "type": "Point", "coordinates": [ 126.92465, 35.15061 ] } },
{ "type": "Feature", "properties": { "관리기관명": "광주광역시 사회재난과", "소재지지번주소": "동구 동명동 154-26", "소재지도로명주소": "동구 동명로20번길 9", "카메라대수": 3, "카메라화소": "200만", "촬영방면": "360도", "보관일수": "30일", "설치연도": 2020, "위도": 35.15061, "경도": 126.92465, "데이터기준일자": "2026-06-30", "road_name_from_addr": "동명로20번길" }, "geometry": { "type": "Point", "coordinates": [ 126.92465, 35.15061 ] } },
{ "type": "Feature", "properties": { "관리기관명": "광주광역시 사회재난과", "소재지지번주소": "동구 동명동 200-169", "소재지도로명주소": "동구 동명로 19", "카메라대수": 1, "카메라화소": "200만", "촬영방면": "360도", "보관일수": "30일", "설치연도": 2024, "위도": 35.150842, "경도": 126.923425, "데이터기준일자": "2026-06-30", "road_name_from_addr": "동명로" }, "geometry": { "type": "Point", "coordinates": [ 126.923425, 35.150842 ] } },
{ "type": "Feature", "properties": { "관리기관명": "광주광역시 사회재난과", "소재지지번주소": "동구 동명동 200-169", "소재지도로명주소": "동구 동명로 19", "카메라대수": 2, "카메라화소": "200만", "촬영방면": "360도", "보관일수": "30일", "설치연도": 2018, "위도": 35.150842, "경도": 126.923425, "데이터기준일자": "2026-06-30", "road_name_from_addr": "동명로" }, "geometry": { "type": "Point", "coordinates": [ 126.923425, 35.150842 ] } },
{ "type": "Feature", "properties": { "관리기관명": "광주광역시 사회재난과", "소재지지번주소": "동구 동명동 200-153", "소재지도로명주소": "동구 동계로1번길 9", "카메라대수": 3, "카메라화소": "200만", "촬영방면": "360도", "보관일수": "30일", "설치연도": 2019, "위도": 35.152029, "경도": 126.923055, "데이터기준일자": "2026-06-30", "road_name_from_addr": "동계로1번길" }, "geometry": { "type": "Point", "coordinates": [ 126.923055, 35.152029 ] } },
{ "type": "Feature", "properties": { "관리기관명": "광주광역시 사회재난과", "소재지지번주소": "동구 동명동 200-153", "소재지도로명주소": "동구 동계로1번길 9", "카메라대수": 1, "카메라화소": "200만", "촬영방면": "360도", "보관일수": "30일", "설치연도": 2016, "위도": 35.152029, "경도": 126.923055, "데이터기준일자": "2026-06-30", "road_name_from_addr": "동계로1번길" }, "geometry": { "type": "Point", "coordinates": [ 126.923055, 35.152029 ] } },
{ "type": "Feature", "properties": { "관리기관명": "광주광역시 사회재난과", "소재지지번주소": "동구 지산동 680-5", "소재지도로명주소": "동구 동명로 63-26", "카메라대수": 2, "카메라화소": "200만", "촬영방면": "360도", "보관일수": "30일", "설치연도": 2026, "위도": 35.152081, "경도": 126.926713, "데이터기준일자": "2026-06-30", "road_name_from_addr": "동명로" }, "geometry": { "type": "Point", "coordinates": [ 126.926713, 35.152081 ] } },
{ "type": "Feature", "properties": { "관리기관명": "광주광역시 사회재난과", "소재지지번주소": "동구 동명동 200-22", "소재지도로명주소": "동구 동계로 7", "카메라대수": 2, "카메라화소": "200만", "촬영방면": "360도", "보관일수": "30일", "설치연도": 2017, "위도": 35.152539, "경도": 126.924103, "데이터기준일자": "2026-06-30", "road_name_from_addr": "동계로" }, "geometry": { "type": "Point", "coordinates": [ 126.924103, 35.152539 ] } },
{ "type": "Feature", "properties": { "관리기관명": "광주광역시 사회재난과", "소재지지번주소": "동구 동명동 200-22", "소재지도로명주소": "동구 동계로 7", "카메라대수": 1, "카메라화소": "200만", "촬영방면": "360도", "보관일수": "30일", "설치연도": 2017, "위도": 35.152539, "경도": 126.924103, "데이터기준일자": "2026-06-30", "road_name_from_addr": "동계로" }, "geometry": { "type": "Point", "coordinates": [ 126.924103, 35.152539 ] } },
{ "type": "Feature", "properties": { "관리기관명": "광주광역시 사회재난과", "소재지지번주소": "동구 동명동 200-22", "소재지도로명주소": "동구 동계로 7", "카메라대수": 1, "카메라화소": "200만", "촬영방면": "360도", "보관일수": "30일", "설치연도": 2013, "위도": 35.152539, "경도": 126.924103, "데이터기준일자": "2026-06-30", "road_name_from_addr": "동계로" }, "geometry": { "type": "Point", "coordinates": [ 126.924103, 35.152539 ] } },
{ "type": "Feature", "properties": { "관리기관명": "광주광역시 사회재난과", "소재지지번주소": "동구 동명동 181-5", "소재지도로명주소": null, "카메라대수": 1, "카메라화소": "200만", "촬영방면": "360도", "보관일수": "30일", "설치연도": 2019, "위도": 35.152596, "경도": 126.925749, "데이터기준일자": "2026-06-30", "road_name_from_addr": null }, "geometry": { "type": "Point", "coordinates": [ 126.925749, 35.152596 ] } },
{ "type": "Feature", "properties": { "관리기관명": "광주광역시 사회재난과", "소재지지번주소": "동구 동명동 228-46", "소재지도로명주소": "동구 동계천로95번길 9", "카메라대수": 3, "카메라화소": "200만", "촬영방면": "360도", "보관일수": "30일", "설치연도": 2022, "위도": 35.152214, "경도": 126.922136, "데이터기준일자": "2026-06-30", "road_name_from_addr": "동계천로95번길" }, "geometry": { "type": "Point", "coordinates": [ 126.922136, 35.152214 ] } },
{ "type": "Feature", "properties": { "관리기관명": "광주광역시 사회재난과", "소재지지번주소": "동구 동명동 228-65", "소재지도로명주소": "동구 동계천로85번길 6-12", "카메라대수": 2, "카메라화소": "200만", "촬영방면": "360도", "보관일수": "30일", "설치연도": 2024, "위도": 35.152281, "경도": 126.921251, "데이터기준일자": "2026-06-30", "road_name_from_addr": "동계천로85번길" }, "geometry": { "type": "Point", "coordinates": [ 126.921251, 35.152281 ] } },
{ "type": "Feature", "properties": { "관리기관명": "광주광역시 사회재난과", "소재지지번주소": "동구 동명동 200-31", "소재지도로명주소": "동구 동계로9번길 13", "카메라대수": 1, "카메라화소": "200만", "촬영방면": "360도", "보관일수": "30일", "설치연도": 2018, "위도": 35.152972, "경도": 126.922411, "데이터기준일자": "2026-06-30", "road_name_from_addr": "동계로9번길" }, "geometry": { "type": "Point", "coordinates": [ 126.922411, 35.152972 ] } },
{ "type": "Feature", "properties": { "관리기관명": "광주광역시 사회재난과", "소재지지번주소": "동구 동명동 207-32", "소재지도로명주소": "동구 동계천로95번길 22-2", "카메라대수": 4, "카메라화소": "200만", "촬영방면": "360도", "보관일수": "30일", "설치연도": 2018, "위도": 35.153287, "경도": 126.921883, "데이터기준일자": "2026-06-30", "road_name_from_addr": "동계천로95번길" }, "geometry": { "type": "Point", "coordinates": [ 126.921883, 35.153287 ] } },
{ "type": "Feature", "properties": { "관리기관명": "광주광역시 사회재난과", "소재지지번주소": "동구 동명동 209-7", "소재지도로명주소": "동구 동계천로95번길 22-8", "카메라대수": 1, "카메라화소": "200만", "촬영방면": "360도", "보관일수": "30일", "설치연도": 2018, "위도": 35.153359, "경도": 126.922126, "데이터기준일자": "2026-06-30", "road_name_from_addr": "동계천로95번길" }, "geometry": { "type": "Point", "coordinates": [ 126.922126, 35.153359 ] } },
{ "type": "Feature", "properties": { "관리기관명": "광주광역시 사회재난과", "소재지지번주소": "동구 동명동 209-7", "소재지도로명주소": "동구 동계천로95번길 22-8", "카메라대수": 1, "카메라화소": "200만", "촬영방면": "360도", "보관일수": "30일", "설치연도": 2016, "위도": 35.153359, "경도": 126.922126, "데이터기준일자": "2026-06-30", "road_name_from_addr": "동계천로95번길" }, "geometry": { "type": "Point", "coordinates": [ 126.922126, 35.153359 ] } },
{ "type": "Feature", "properties": { "관리기관명": "광주광역시 사회재난과", "소재지지번주소": "동구 동명동 236", "소재지도로명주소": "동구 중앙로246번길 5", "카메라대수": 4, "카메라화소": "200만", "촬영방면": "360도", "보관일수": "30일", "설치연도": 2024, "위도": 35.153392, "경도": 126.920369, "데이터기준일자": "2026-06-30", "road_name_from_addr": "중앙로246번길" }, "geometry": { "type": "Point", "coordinates": [ 126.920369, 35.153392 ] } },
{ "type": "Feature", "properties": { "관리기관명": "광주광역시 사회재난과", "소재지지번주소": "동구 동명동 181-5", "소재지도로명주소": null, "카메라대수": 1, "카메라화소": "200만", "촬영방면": "360도", "보관일수": "30일", "설치연도": 2023, "위도": 35.152596, "경도": 126.925749, "데이터기준일자": "2026-06-30", "road_name_from_addr": null }, "geometry": { "type": "Point", "coordinates": [ 126.925749, 35.152596 ] } },
{ "type": "Feature", "properties": { "관리기관명": "광주광역시 사회재난과", "소재지지번주소": "동구 동명동 181-5", "소재지도로명주소": null, "카메라대수": 1, "카메라화소": "200만", "촬영방면": "360도", "보관일수": "30일", "설치연도": 2024, "위도": 35.152596, "경도": 126.925749, "데이터기준일자": "2026-06-30", "road_name_from_addr": null }, "geometry": { "type": "Point", "coordinates": [ 126.925749, 35.152596 ] } },
{ "type": "Feature", "properties": { "관리기관명": "광주광역시 사회재난과", "소재지지번주소": "동구 동명동 200-31", "소재지도로명주소": "동구 동계로9번길 13", "카메라대수": 3, "카메라화소": "200만", "촬영방면": "360도", "보관일수": "30일", "설치연도": 2024, "위도": 35.152972, "경도": 126.922411, "데이터기준일자": "2026-06-30", "road_name_from_addr": "동계로9번길" }, "geometry": { "type": "Point", "coordinates": [ 126.922411, 35.152972 ] } },
{ "type": "Feature", "properties": { "관리기관명": "광주광역시 사회재난과", "소재지지번주소": "동구 동명동 207-78", "소재지도로명주소": "동구 동계로13번길 11", "카메라대수": 3, "카메라화소": "200만", "촬영방면": "360도", "보관일수": "30일", "설치연도": 2019, "위도": 35.15321, "경도": 126.923193, "데이터기준일자": "2026-06-30", "road_name_from_addr": "동계로13번길" }, "geometry": { "type": "Point", "coordinates": [ 126.923193, 35.15321 ] } },
{ "type": "Feature", "properties": { "관리기관명": "광주광역시 사회재난과", "소재지지번주소": "동구 동명동 249-10", "소재지도로명주소": "동구 동계천로95번길 31-14", "카메라대수": 3, "카메라화소": "200만", "촬영방면": "360도", "보관일수": "30일", "설치연도": 2019, "위도": 35.153688, "경도": 126.921119, "데이터기준일자": "2026-06-30", "road_name_from_addr": "동계천로95번길" }, "geometry": { "type": "Point", "coordinates": [ 126.921119, 35.153688 ] } },
{ "type": "Feature", "properties": { "관리기관명": "광주광역시 사회재난과", "소재지지번주소": "동구 동명동 251-7", "소재지도로명주소": "동구 동계천로95번길 31", "카메라대수": 1, "카메라화소": "200만", "촬영방면": "360도", "보관일수": "30일", "설치연도": 2024, "위도": 35.153979, "경도": 126.921522, "데이터기준일자": "2026-06-30", "road_name_from_addr": "동계천로95번길" }, "geometry": { "type": "Point", "coordinates": [ 126.921522, 35.153979 ] } },
{ "type": "Feature", "properties": { "관리기관명": "광주광역시 사회재난과", "소재지지번주소": "동구 동명동 251-7", "소재지도로명주소": "동구 동계천로95번길 31", "카메라대수": 2, "카메라화소": "200만", "촬영방면": "360도", "보관일수": "30일", "설치연도": 2023, "위도": 35.153979, "경도": 126.921522, "데이터기준일자": "2026-06-30", "road_name_from_addr": "동계천로95번길" }, "geometry": { "type": "Point", "coordinates": [ 126.921522, 35.153979 ] } },
{ "type": "Feature", "properties": { "관리기관명": "광주광역시 사회재난과", "소재지지번주소": "동구 동명동 251-7", "소재지도로명주소": "동구 동계천로95번길 31", "카메라대수": 1, "카메라화소": "200만", "촬영방면": "360도", "보관일수": "30일", "설치연도": 2021, "위도": 35.153979, "경도": 126.921522, "데이터기준일자": "2026-06-30", "road_name_from_addr": "동계천로95번길" }, "geometry": { "type": "Point", "coordinates": [ 126.921522, 35.153979 ] } }
]
}
