{
"type": "FeatureCollection",
"name": "dongmyeong_boundary",
"crs": { "type": "name", "properties": { "name": "urn:ogc:def:crs:OGC:1.3:CRS84" } },
"features": [
{ "type": "Feature", "properties": { "EMD_CD": "12210108", "COL_ADM_SE": "12210", "EMD_NM": "동명동", "SGG_OID": 2073.0 }, "geometry": { "type": "Polygon", "coordinates": [ [ [ 126.919248289424999, 35.153215266950951 ], [ 126.919257621263782, 35.15322289874242 ], [ 126.919607232310625, 35.153497561843565 ], [ 126.919848446068272, 35.153696563373501 ], [ 126.920073141229324, 35.1539533391852 ], [ 126.920158042587914, 35.15406377607129 ], [ 126.920235067192579, 35.154138072304541 ], [ 126.92033262649781, 35.154267112495646 ], [ 126.920378313083944, 35.154335411675035 ], [ 126.920477004443228, 35.154496504677894 ], [ 126.920509217757413, 35.154516734568759 ], [ 126.92053851579135, 35.154532888381389 ], [ 126.920594436232491, 35.154562949827053 ], [ 126.920703370925324, 35.154598779194593 ], [ 126.920761752508213, 35.154626156165406 ], [ 126.920781592052904, 35.154640464857998 ], [ 126.920823610296608, 35.154678719271388 ], [ 126.920852895076607, 35.154719570117926 ], [ 126.920910511244202, 35.154799910109944 ], [ 126.920920433331887, 35.154810318336253 ], [ 126.920962369027762, 35.154821099354649 ], [ 126.921016835025341, 35.154835052429924 ], [ 126.921034313738289, 35.154839534747758 ], [ 126.921095857131519, 35.154854997745538 ], [ 126.921152571059068, 35.15487097128463 ], [ 126.921177418989473, 35.154881542608081 ], [ 126.921254147762752, 35.15494587801949 ], [ 126.921264159683361, 35.154954276255985 ], [ 126.921329125297405, 35.155005480112031 ], [ 126.921354951071933, 35.155015024500976 ], [ 126.921375850902891, 35.155022708839368 ], [ 126.92145947054351, 35.154942994168593 ], [ 126.921479421959376, 35.154955337866937 ], [ 126.921627928996884, 35.155063084554911 ], [ 126.921742981048368, 35.155140694802796 ], [ 126.921819670877611, 35.155189382311576 ], [ 126.921835946157486, 35.155201335952924 ], [ 126.921906462832126, 35.155120125132669 ], [ 126.922023071742458, 35.154951224648336 ], [ 126.922183535369683, 35.154805724864296 ], [ 126.922348059264024, 35.1547508497178 ], [ 126.922430047089037, 35.154677650102457 ], [ 126.92253029968937, 35.154533516693299 ], [ 126.922598691237496, 35.154367189145582 ], [ 126.922629434009181, 35.154296750239496 ], [ 126.92269753061224, 35.154219719657952 ], [ 126.922729335252399, 35.154197521923919 ], [ 126.923060086625441, 35.153990073163421 ], [ 126.923159125813754, 35.153919110418315 ], [ 126.923174680086689, 35.153904599638246 ], [ 126.923219251482365, 35.153878984870389 ], [ 126.923300717569632, 35.153856170054176 ], [ 126.923384687514925, 35.153820142933547 ], [ 126.923557750285937, 35.153704258921579 ], [ 126.923732344934635, 35.153581146775849 ], [ 126.923760942616838, 35.153560830543604 ], [ 126.923863472444779, 35.153487985622633 ], [ 126.923945015162687, 35.153430044619036 ], [ 126.923985395012167, 35.153403038799929 ], [ 126.923985404022574, 35.153393529511149 ], [ 126.924016797515762, 35.153364399753428 ], [ 126.924083265021181, 35.153301870140069 ], [ 126.924093883860422, 35.153295269986202 ], [ 126.924148515109536, 35.153261621207577 ], [ 126.924169203584924, 35.153248889241759 ], [ 126.924209554898169, 35.153240298010651 ], [ 126.924269657368399, 35.153223670245367 ], [ 126.924385709776473, 35.153183020874152 ], [ 126.924461448885594, 35.153157173079961 ], [ 126.924474377649958, 35.153156622451711 ], [ 126.924800262904569, 35.153143561039776 ], [ 126.924959741510335, 35.153091662622771 ], [ 126.925165146479671, 35.152983809751269 ], [ 126.925378185961065, 35.152820573054996 ], [ 126.925470080810811, 35.152792959097951 ], [ 126.925557930444583, 35.152784135790647 ], [ 126.925738020852307, 35.152788764211046 ], [ 126.925930515777381, 35.152730638741957 ], [ 126.926066146521705, 35.152676966360289 ], [ 126.92608314769997, 35.152675444629637 ], [ 126.926149400577103, 35.152676801787599 ], [ 126.926145797158952, 35.152657014805321 ], [ 126.926142087664232, 35.152645159681484 ], [ 126.926128517531794, 35.152579586681604 ], [ 126.926168541590329, 35.152437152377303 ], [ 126.926164460193434, 35.152376290346048 ], [ 126.926257775716451, 35.152354400276437 ], [ 126.92636675547115, 35.152340668089742 ], [ 126.926464881111684, 35.15230318739669 ], [ 126.926565866878974, 35.152282230230362 ], [ 126.926624310280801, 35.152194438281406 ], [ 126.926809959777003, 35.151974829406036 ], [ 126.92690162951088, 35.151915702843034 ], [ 126.926997035987043, 35.151850512385025 ], [ 126.92712563262802, 35.15179381494719 ], [ 126.927262813423582, 35.151758845287183 ], [ 126.927256063501517, 35.151771568290918 ], [ 126.927273291835917, 35.151773462668196 ], [ 126.92732569019779, 35.151779137208017 ], [ 126.92747680593051, 35.151795598141156 ], [ 126.927497847138696, 35.151755906284521 ], [ 126.927502065307891, 35.15172728181679 ], [ 126.927518027832505, 35.151526983383285 ], [ 126.927517943565917, 35.151498806967062 ], [ 126.927517888754679, 35.151486602583624 ], [ 126.927510657151089, 35.151400987450579 ], [ 126.92750869777251, 35.151371124355521 ], [ 126.92750053639277, 35.151306420095331 ], [ 126.927486919152443, 35.151243434093345 ], [ 126.927475847875201, 35.151204858344208 ], [ 126.927457691092101, 35.151137615170235 ], [ 126.927484725292558, 35.151133106867185 ], [ 126.927505413641441, 35.151131479023753 ], [ 126.927567787597184, 35.151124792950007 ], [ 126.92764738172832, 35.151104569960616 ], [ 126.927668953001486, 35.151097426332427 ], [ 126.927767771769453, 35.151043522303318 ], [ 126.927778708415232, 35.151036768786483 ], [ 126.927791292932042, 35.151028123423927 ], [ 126.927795609203883, 35.151024448517234 ], [ 126.927854059200058, 35.150975630563707 ], [ 126.927907719182741, 35.150956869875472 ], [ 126.928082646250431, 35.150901975184603 ], [ 126.928139072569252, 35.150894473996281 ], [ 126.928180515992167, 35.150890073401328 ], [ 126.928249286979963, 35.150859793360375 ], [ 126.928286078426964, 35.150841779453962 ], [ 126.928323787802228, 35.150840405109854 ], [ 126.928386871601546, 35.150837306436543 ], [ 126.928432439095857, 35.150835450063347 ], [ 126.92852405015168, 35.150839363018243 ], [ 126.928538954932137, 35.150837677436996 ], [ 126.928652356738937, 35.150809641340246 ], [ 126.9287140249412, 35.15079404886113 ], [ 126.928771017839878, 35.150791000413797 ], [ 126.928779007368917, 35.150790833946743 ], [ 126.928801154354488, 35.150790162193189 ], [ 126.928898608295654, 35.150788976695544 ], [ 126.928979029042054, 35.150788790454392 ], [ 126.92913456444505, 35.150794570903422 ], [ 126.929229642984367, 35.150798963111995 ], [ 126.929295684498015, 35.150801886781593 ], [ 126.929343491629297, 35.150811460584968 ], [ 126.929444626521374, 35.150830088628766 ], [ 126.929471268527124, 35.150834530107879 ], [ 126.929487022702318, 35.150815394674687 ], [ 126.929506835418437, 35.150823464553184 ], [ 126.929504797136488, 35.150807626529648 ], [ 126.929485003414072, 35.150802918717574 ], [ 126.929429683464278, 35.150750661329639 ], [ 126.929428644594864, 35.15074646039632 ], [ 126.929477690765268, 35.150707361692987 ], [ 126.929525395942207, 35.150670614711331 ], [ 126.929570871427302, 35.15063596654646 ], [ 126.929687609621169, 35.150582008476945 ], [ 126.929742218328002, 35.150556856926634 ], [ 126.929819086045086, 35.150528302371235 ], [ 126.930014076269501, 35.150456056636834 ], [ 126.92994391088844, 35.150312528492861 ], [ 126.929855830417253, 35.150287752318434 ], [ 126.929690090834185, 35.150293269751593 ], [ 126.929663849326502, 35.150207841770751 ], [ 126.929653324516366, 35.150170816868417 ], [ 126.92973252874333, 35.150105515487581 ], [ 126.929870720722434, 35.150076807881717 ], [ 126.930034204890575, 35.150140098348658 ], [ 126.930061492576101, 35.150146387857482 ], [ 126.930091753877505, 35.150153174856392 ], [ 126.930103286730045, 35.15015452466514 ], [ 126.930166753906789, 35.150164161442873 ], [ 126.930332848193743, 35.15015425396443 ], [ 126.930426903752632, 35.150147954557617 ], [ 126.930431370564435, 35.150147659727601 ], [ 126.930436847194869, 35.150147158177312 ], [ 126.930450982957183, 35.150146220035069 ], [ 126.93051671216034, 35.150141733714364 ], [ 126.930590498414333, 35.150122397730335 ], [ 126.930715393980719, 35.150088201145877 ], [ 126.930775689308462, 35.150072778071454 ], [ 126.930808829635282, 35.15006255799215 ], [ 126.930853370177644, 35.150042060078121 ], [ 126.930884112209739, 35.150025925689249 ], [ 126.930908585306781, 35.150012789158119 ], [ 126.930944224145506, 35.149994007618524 ], [ 126.930950318121816, 35.149990261524323 ], [ 126.930954552550887, 35.149992183874325 ], [ 126.930971865590365, 35.149984595515633 ], [ 126.930967785553165, 35.149918145215771 ], [ 126.930954189075905, 35.149840972263576 ], [ 126.930925528851674, 35.14967018477293 ], [ 126.930841128650371, 35.149565109687551 ], [ 126.930784494116025, 35.149472029747969 ], [ 126.930786599348963, 35.149461440047361 ], [ 126.930724324037925, 35.149406601306772 ], [ 126.930671339546294, 35.149306177393605 ], [ 126.930660903707135, 35.149216693728881 ], [ 126.930636124776456, 35.149177704638348 ], [ 126.930591941614111, 35.14910287531464 ], [ 126.930554730885788, 35.149049042625009 ], [ 126.930503639097168, 35.148930547559097 ], [ 126.930418720715139, 35.148905530273701 ], [ 126.930356641093638, 35.148891450757013 ], [ 126.930304030336842, 35.148879512979647 ], [ 126.930274915666175, 35.148867138300865 ], [ 126.930259649161229, 35.148742742253475 ], [ 126.930208373818374, 35.148508143321713 ], [ 126.930174450532888, 35.148347096178846 ], [ 126.930175181752332, 35.148276195966375 ], [ 126.930152598148737, 35.148149109550424 ], [ 126.930137454462695, 35.148060416247631 ], [ 126.930126907122016, 35.147998964618218 ], [ 126.930104352425587, 35.147914386144116 ], [ 126.930080672525065, 35.147849141084258 ], [ 126.929990971226985, 35.147710522805198 ], [ 126.929987714578289, 35.147707510356746 ], [ 126.929938309798374, 35.14765706838768 ], [ 126.929914132819206, 35.147608317811297 ], [ 126.929904787689878, 35.147590384327948 ], [ 126.929897056199778, 35.147546844276746 ], [ 126.929885133392006, 35.147502463489225 ], [ 126.929882112163114, 35.147493790662068 ], [ 126.929865973314989, 35.147451750908154 ], [ 126.929811331907885, 35.147366324171074 ], [ 126.92980647040217, 35.147341317685644 ], [ 126.92944291330852, 35.147167663356228 ], [ 126.929292597527621, 35.147111996361616 ], [ 126.929186435569079, 35.147074914429894 ], [ 126.929078645778461, 35.147042112873692 ], [ 126.929005719271785, 35.147010368622325 ], [ 126.928925266034483, 35.146964765983043 ], [ 126.928872263926351, 35.146925552316418 ], [ 126.92880928349102, 35.146865123741563 ], [ 126.928574504449998, 35.146758199175359 ], [ 126.928514499971939, 35.146745093423242 ], [ 126.928330042480965, 35.146631862117914 ], [ 126.928238483009409, 35.146575607305962 ], [ 126.92794571029529, 35.146418161526199 ], [ 126.927779127966176, 35.146283587091233 ], [ 126.927655521697687, 35.146207482521682 ], [ 126.927578212780844, 35.146132857232558 ], [ 126.927490551973733, 35.146025975057604 ], [ 126.927420401970735, 35.145971517368984 ], [ 126.927305330348517, 35.146105307424335 ], [ 126.926959320748438, 35.146400839206102 ], [ 126.926786755997298, 35.14653435906024 ], [ 126.926734187697264, 35.146562259690135 ], [ 126.926582293883058, 35.146663244025341 ], [ 126.926496825200289, 35.146751614223824 ], [ 126.926335262579087, 35.146852772537706 ], [ 126.926105858172207, 35.147002309322829 ], [ 126.926100587871829, 35.147005370656821 ], [ 126.926032545934078, 35.14704503306789 ], [ 126.925441643037047, 35.147530296478578 ], [ 126.925310218798472, 35.147647913036145 ], [ 126.925227235791127, 35.147704204631886 ], [ 126.925199879250641, 35.147725955168085 ], [ 126.925150809581112, 35.147801728311208 ], [ 126.925020188909215, 35.147951018695551 ], [ 126.924979251568175, 35.148002406207333 ], [ 126.924965831791056, 35.148024282657616 ], [ 126.924944436964395, 35.148066308387229 ], [ 126.924896104653442, 35.148057318394912 ], [ 126.924832510178163, 35.148045407357891 ], [ 126.924634057946719, 35.148042649793339 ], [ 126.92452272976854, 35.148050475064679 ], [ 126.924439583869699, 35.148080626697052 ], [ 126.924419275476424, 35.148087401001064 ], [ 126.924407845931512, 35.148093288603299 ], [ 126.924403673879539, 35.148095314001829 ], [ 126.924431009369414, 35.148096268784414 ], [ 126.924446319950235, 35.148106049208245 ], [ 126.924440410039722, 35.14812392835119 ], [ 126.924528524995011, 35.148212812908739 ], [ 126.92460748487143, 35.148293083650394 ], [ 126.924612341748372, 35.148298026158663 ], [ 126.924681982584943, 35.148368943884293 ], [ 126.924766019529145, 35.148453742541761 ], [ 126.924825574380307, 35.148514053859103 ], [ 126.924877436135816, 35.148527832307387 ], [ 126.924885378803239, 35.148530604486744 ], [ 126.924879131537224, 35.148768179862721 ], [ 126.924882463594358, 35.148784262152105 ], [ 126.924892611692115, 35.148810903621069 ], [ 126.924894823323044, 35.148816403287292 ], [ 126.924903432785541, 35.148845459416471 ], [ 126.924902597163282, 35.148847153437309 ], [ 126.924911053080478, 35.148864392696666 ], [ 126.924918344145652, 35.148883334782035 ], [ 126.924852057041619, 35.148968678326625 ], [ 126.924769711014449, 35.149046097773187 ], [ 126.924658884394262, 35.149126058971987 ], [ 126.924569725698802, 35.149177307611915 ], [ 126.924432524791158, 35.149306916560924 ], [ 126.924312433018954, 35.149389224089262 ], [ 126.924213007101102, 35.149458231646967 ], [ 126.923927818988204, 35.149713304445264 ], [ 126.92370294425595, 35.149841071764655 ], [ 126.923561507400663, 35.149921841556186 ], [ 126.923308522427064, 35.150065120425147 ], [ 126.9232063803438, 35.150218411141168 ], [ 126.923006067402468, 35.150399535219442 ], [ 126.92278002283058, 35.150553466397987 ], [ 126.922111294613458, 35.151235780097544 ], [ 126.921446809562212, 35.151439716592762 ], [ 126.921119563236232, 35.151794480852779 ], [ 126.921017182951047, 35.151904639674221 ], [ 126.920892228303813, 35.151991870957708 ], [ 126.920797355118125, 35.152056489105327 ], [ 126.920669006515212, 35.152123870058396 ], [ 126.920432153414311, 35.152344580012723 ], [ 126.920312419934035, 35.15247752189542 ], [ 126.920048195314351, 35.152685882221469 ], [ 126.919747520038712, 35.152797718332444 ], [ 126.91948796010368, 35.152970341844338 ], [ 126.919394290481321, 35.153047299244527 ], [ 126.919248289424999, 35.153215266950951 ] ] ] } }
]
}
