{
"type": "FeatureCollection",
"name": "fire_station",
"crs": { "type": "name", "properties": { "name": "urn:ogc:def:crs:OGC:1.3:CRS84" } },
"features": [
{ "type": "Feature", "properties": { "번호": "64", "소방서 및 안전센터명": "동부소방서_광주-지산-119 안전센터", "주소": "광주광역시 동구 밤실로30번길 16(지산동)", "상위 본부명": "광주소방안전본부", "전화번호": "062-606-4423", "X좌표": 35.1499634, "Y좌표": 126.9385315, "유형": "119안전센터", "등록일": "2018-03-17", "z": 47.4 }, "geometry": { "type": "Point", "coordinates": [ 126.9385315, 35.1499634 ] } },
{ "type": "Feature", "properties": { "번호": "65", "소방서 및 안전센터명": "동부소방서_광주-대인-119 안전센터", "주소": "광주광역시 동구 제봉로 210(대인동)", "상위 본부명": "광주소방안전본부", "전화번호": "062-606-4203", "X좌표": 35.1545794, "Y좌표": 126.9147654, "유형": "119안전센터", "등록일": "2018-03-17", "z": 8.2 }, "geometry": { "type": "Point", "coordinates": [ 126.9147654, 35.1545794 ] } },
{ "type": "Feature", "properties": { "번호": "969", "소방서 및 안전센터명": "동부소방서", "주소": "광주광역시 동구 제봉로 210(대인동)", "상위 본부명": "광주소방안전본부", "전화번호": "062-613-8413", "X좌표": 35.1545794, "Y좌표": 126.9147654, "유형": "소방서", "등록일": "2018-03-17", "z": 8.2 }, "geometry": { "type": "Point", "coordinates": [ 126.9147654, 35.1545794 ] } }
]
}
