{
"type": "FeatureCollection",
"name": "fire_hydrants",
"crs": { "type": "name", "properties": { "name": "urn:ogc:def:crs:OGC:1.3:CRS84" } },
"features": [
{ "type": "Feature", "properties": { "시설번호": "동부-지산-동부-25", "시설유형코드": "6 ", "시도명": "광주광역시", "시군구명": "동구", "시군구코드": "62901", "소재지도로명주소": "광주광역시 동구 동계로 13번길 18-2", "소재지지번주소": "광주광역시 동구 동명동 209-53", "위도": 35.153441744399998, "경도": 126.9225468786, "상세위치": "", "안전센터명": "지산110안전센터", "보호틀유무": "N", "설치연도": "2019", "출수압력": "3.3", "관할기관명": "동부소방서", "관할기관전화번호": "062-606-4257", "데이터기준일자": "2024-02-07", "제공기관코드": "1661000", "제공기관명": "소방청" }, "geometry": { "type": "Point", "coordinates": [ 126.922546878600002, 35.153441744399998 ] } }
]
}
