{
"type": "FeatureCollection",
"name": "road_link_raw",
"crs": { "type": "name", "properties": { "name": "urn:ogc:def:crs:OGC:1.3:CRS84" } },
"features": [
{ "type": "Feature", "properties": { "LINK_ID": "1750004104", "F_NODE": "1750139100", "T_NODE": "1750002102", "LANES": 4, "ROAD_RANK": "103", "ROAD_TYPE": "000", "ROAD_NO": "29", "ROAD_NAME": "필문대로", "ROAD_USE": "0", "MULTI_LINK": "0", "CONNECT": "0", "MAX_SPD": 50, "REST_VEH": "0", "REST_W": 0, "REST_H": 0, "C-ITS": "1", "LENGTH": 33.740652243257003, "UPDATEDATE": "20250512", "REMARK": null, "HIST_TYPE": "LINK1007", "HISTREMARK": "1750004101" }, "geometry": { "type": "LineString", "coordinates": [ [ 126.927207795775388, 35.146188613425721 ], [ 126.927211127356316, 35.146193663911006 ] ] } },
{ "type": "Feature", "properties": { "LINK_ID": "1750016202", "F_NODE": "1750062100", "T_NODE": "1750009403", "LANES": 1, "ROAD_RANK": "104", "ROAD_TYPE": "000", "ROAD_NO": "-", "ROAD_NAME": "백서로", "ROAD_USE": "0", "MULTI_LINK": "0", "CONNECT": "0", "MAX_SPD": 30, "REST_VEH": "0", "REST_W": 0, "REST_H": 0, "C-ITS": "0", "LENGTH": 217.621272097, "UPDATEDATE": "20250512", "REMARK": null, "HIST_TYPE": "LINK1007", "HISTREMARK": "1750016200" }, "geometry": { "type": "LineString", "coordinates": [ [ 126.926226393677766, 35.146923738627358 ], [ 126.926519221068716, 35.147349717410869 ] ] } },
{ "type": "Feature", "properties": { "LINK_ID": "1750004102", "F_NODE": "1750002102", "T_NODE": "1750002105", "LANES": 4, "ROAD_RANK": "103", "ROAD_TYPE": "000", "ROAD_NO": "29", "ROAD_NAME": "필문대로", "ROAD_USE": "0", "MULTI_LINK": "0", "CONNECT": "0", "MAX_SPD": 50, "REST_VEH": "0", "REST_W": 0, "REST_H": 0, "C-ITS": "1", "LENGTH": 83.863544697254, "UPDATEDATE": "20250512", "REMARK": null, "HIST_TYPE": "LINK0003", "HISTREMARK": null }, "geometry": { "type": "LineString", "coordinates": [ [ 126.927211127356316, 35.146193663911006 ], [ 126.9276495312848, 35.14685829907787 ] ] } },
{ "type": "Feature", "properties": { "LINK_ID": "1750016100", "F_NODE": "1750009404", "T_NODE": "1750062200", "LANES": 1, "ROAD_RANK": "104", "ROAD_TYPE": "000", "ROAD_NO": "-", "ROAD_NAME": "백서로", "ROAD_USE": "0", "MULTI_LINK": "0", "CONNECT": "0", "MAX_SPD": 30, "REST_VEH": "0", "REST_W": 0, "REST_H": 0, "C-ITS": "0", "LENGTH": 217.02888422914199, "UPDATEDATE": "20250512", "REMARK": null, "HIST_TYPE": "LINK0003", "HISTREMARK": null }, "geometry": { "type": "LineString", "coordinates": [ [ 126.926399926895257, 35.147396170655952 ], [ 126.926121973983882, 35.146991804296739 ] ] } },
{ "type": "Feature", "properties": { "LINK_ID": "1750004202", "F_NODE": "1750002106", "T_NODE": "1750002103", "LANES": 4, "ROAD_RANK": "103", "ROAD_TYPE": "000", "ROAD_NO": "29", "ROAD_NAME": "필문대로", "ROAD_USE": "0", "MULTI_LINK": "0", "CONNECT": "0", "MAX_SPD": 50, "REST_VEH": "0", "REST_W": 0, "REST_H": 0, "C-ITS": "1", "LENGTH": 85.129423510126003, "UPDATEDATE": "20250512", "REMARK": null, "HIST_TYPE": "LINK0003", "HISTREMARK": null }, "geometry": { "type": "LineString", "coordinates": [ [ 126.927540365209268, 35.146919857593325 ], [ 126.927111996898631, 35.146270436695133 ] ] } },
{ "type": "Feature", "properties": { "LINK_ID": "1750016905", "F_NODE": "1750140300", "T_NODE": "1750063300", "LANES": 2, "ROAD_RANK": "104", "ROAD_TYPE": "000", "ROAD_NO": "-", "ROAD_NAME": "지산로", "ROAD_USE": "0", "MULTI_LINK": "0", "CONNECT": "0", "MAX_SPD": 30, "REST_VEH": "0", "REST_W": 0, "REST_H": 0, "C-ITS": "0", "LENGTH": 10.21190600631, "UPDATEDATE": "20250512", "REMARK": null, "HIST_TYPE": "LINK1007", "HISTREMARK": "1750016900" }, "geometry": { "type": "LineString", "coordinates": [ [ 126.928373389642189, 35.146658471313927 ], [ 126.928324896547409, 35.146679764325746 ] ] } },
{ "type": "Feature", "properties": { "LINK_ID": "1750017000", "F_NODE": "1750002105", "T_NODE": "1750063400", "LANES": 2, "ROAD_RANK": "104", "ROAD_TYPE": "000", "ROAD_NO": "-", "ROAD_NAME": "지산로", "ROAD_USE": "1", "MULTI_LINK": "0", "CONNECT": "0", "MAX_SPD": 30, "REST_VEH": "0", "REST_W": 0, "REST_H": 0, "C-ITS": "0", "LENGTH": 63.630918546255998, "UPDATEDATE": "20250512", "REMARK": null, "HIST_TYPE": "LINK0003", "HISTREMARK": null }, "geometry": { "type": "LineString", "coordinates": [ [ 126.9276495312848, 35.14685829907787 ], [ 126.92769873611519, 35.146832116735489 ], [ 126.928257002282464, 35.146586985695222 ] ] } },
{ "type": "Feature", "properties": { "LINK_ID": "1750016903", "F_NODE": "1750063300", "T_NODE": "1750002104", "LANES": 2, "ROAD_RANK": "104", "ROAD_TYPE": "000", "ROAD_NO": "-", "ROAD_NAME": "지산로", "ROAD_USE": "0", "MULTI_LINK": "0", "CONNECT": "0", "MAX_SPD": 30, "REST_VEH": "0", "REST_W": 0, "REST_H": 0, "C-ITS": "0", "LENGTH": 63.544819598266002, "UPDATEDATE": "20250512", "REMARK": null, "HIST_TYPE": "LINK1007", "HISTREMARK": "1750016900" }, "geometry": { "type": "LineString", "coordinates": [ [ 126.928324896547409, 35.146679764325746 ], [ 126.927765766141079, 35.146925272747914 ], [ 126.927712619324197, 35.146953555657177 ] ] } },
{ "type": "Feature", "properties": { "LINK_ID": "1750016801", "F_NODE": "1750002106", "T_NODE": "1750002105", "LANES": 1, "ROAD_RANK": "104", "ROAD_TYPE": "000", "ROAD_NO": "-", "ROAD_NAME": "장동로", "ROAD_USE": "0", "MULTI_LINK": "0", "CONNECT": "0", "MAX_SPD": 30, "REST_VEH": "0", "REST_W": 0, "REST_H": 0, "C-ITS": "0", "LENGTH": 12.06646543255, "UPDATEDATE": "20250512", "REMARK": null, "HIST_TYPE": "LINK0001", "HISTREMARK": null }, "geometry": { "type": "LineString", "coordinates": [ [ 126.927540365209268, 35.146919857593325 ], [ 126.9276495312848, 35.14685829907787 ] ] } },
{ "type": "Feature", "properties": { "LINK_ID": "1750004103", "F_NODE": "1750002105", "T_NODE": "1750002104", "LANES": 4, "ROAD_RANK": "103", "ROAD_TYPE": "000", "ROAD_NO": "29", "ROAD_NAME": "필문대로", "ROAD_USE": "0", "MULTI_LINK": "0", "CONNECT": "0", "MAX_SPD": 50, "REST_VEH": "0", "REST_W": 0, "REST_H": 0, "C-ITS": "1", "LENGTH": 12.030544642254, "UPDATEDATE": "20250512", "REMARK": null, "HIST_TYPE": "LINK0001", "HISTREMARK": null }, "geometry": { "type": "LineString", "coordinates": [ [ 126.9276495312848, 35.14685829907787 ], [ 126.927712619324197, 35.146953555657177 ] ] } },
{ "type": "Feature", "properties": { "LINK_ID": "1750004401", "F_NODE": "1750002107", "T_NODE": "1750002106", "LANES": 4, "ROAD_RANK": "103", "ROAD_TYPE": "000", "ROAD_NO": "29", "ROAD_NAME": "필문대로", "ROAD_USE": "0", "MULTI_LINK": "0", "CONNECT": "0", "MAX_SPD": 50, "REST_VEH": "0", "REST_W": 0, "REST_H": 0, "C-ITS": "1", "LENGTH": 12.113734503782, "UPDATEDATE": "20250512", "REMARK": null, "HIST_TYPE": "LINK0001", "HISTREMARK": null }, "geometry": { "type": "LineString", "coordinates": [ [ 126.927603939728883, 35.147015750425183 ], [ 126.927540365209268, 35.146919857593325 ] ] } },
{ "type": "Feature", "properties": { "LINK_ID": "1750016901", "F_NODE": "1750002104", "T_NODE": "1750002107", "LANES": 2, "ROAD_RANK": "104", "ROAD_TYPE": "000", "ROAD_NO": "-", "ROAD_NAME": "지산로", "ROAD_USE": "0", "MULTI_LINK": "0", "CONNECT": "0", "MAX_SPD": 30, "REST_VEH": "0", "REST_W": 0, "REST_H": 0, "C-ITS": "0", "LENGTH": 12.070148947653999, "UPDATEDATE": "20250512", "REMARK": null, "HIST_TYPE": "LINK0001", "HISTREMARK": null }, "geometry": { "type": "LineString", "coordinates": [ [ 126.927712619324197, 35.146953555657177 ], [ 126.927603939728883, 35.147015750425183 ] ] } },
{ "type": "Feature", "properties": { "LINK_ID": "1750016800", "F_NODE": "1750009403", "T_NODE": "1750002106", "LANES": 1, "ROAD_RANK": "104", "ROAD_TYPE": "000", "ROAD_NO": "-", "ROAD_NAME": "장동로", "ROAD_USE": "0", "MULTI_LINK": "0", "CONNECT": "0", "MAX_SPD": 30, "REST_VEH": "0", "REST_W": 0, "REST_H": 0, "C-ITS": "0", "LENGTH": 104.68091808881999, "UPDATEDATE": "20250512", "REMARK": null, "HIST_TYPE": "LINK0003", "HISTREMARK": null }, "geometry": { "type": "LineString", "coordinates": [ [ 126.926519221068716, 35.147349717410869 ], [ 126.926578672979645, 35.147322741951868 ], [ 126.927469203939495, 35.146962959985785 ], [ 126.927540365209268, 35.146919857593325 ] ] } },
{ "type": "Feature", "properties": { "LINK_ID": "1750016700", "F_NODE": "1750002107", "T_NODE": "1750009402", "LANES": 1, "ROAD_RANK": "104", "ROAD_TYPE": "000", "ROAD_NO": "-", "ROAD_NAME": "장동로", "ROAD_USE": "0", "MULTI_LINK": "0", "CONNECT": "0", "MAX_SPD": 30, "REST_VEH": "0", "REST_W": 0, "REST_H": 0, "C-ITS": "0", "LENGTH": 104.606100885819, "UPDATEDATE": "20250512", "REMARK": null, "HIST_TYPE": "LINK0003", "HISTREMARK": null }, "geometry": { "type": "LineString", "coordinates": [ [ 126.927603939728883, 35.147015750425183 ], [ 126.927537860460035, 35.147055772775715 ], [ 126.926639610169346, 35.14741864764455 ], [ 126.926582858858936, 35.147444384597236 ] ] } },
{ "type": "Feature", "properties": { "LINK_ID": "1750004300", "F_NODE": "1750002104", "T_NODE": "1750156800", "LANES": 4, "ROAD_RANK": "103", "ROAD_TYPE": "000", "ROAD_NO": "29", "ROAD_NAME": "필문대로", "ROAD_USE": "0", "MULTI_LINK": "0", "CONNECT": "0", "MAX_SPD": 50, "REST_VEH": "0", "REST_W": 0, "REST_H": 0, "C-ITS": "1", "LENGTH": 105.577167421366, "UPDATEDATE": "20250512", "REMARK": null, "HIST_TYPE": "LINK0003", "HISTREMARK": null }, "geometry": { "type": "LineString", "coordinates": [ [ 126.927712619324197, 35.146953555657177 ], [ 126.928268736795232, 35.147788398143227 ] ] } },
{ "type": "Feature", "properties": { "LINK_ID": "1750017503", "F_NODE": "1750009404", "T_NODE": "1750009403", "LANES": 1, "ROAD_RANK": "104", "ROAD_TYPE": "000", "ROAD_NO": "-", "ROAD_NAME": "장동로", "ROAD_USE": "0", "MULTI_LINK": "0", "CONNECT": "0", "MAX_SPD": 30, "REST_VEH": "0", "REST_W": 0, "REST_H": 0, "C-ITS": "0", "LENGTH": 12.030384687170001, "UPDATEDATE": "20250512", "REMARK": null, "HIST_TYPE": "LINK0001", "HISTREMARK": null }, "geometry": { "type": "LineString", "coordinates": [ [ 126.926399926895257, 35.147396170655952 ], [ 126.926519221068716, 35.147349717410869 ] ] } },
{ "type": "Feature", "properties": { "LINK_ID": "1750016201", "F_NODE": "1750009403", "T_NODE": "1750009402", "LANES": 1, "ROAD_RANK": "104", "ROAD_TYPE": "000", "ROAD_NO": "-", "ROAD_NAME": "백서로", "ROAD_USE": "0", "MULTI_LINK": "0", "CONNECT": "0", "MAX_SPD": 30, "REST_VEH": "0", "REST_W": 0, "REST_H": 0, "C-ITS": "0", "LENGTH": 11.997263120347, "UPDATEDATE": "20250512", "REMARK": null, "HIST_TYPE": "LINK0001", "HISTREMARK": null }, "geometry": { "type": "LineString", "coordinates": [ [ 126.926519221068716, 35.147349717410869 ], [ 126.926582858858936, 35.147444384597236 ] ] } },
{ "type": "Feature", "properties": { "LINK_ID": "1750016101", "F_NODE": "1750009405", "T_NODE": "1750009404", "LANES": 1, "ROAD_RANK": "104", "ROAD_TYPE": "000", "ROAD_NO": "-", "ROAD_NAME": "백서로", "ROAD_USE": "0", "MULTI_LINK": "0", "CONNECT": "0", "MAX_SPD": 30, "REST_VEH": "0", "REST_W": 0, "REST_H": 0, "C-ITS": "0", "LENGTH": 11.977312685006, "UPDATEDATE": "20250512", "REMARK": null, "HIST_TYPE": "LINK0001", "HISTREMARK": null }, "geometry": { "type": "LineString", "coordinates": [ [ 126.926449436381844, 35.147496177987477 ], [ 126.926399926895257, 35.147396170655952 ] ] } },
{ "type": "Feature", "properties": { "LINK_ID": "1750016701", "F_NODE": "1750009402", "T_NODE": "1750009405", "LANES": 1, "ROAD_RANK": "104", "ROAD_TYPE": "000", "ROAD_NO": "-", "ROAD_NAME": "장동로", "ROAD_USE": "0", "MULTI_LINK": "0", "CONNECT": "0", "MAX_SPD": 30, "REST_VEH": "0", "REST_W": 0, "REST_H": 0, "C-ITS": "0", "LENGTH": 13.447497403728001, "UPDATEDATE": "20250512", "REMARK": null, "HIST_TYPE": "LINK0001", "HISTREMARK": null }, "geometry": { "type": "LineString", "coordinates": [ [ 126.926582858858936, 35.147444384597236 ], [ 126.926449436381844, 35.147496177987477 ] ] } },
{ "type": "Feature", "properties": { "LINK_ID": "1750017601", "F_NODE": "1750009405", "T_NODE": "1750151100", "LANES": 1, "ROAD_RANK": "104", "ROAD_TYPE": "000", "ROAD_NO": "-", "ROAD_NAME": "장동로", "ROAD_USE": "0", "MULTI_LINK": "0", "CONNECT": "0", "MAX_SPD": 30, "REST_VEH": "0", "REST_W": 0, "REST_H": 0, "C-ITS": "0", "LENGTH": 11.589812084210999, "UPDATEDATE": "20250512", "REMARK": null, "HIST_TYPE": "LINK0003", "HISTREMARK": null }, "geometry": { "type": "LineString", "coordinates": [ [ 126.926449436381844, 35.147496177987477 ], [ 126.926331616941852, 35.147535527320827 ] ] } },
{ "type": "Feature", "properties": { "LINK_ID": "1750017505", "F_NODE": "1750036800", "T_NODE": "1750009404", "LANES": 1, "ROAD_RANK": "104", "ROAD_TYPE": "000", "ROAD_NO": "-", "ROAD_NAME": "장동로", "ROAD_USE": "0", "MULTI_LINK": "0", "CONNECT": "0", "MAX_SPD": 30, "REST_VEH": "0", "REST_W": 0, "REST_H": 0, "C-ITS": "0", "LENGTH": 201.60110714513499, "UPDATEDATE": "20250512", "REMARK": null, "HIST_TYPE": "LINK1007", "HISTREMARK": "1750017502" }, "geometry": { "type": "LineString", "coordinates": [ [ 126.925132197167201, 35.147823001053851 ], [ 126.926282032101312, 35.147435865261414 ], [ 126.926399926895257, 35.147396170655952 ] ] } },
{ "type": "Feature", "properties": { "LINK_ID": "1750017607", "F_NODE": "1750151100", "T_NODE": "1750036700", "LANES": 1, "ROAD_RANK": "104", "ROAD_TYPE": "000", "ROAD_NO": "-", "ROAD_NAME": "장동로", "ROAD_USE": "0", "MULTI_LINK": "0", "CONNECT": "0", "MAX_SPD": 30, "REST_VEH": "0", "REST_W": 0, "REST_H": 0, "C-ITS": "0", "LENGTH": 189.99520381710701, "UPDATEDATE": "20250512", "REMARK": null, "HIST_TYPE": "LINK1007", "HISTREMARK": "1750017601" }, "geometry": { "type": "MultiLineString", "coordinates": [ [ [ 126.926331616941852, 35.147535527320827 ], [ 126.92499577903753, 35.147981659741774 ] ], [ [ 126.924806000056989, 35.148045039009126 ], [ 126.924472586619686, 35.148156385993644 ] ] ] } },
{ "type": "Feature", "properties": { "LINK_ID": "1750004400", "F_NODE": "1750002203", "T_NODE": "1750002107", "LANES": 4, "ROAD_RANK": "103", "ROAD_TYPE": "000", "ROAD_NO": "29", "ROAD_NAME": "필문대로", "ROAD_USE": "0", "MULTI_LINK": "0", "CONNECT": "0", "MAX_SPD": 50, "REST_VEH": "0", "REST_W": 0, "REST_H": 0, "C-ITS": "1", "LENGTH": 283.42217303765102, "UPDATEDATE": "20250512", "REMARK": null, "HIST_TYPE": "LINK0003", "HISTREMARK": null }, "geometry": { "type": "LineString", "coordinates": [ [ 126.9290968188932, 35.149256902008965 ], [ 126.928625734934485, 35.148549713035493 ], [ 126.928153193345963, 35.147840321679944 ], [ 126.927603939728883, 35.147015750425183 ] ] } },
{ "type": "Feature", "properties": { "LINK_ID": "1750004303", "F_NODE": "1750156800", "T_NODE": "1750123800", "LANES": 4, "ROAD_RANK": "103", "ROAD_TYPE": "000", "ROAD_NO": "29", "ROAD_NAME": "필문대로", "ROAD_USE": "0", "MULTI_LINK": "0", "CONNECT": "0", "MAX_SPD": 50, "REST_VEH": "0", "REST_W": 0, "REST_H": 0, "C-ITS": "1", "LENGTH": 89.711599628182995, "UPDATEDATE": "20250512", "REMARK": null, "HIST_TYPE": "LINK1007", "HISTREMARK": "1750004300" }, "geometry": { "type": "LineString", "coordinates": [ [ 126.928268736795232, 35.147788398143227 ], [ 126.928741292847846, 35.148497782913523 ] ] } },
{ "type": "Feature", "properties": { "LINK_ID": "1750004302", "F_NODE": "1750123800", "T_NODE": "1750002202", "LANES": 4, "ROAD_RANK": "103", "ROAD_TYPE": "000", "ROAD_NO": "29", "ROAD_NAME": "필문대로", "ROAD_USE": "0", "MULTI_LINK": "0", "CONNECT": "0", "MAX_SPD": 50, "REST_VEH": "0", "REST_W": 0, "REST_H": 0, "C-ITS": "1", "LENGTH": 90.602422415101998, "UPDATEDATE": "20250512", "REMARK": null, "HIST_TYPE": "LINK1007", "HISTREMARK": "1750004300" }, "geometry": { "type": "LineString", "coordinates": [ [ 126.928741292847846, 35.148497782913523 ], [ 126.929218549628246, 35.149214209823619 ] ] } },
{ "type": "Feature", "properties": { "LINK_ID": "1750019703", "F_NODE": "1750048300", "T_NODE": "1750078900", "LANES": 1, "ROAD_RANK": "104", "ROAD_TYPE": "000", "ROAD_NO": "-", "ROAD_NAME": "동계천로", "ROAD_USE": "0", "MULTI_LINK": "0", "CONNECT": "0", "MAX_SPD": 30, "REST_VEH": "0", "REST_W": 0, "REST_H": 0, "C-ITS": "0", "LENGTH": 29.583835925635999, "UPDATEDATE": "20250512", "REMARK": null, "HIST_TYPE": "LINK1007", "HISTREMARK": "1750019700" }, "geometry": { "type": "LineString", "coordinates": [ [ 126.926360343543422, 35.149007445008202 ], [ 126.926595360955133, 35.149079147101347 ], [ 126.92666881392114, 35.149086198543927 ] ] } },
{ "type": "Feature", "properties": { "LINK_ID": "1750019802", "F_NODE": "1750079000", "T_NODE": "1750147800", "LANES": 1, "ROAD_RANK": "104", "ROAD_TYPE": "000", "ROAD_NO": "-", "ROAD_NAME": "동계천로", "ROAD_USE": "0", "MULTI_LINK": "0", "CONNECT": "0", "MAX_SPD": 30, "REST_VEH": "0", "REST_W": 0, "REST_H": 0, "C-ITS": "0", "LENGTH": 84.261568356485, "UPDATEDATE": "20250512", "REMARK": null, "HIST_TYPE": "LINK1007", "HISTREMARK": "1750019800" }, "geometry": { "type": "LineString", "coordinates": [ [ 126.926653519663233, 35.14919361818253 ], [ 126.926564391924202, 35.149185054479716 ], [ 126.926314499308248, 35.149108867024061 ], [ 126.926311423222813, 35.14910792918063 ], [ 126.925788299045422, 35.148932304214668 ] ] } },
{ "type": "Feature", "properties": { "LINK_ID": "1750019704", "F_NODE": "1750078900", "T_NODE": "1750002203", "LANES": 1, "ROAD_RANK": "104", "ROAD_TYPE": "000", "ROAD_NO": "-", "ROAD_NAME": "동계천로", "ROAD_USE": "0", "MULTI_LINK": "0", "CONNECT": "0", "MAX_SPD": 30, "REST_VEH": "0", "REST_W": 0, "REST_H": 0, "C-ITS": "0", "LENGTH": 230.929609222056, "UPDATEDATE": "20250512", "REMARK": null, "HIST_TYPE": "LINK1007", "HISTREMARK": "1750019700" }, "geometry": { "type": "LineString", "coordinates": [ [ 126.92666881392114, 35.149086198543927 ], [ 126.927030923831978, 35.149120960218923 ], [ 126.927688579519383, 35.148982272664988 ], [ 126.927850705154356, 35.148980022164331 ], [ 126.928139142021493, 35.149050334777939 ], [ 126.928236861298601, 35.149115210464259 ], [ 126.92828228794373, 35.149126557546417 ], [ 126.928570822299193, 35.14919862982056 ], [ 126.928966735116546, 35.149297522565952 ], [ 126.9290968188932, 35.149256902008965 ] ] } },
{ "type": "Feature", "properties": { "LINK_ID": "1750019804", "F_NODE": "1750120700", "T_NODE": "1750079000", "LANES": 1, "ROAD_RANK": "104", "ROAD_TYPE": "000", "ROAD_NO": "-", "ROAD_NAME": "동계천로", "ROAD_USE": "0", "MULTI_LINK": "0", "CONNECT": "0", "MAX_SPD": 30, "REST_VEH": "0", "REST_W": 0, "REST_H": 0, "C-ITS": "0", "LENGTH": 150.91676813239499, "UPDATEDATE": "20250512", "REMARK": null, "HIST_TYPE": "LINK1007", "HISTREMARK": "1750019800" }, "geometry": { "type": "LineString", "coordinates": [ [ 126.92824397764889, 35.149230021284922 ], [ 126.92817404796314, 35.14921255358702 ], [ 126.928076672963385, 35.149147960181423 ], [ 126.927832735663188, 35.149088459617438 ], [ 126.927706267797419, 35.149090241934445 ], [ 126.927039892782929, 35.149230741475357 ], [ 126.926653519663233, 35.14919361818253 ] ] } },
{ "type": "Feature", "properties": { "LINK_ID": "1750018605", "F_NODE": "1750103900", "T_NODE": "1750100800", "LANES": 1, "ROAD_RANK": "104", "ROAD_TYPE": "000", "ROAD_NO": "-", "ROAD_NAME": "지호로", "ROAD_USE": "0", "MULTI_LINK": "0", "CONNECT": "0", "MAX_SPD": 30, "REST_VEH": "0", "REST_W": 0, "REST_H": 0, "C-ITS": "0", "LENGTH": 41.484536864637001, "UPDATEDATE": "20250512", "REMARK": null, "HIST_TYPE": "LINK1007", "HISTREMARK": "1750018600" }, "geometry": { "type": "LineString", "coordinates": [ [ 126.929959142439927, 35.148923334086895 ], [ 126.930267065838663, 35.148803175606339 ] ] } },
{ "type": "Feature", "properties": { "LINK_ID": "1750018504", "F_NODE": "1750100700", "T_NODE": "1750160900", "LANES": 1, "ROAD_RANK": "104", "ROAD_TYPE": "000", "ROAD_NO": "-", "ROAD_NAME": "지호로", "ROAD_USE": "0", "MULTI_LINK": "0", "CONNECT": "0", "MAX_SPD": 30, "REST_VEH": "0", "REST_W": 0, "REST_H": 0, "C-ITS": "0", "LENGTH": 90.339708008190996, "UPDATEDATE": "20250512", "REMARK": null, "HIST_TYPE": "LINK1007", "HISTREMARK": "1750018500" }, "geometry": { "type": "LineString", "coordinates": [ [ 126.930350896697263, 35.148890147311441 ], [ 126.930015632715353, 35.149020988078462 ], [ 126.929531368325982, 35.149209975647899 ] ] } },
{ "type": "Feature", "properties": { "LINK_ID": "1750018600", "F_NODE": "1750002202", "T_NODE": "1750103900", "LANES": 1, "ROAD_RANK": "104", "ROAD_TYPE": "000", "ROAD_NO": "-", "ROAD_NAME": "지호로", "ROAD_USE": "0", "MULTI_LINK": "0", "CONNECT": "0", "MAX_SPD": 30, "REST_VEH": "0", "REST_W": 0, "REST_H": 0, "C-ITS": "0", "LENGTH": 74.804013480595003, "UPDATEDATE": "20250512", "REMARK": null, "HIST_TYPE": "LINK0003", "HISTREMARK": null }, "geometry": { "type": "LineString", "coordinates": [ [ 126.929218549628246, 35.149214209823619 ], [ 126.929457174160319, 35.149119210705102 ], [ 126.929474869162235, 35.14911230586381 ], [ 126.929959142439927, 35.148923334086895 ] ] } },
{ "type": "Feature", "properties": { "LINK_ID": "1750019702", "F_NODE": "1750002203", "T_NODE": "1750002202", "LANES": 1, "ROAD_RANK": "104", "ROAD_TYPE": "000", "ROAD_NO": "-", "ROAD_NAME": "동계천로", "ROAD_USE": "0", "MULTI_LINK": "0", "CONNECT": "0", "MAX_SPD": 30, "REST_VEH": "0", "REST_W": 0, "REST_H": 0, "C-ITS": "0", "LENGTH": 12.061270865105, "UPDATEDATE": "20250512", "REMARK": null, "HIST_TYPE": "LINK0001", "HISTREMARK": null }, "geometry": { "type": "LineString", "coordinates": [ [ 126.9290968188932, 35.149256902008965 ], [ 126.929218549628246, 35.149214209823619 ] ] } },
{ "type": "Feature", "properties": { "LINK_ID": "1750019706", "F_NODE": "1750128600", "T_NODE": "1750048300", "LANES": 1, "ROAD_RANK": "104", "ROAD_TYPE": "000", "ROAD_NO": "-", "ROAD_NAME": "동계천로", "ROAD_USE": "0", "MULTI_LINK": "0", "CONNECT": "0", "MAX_SPD": 30, "REST_VEH": "0", "REST_W": 0, "REST_H": 0, "C-ITS": "0", "LENGTH": 302.70868290388, "UPDATEDATE": "20250512", "REMARK": null, "HIST_TYPE": "LINK1007", "HISTREMARK": "1750019700" }, "geometry": { "type": "LineString", "coordinates": [ [ 126.924907411560653, 35.148856968653241 ], [ 126.925025079463623, 35.148803835698558 ], [ 126.925138266976404, 35.148767367207704 ], [ 126.925405579077037, 35.148756648128099 ], [ 126.925817703238806, 35.148826777794156 ], [ 126.925826860292645, 35.148828335999326 ], [ 126.926359267455339, 35.149007116700254 ], [ 126.926360343543422, 35.149007445008202 ] ] } },
{ "type": "Feature", "properties": { "LINK_ID": "1750018508", "F_NODE": "1750160900", "T_NODE": "1750002201", "LANES": 1, "ROAD_RANK": "104", "ROAD_TYPE": "000", "ROAD_NO": "-", "ROAD_NAME": "지호로", "ROAD_USE": "0", "MULTI_LINK": "0", "CONNECT": "0", "MAX_SPD": 30, "REST_VEH": "0", "REST_W": 0, "REST_H": 0, "C-ITS": "0", "LENGTH": 25.020014841315, "UPDATEDATE": "20250512", "REMARK": null, "HIST_TYPE": "LINK1007", "HISTREMARK": "1750018500" }, "geometry": { "type": "LineString", "coordinates": [ [ 126.929531368325982, 35.149209975647899 ], [ 126.929514110175006, 35.149216710710206 ], [ 126.92928423189413, 35.149308247228312 ] ] } },
{ "type": "Feature", "properties": { "LINK_ID": "1750004301", "F_NODE": "1750002202", "T_NODE": "1750002201", "LANES": 4, "ROAD_RANK": "103", "ROAD_TYPE": "000", "ROAD_NO": "29", "ROAD_NAME": "필문대로", "ROAD_USE": "0", "MULTI_LINK": "0", "CONNECT": "0", "MAX_SPD": 50, "REST_VEH": "0", "REST_W": 0, "REST_H": 0, "C-ITS": "1", "LENGTH": 12.027692499938, "UPDATEDATE": "20250512", "REMARK": null, "HIST_TYPE": "LINK0001", "HISTREMARK": null }, "geometry": { "type": "LineString", "coordinates": [ [ 126.929218549628246, 35.149214209823619 ], [ 126.92928423189413, 35.149308247228312 ] ] } },
{ "type": "Feature", "properties": { "LINK_ID": "1750004501", "F_NODE": "1750002204", "T_NODE": "1750002203", "LANES": 4, "ROAD_RANK": "103", "ROAD_TYPE": "000", "ROAD_NO": "29", "ROAD_NAME": "필문대로", "ROAD_USE": "0", "MULTI_LINK": "0", "CONNECT": "0", "MAX_SPD": 50, "REST_VEH": "0", "REST_W": 0, "REST_H": 0, "C-ITS": "1", "LENGTH": 12.142078413459, "UPDATEDATE": "20250512", "REMARK": null, "HIST_TYPE": "LINK0001", "HISTREMARK": null }, "geometry": { "type": "LineString", "coordinates": [ [ 126.929162659599953, 35.14935205239307 ], [ 126.9290968188932, 35.149256902008965 ] ] } },
{ "type": "Feature", "properties": { "LINK_ID": "1750018501", "F_NODE": "1750002201", "T_NODE": "1750002204", "LANES": 1, "ROAD_RANK": "104", "ROAD_TYPE": "000", "ROAD_NO": "-", "ROAD_NAME": "지호로", "ROAD_USE": "0", "MULTI_LINK": "0", "CONNECT": "0", "MAX_SPD": 30, "REST_VEH": "0", "REST_W": 0, "REST_H": 0, "C-ITS": "0", "LENGTH": 12.09705823448, "UPDATEDATE": "20250512", "REMARK": null, "HIST_TYPE": "LINK0001", "HISTREMARK": null }, "geometry": { "type": "LineString", "coordinates": [ [ 126.92928423189413, 35.149308247228312 ], [ 126.929162659599953, 35.14935205239307 ] ] } },
{ "type": "Feature", "properties": { "LINK_ID": "1750004502", "F_NODE": "1750058900", "T_NODE": "1750002204", "LANES": 4, "ROAD_RANK": "103", "ROAD_TYPE": "000", "ROAD_NO": "29", "ROAD_NAME": "필문대로", "ROAD_USE": "0", "MULTI_LINK": "0", "CONNECT": "0", "MAX_SPD": 50, "REST_VEH": "0", "REST_W": 0, "REST_H": 0, "C-ITS": "1", "LENGTH": 72.898664145357003, "UPDATEDATE": "20250512", "REMARK": null, "HIST_TYPE": "LINK1007", "HISTREMARK": "1750004500" }, "geometry": { "type": "LineString", "coordinates": [ [ 126.929572569644904, 35.14991632617415 ], [ 126.929162659599953, 35.14935205239307 ] ] } },
{ "type": "Feature", "properties": { "LINK_ID": "1750019805", "F_NODE": "1750147800", "T_NODE": "1750011201", "LANES": 1, "ROAD_RANK": "104", "ROAD_TYPE": "000", "ROAD_NO": "-", "ROAD_NAME": "동계천로", "ROAD_USE": "0", "MULTI_LINK": "0", "CONNECT": "0", "MAX_SPD": 30, "REST_VEH": "0", "REST_W": 0, "REST_H": 0, "C-ITS": "0", "LENGTH": 304.031798569324, "UPDATEDATE": "20250512", "REMARK": null, "HIST_TYPE": "LINK1007", "HISTREMARK": "1750019800" }, "geometry": { "type": "LineString", "coordinates": [ [ 126.925788299045422, 35.148932304214668 ], [ 126.925395203595883, 35.148865366614302 ], [ 126.925165985256584, 35.148874491259818 ], [ 126.925084673179583, 35.148900398410191 ], [ 126.924978673052266, 35.148948210421977 ], [ 126.924412673104584, 35.149411178948426 ], [ 126.924082142080877, 35.149685679178425 ], [ 126.923858642332391, 35.149852553903862 ], [ 126.923673940014069, 35.149950988433801 ], [ 126.923342923113196, 35.150127397981521 ], [ 126.923229235873023, 35.150251397421357 ], [ 126.923153895963111, 35.150331026876295 ] ] } },
{ "type": "Feature", "properties": { "LINK_ID": "1750004600", "F_NODE": "1750002201", "T_NODE": "1750002307", "LANES": 4, "ROAD_RANK": "103", "ROAD_TYPE": "000", "ROAD_NO": "29", "ROAD_NAME": "필문대로", "ROAD_USE": "0", "MULTI_LINK": "0", "CONNECT": "0", "MAX_SPD": 50, "REST_VEH": "0", "REST_W": 0, "REST_H": 0, "C-ITS": "1", "LENGTH": 196.41807489679601, "UPDATEDATE": "20250512", "REMARK": null, "HIST_TYPE": "LINK0003", "HISTREMARK": null }, "geometry": { "type": "LineString", "coordinates": [ [ 126.92928423189413, 35.149308247228312 ], [ 126.929685670364378, 35.149860904085436 ], [ 126.929846200247951, 35.150081901707836 ] ] } },
{ "type": "Feature", "properties": { "LINK_ID": "1750004500", "F_NODE": "1750002308", "T_NODE": "1750058900", "LANES": 4, "ROAD_RANK": "103", "ROAD_TYPE": "000", "ROAD_NO": "29", "ROAD_NAME": "필문대로", "ROAD_USE": "0", "MULTI_LINK": "0", "CONNECT": "0", "MAX_SPD": 50, "REST_VEH": "0", "REST_W": 0, "REST_H": 0, "C-ITS": "1", "LENGTH": 119.053969487646, "UPDATEDATE": "20250512", "REMARK": null, "HIST_TYPE": "LINK0003", "HISTREMARK": null }, "geometry": { "type": "MultiLineString", "coordinates": [ [ [ 126.929975137489237, 35.150470483860971 ], [ 126.929842708780967, 35.150288189143012 ] ], [ [ 126.929718442328763, 35.15011712930248 ], [ 126.929572569644904, 35.14991632617415 ] ] ] } },
{ "type": "Feature", "properties": { "LINK_ID": "1750019807", "F_NODE": "1750149700", "T_NODE": "1750120700", "LANES": 1, "ROAD_RANK": "104", "ROAD_TYPE": "000", "ROAD_NO": "-", "ROAD_NAME": "동계천로", "ROAD_USE": "0", "MULTI_LINK": "0", "CONNECT": "0", "MAX_SPD": 30, "REST_VEH": "0", "REST_W": 0, "REST_H": 0, "C-ITS": "0", "LENGTH": 27.480884547818, "UPDATEDATE": "20250512", "REMARK": null, "HIST_TYPE": "LINK1007", "HISTREMARK": "1750019800" }, "geometry": { "type": "LineString", "coordinates": [ [ 126.928532512318952, 35.149302093696065 ], [ 126.92824397764889, 35.149230021284922 ] ] } },
{ "type": "Feature", "properties": { "LINK_ID": "1750019800", "F_NODE": "1750002204", "T_NODE": "1750149700", "LANES": 1, "ROAD_RANK": "104", "ROAD_TYPE": "000", "ROAD_NO": "-", "ROAD_NAME": "동계천로", "ROAD_USE": "0", "MULTI_LINK": "0", "CONNECT": "0", "MAX_SPD": 30, "REST_VEH": "0", "REST_W": 0, "REST_H": 0, "C-ITS": "0", "LENGTH": 60.445398755615997, "UPDATEDATE": "20250512", "REMARK": null, "HIST_TYPE": "LINK0003", "HISTREMARK": null }, "geometry": { "type": "LineString", "coordinates": [ [ 126.929162659599953, 35.14935205239307 ], [ 126.928971485404617, 35.149411742210212 ], [ 126.928532512318952, 35.149302093696065 ] ] } },
{ "type": "Feature", "properties": { "LINK_ID": "1750036305", "F_NODE": "1750014718", "T_NODE": "1750014717", "LANES": 2, "ROAD_RANK": "104", "ROAD_TYPE": "000", "ROAD_NO": "-", "ROAD_NAME": "동명로", "ROAD_USE": "0", "MULTI_LINK": "0", "CONNECT": "0", "MAX_SPD": 50, "REST_VEH": "0", "REST_W": 0, "REST_H": 0, "C-ITS": "0", "LENGTH": 8.0163076845340004, "UPDATEDATE": "20250512", "REMARK": null, "HIST_TYPE": "LINK0001", "HISTREMARK": null }, "geometry": { "type": "LineString", "coordinates": [ [ 126.927817079038448, 35.151002394339727 ], [ 126.927823057898138, 35.15100152313596 ] ] } },
{ "type": "Feature", "properties": { "LINK_ID": "1750036907", "F_NODE": "1750014719", "T_NODE": "1750014718", "LANES": 1, "ROAD_RANK": "104", "ROAD_TYPE": "000", "ROAD_NO": "-", "ROAD_NAME": "동명로67번길", "ROAD_USE": "0", "MULTI_LINK": "0", "CONNECT": "0", "MAX_SPD": 40, "REST_VEH": "0", "REST_W": 0, "REST_H": 0, "C-ITS": "0", "LENGTH": 11.564222683962999, "UPDATEDATE": "20250512", "REMARK": null, "HIST_TYPE": "LINK0001", "HISTREMARK": null }, "geometry": { "type": "LineString", "coordinates": [ [ 126.927817936340048, 35.151005800705981 ], [ 126.927817079038448, 35.151002394339727 ] ] } },
{ "type": "Feature", "properties": { "LINK_ID": "1750020401", "F_NODE": "1750011202", "T_NODE": "1750011201", "LANES": 2, "ROAD_RANK": "104", "ROAD_TYPE": "000", "ROAD_NO": "-", "ROAD_NAME": "동명로", "ROAD_USE": "0", "MULTI_LINK": "0", "CONNECT": "0", "MAX_SPD": 50, "REST_VEH": "0", "REST_W": 0, "REST_H": 0, "C-ITS": "1", "LENGTH": 12.304227532358, "UPDATEDATE": "20250512", "REMARK": null, "HIST_TYPE": "LINK0001", "HISTREMARK": null }, "geometry": { "type": "LineString", "coordinates": [ [ 126.923119712653289, 35.150296776690077 ], [ 126.923153895963111, 35.150331026876295 ] ] } },
{ "type": "Feature", "properties": { "LINK_ID": "1750019801", "F_NODE": "1750011201", "T_NODE": "1750011204", "LANES": 1, "ROAD_RANK": "104", "ROAD_TYPE": "000", "ROAD_NO": "-", "ROAD_NAME": "동계천로", "ROAD_USE": "0", "MULTI_LINK": "0", "CONNECT": "0", "MAX_SPD": 30, "REST_VEH": "0", "REST_W": 0, "REST_H": 0, "C-ITS": "0", "LENGTH": 12.303429625830001, "UPDATEDATE": "20250512", "REMARK": null, "HIST_TYPE": "LINK0001", "HISTREMARK": null }, "geometry": { "type": "LineString", "coordinates": [ [ 126.923153895963111, 35.150331026876295 ], [ 126.923071045743725, 35.150418594012201 ] ] } },
{ "type": "Feature", "properties": { "LINK_ID": "1750021301", "F_NODE": "1750011204", "T_NODE": "1750011203", "LANES": 2, "ROAD_RANK": "104", "ROAD_TYPE": "000", "ROAD_NO": "-", "ROAD_NAME": "동명로", "ROAD_USE": "0", "MULTI_LINK": "0", "CONNECT": "0", "MAX_SPD": 50, "REST_VEH": "0", "REST_W": 0, "REST_H": 0, "C-ITS": "1", "LENGTH": 12.302200638191, "UPDATEDATE": "20250512", "REMARK": null, "HIST_TYPE": "LINK0001", "HISTREMARK": null }, "geometry": { "type": "LineString", "coordinates": [ [ 126.923071045743725, 35.150418594012201 ], [ 126.923030224307695, 35.150377692471544 ] ] } },
{ "type": "Feature", "properties": { "LINK_ID": "1750021400", "F_NODE": "1750011201", "T_NODE": "1750064100", "LANES": 2, "ROAD_RANK": "104", "ROAD_TYPE": "000", "ROAD_NO": "-", "ROAD_NAME": "동명로", "ROAD_USE": "0", "MULTI_LINK": "0", "CONNECT": "0", "MAX_SPD": 50, "REST_VEH": "0", "REST_W": 0, "REST_H": 0, "C-ITS": "1", "LENGTH": 56.018496110963, "UPDATEDATE": "20250512", "REMARK": null, "HIST_TYPE": "LINK0003", "HISTREMARK": null }, "geometry": { "type": "LineString", "coordinates": [ [ 126.923153895963111, 35.150331026876295 ], [ 126.923195392188347, 35.150372522472203 ], [ 126.923395579621669, 35.150678679210507 ], [ 126.923454907973039, 35.150770237131745 ] ] } },
{ "type": "Feature", "properties": { "LINK_ID": "1750021302", "F_NODE": "1750064200", "T_NODE": "1750011204", "LANES": 2, "ROAD_RANK": "104", "ROAD_TYPE": "000", "ROAD_NO": "-", "ROAD_NAME": "동명로", "ROAD_USE": "0", "MULTI_LINK": "0", "CONNECT": "0", "MAX_SPD": 50, "REST_VEH": "0", "REST_W": 0, "REST_H": 0, "C-ITS": "1", "LENGTH": 50.912489754338999, "UPDATEDATE": "20250512", "REMARK": null, "HIST_TYPE": "LINK1007", "HISTREMARK": "1750021300" }, "geometry": { "type": "LineString", "coordinates": [ [ 126.92333863438887, 35.150821061277178 ], [ 126.923279422909758, 35.150729679523231 ], [ 126.923085454842038, 35.150433023281167 ], [ 126.923071045743725, 35.150418594012201 ] ] } },
{ "type": "Feature", "properties": { "LINK_ID": "1750021402", "F_NODE": "1750064100", "T_NODE": "1750113100", "LANES": 2, "ROAD_RANK": "104", "ROAD_TYPE": "000", "ROAD_NO": "-", "ROAD_NAME": "동명로", "ROAD_USE": "0", "MULTI_LINK": "0", "CONNECT": "0", "MAX_SPD": 50, "REST_VEH": "0", "REST_W": 0, "REST_H": 0, "C-ITS": "1", "LENGTH": 65.020685142220998, "UPDATEDATE": "20250512", "REMARK": null, "HIST_TYPE": "LINK1007", "HISTREMARK": "1750021400" }, "geometry": { "type": "LineString", "coordinates": [ [ 126.923454907973039, 35.150770237131745 ], [ 126.923790154954347, 35.151287599469356 ] ] } },
{ "type": "Feature", "properties": { "LINK_ID": "1750021303", "F_NODE": "1750113200", "T_NODE": "1750064200", "LANES": 2, "ROAD_RANK": "104", "ROAD_TYPE": "000", "ROAD_NO": "-", "ROAD_NAME": "동명로", "ROAD_USE": "0", "MULTI_LINK": "0", "CONNECT": "0", "MAX_SPD": 50, "REST_VEH": "0", "REST_W": 0, "REST_H": 0, "C-ITS": "1", "LENGTH": 65.020610695453996, "UPDATEDATE": "20250512", "REMARK": null, "HIST_TYPE": "LINK1007", "HISTREMARK": "1750021300" }, "geometry": { "type": "LineString", "coordinates": [ [ 126.923673869036676, 35.151338428331258 ], [ 126.92333863438887, 35.150821061277178 ] ] } },
{ "type": "Feature", "properties": { "LINK_ID": "1750021403", "F_NODE": "1750113100", "T_NODE": "1750011407", "LANES": 2, "ROAD_RANK": "104", "ROAD_TYPE": "000", "ROAD_NO": "-", "ROAD_NAME": "동명로", "ROAD_USE": "0", "MULTI_LINK": "0", "CONNECT": "0", "MAX_SPD": 50, "REST_VEH": "0", "REST_W": 0, "REST_H": 0, "C-ITS": "0", "LENGTH": 63.009799784944001, "UPDATEDATE": "20250512", "REMARK": null, "HIST_TYPE": "LINK1007", "HISTREMARK": "1750021400" }, "geometry": { "type": "LineString", "coordinates": [ [ 126.923790154954347, 35.151287599469356 ], [ 126.92411503784561, 35.151788960494478 ] ] } },
{ "type": "Feature", "properties": { "LINK_ID": "1750021300", "F_NODE": "1750011408", "T_NODE": "1750113200", "LANES": 2, "ROAD_RANK": "104", "ROAD_TYPE": "000", "ROAD_NO": "-", "ROAD_NAME": "동명로", "ROAD_USE": "0", "MULTI_LINK": "0", "CONNECT": "0", "MAX_SPD": 50, "REST_VEH": "0", "REST_W": 0, "REST_H": 0, "C-ITS": "0", "LENGTH": 63.191940888978003, "UPDATEDATE": "20250512", "REMARK": null, "HIST_TYPE": "LINK0003", "HISTREMARK": null }, "geometry": { "type": "LineString", "coordinates": [ [ 126.924004967445683, 35.15183890824693 ], [ 126.923673869036676, 35.151338428331258 ] ] } },
{ "type": "Feature", "properties": { "LINK_ID": "1750036307", "F_NODE": "1750143200", "T_NODE": "1750014718", "LANES": 2, "ROAD_RANK": "104", "ROAD_TYPE": "000", "ROAD_NO": "-", "ROAD_NAME": "동명로", "ROAD_USE": "0", "MULTI_LINK": "0", "CONNECT": "0", "MAX_SPD": 50, "REST_VEH": "0", "REST_W": 0, "REST_H": 0, "C-ITS": "0", "LENGTH": 68.255296727710004, "UPDATEDATE": "20250512", "REMARK": null, "HIST_TYPE": "LINK1007", "HISTREMARK": "1750036302" }, "geometry": { "type": "LineString", "coordinates": [ [ 126.927093841768524, 35.151161019543288 ], [ 126.927607398619443, 35.151037992216388 ], [ 126.927817079038448, 35.151002394339727 ] ] } },
{ "type": "Feature", "properties": { "LINK_ID": "1750036302", "F_NODE": "1750014713", "T_NODE": "1750143200", "LANES": 2, "ROAD_RANK": "104", "ROAD_TYPE": "000", "ROAD_NO": "-", "ROAD_NAME": "동명로", "ROAD_USE": "0", "MULTI_LINK": "0", "CONNECT": "0", "MAX_SPD": 50, "REST_VEH": "0", "REST_W": 0, "REST_H": 0, "C-ITS": "0", "LENGTH": 134.69116039453601, "UPDATEDATE": "20250512", "REMARK": null, "HIST_TYPE": "LINK0003", "HISTREMARK": null }, "geometry": { "type": "LineString", "coordinates": [ [ 126.925668688342228, 35.151481661509365 ], [ 126.926069154930843, 35.15140648519769 ], [ 126.927093841768524, 35.151161019543288 ] ] } },
{ "type": "Feature", "properties": { "LINK_ID": "1750036401", "F_NODE": "1750014719", "T_NODE": "1750014712", "LANES": 2, "ROAD_RANK": "104", "ROAD_TYPE": "000", "ROAD_NO": "-", "ROAD_NAME": "동명로", "ROAD_USE": "0", "MULTI_LINK": "0", "CONNECT": "0", "MAX_SPD": 50, "REST_VEH": "0", "REST_W": 0, "REST_H": 0, "C-ITS": "0", "LENGTH": 202.778967875397, "UPDATEDATE": "20250512", "REMARK": null, "HIST_TYPE": "LINK0003", "HISTREMARK": null }, "geometry": { "type": "LineString", "coordinates": [ [ 126.927469708756618, 35.151182122290933 ], [ 126.927131503385397, 35.151265532176282 ], [ 126.926100496825882, 35.151519797239693 ], [ 126.92570108716798, 35.151598084651987 ] ] } },
{ "type": "Feature", "properties": { "LINK_ID": "1750036303", "F_NODE": "1750014714", "T_NODE": "1750014713", "LANES": 2, "ROAD_RANK": "104", "ROAD_TYPE": "000", "ROAD_NO": "-", "ROAD_NAME": "동명로", "ROAD_USE": "0", "MULTI_LINK": "0", "CONNECT": "0", "MAX_SPD": 50, "REST_VEH": "0", "REST_W": 0, "REST_H": 0, "C-ITS": "0", "LENGTH": 12.057053960975001, "UPDATEDATE": "20250512", "REMARK": null, "HIST_TYPE": "LINK0001", "HISTREMARK": null }, "geometry": { "type": "LineString", "coordinates": [ [ 126.925539693616273, 35.151505876255086 ], [ 126.925668688342228, 35.151481661509365 ] ] } },
{ "type": "Feature", "properties": { "LINK_ID": "1750059402", "F_NODE": "1750014713", "T_NODE": "1750014712", "LANES": 1, "ROAD_RANK": "104", "ROAD_TYPE": "000", "ROAD_NO": "-", "ROAD_NAME": "동명로", "ROAD_USE": "0", "MULTI_LINK": "0", "CONNECT": "0", "MAX_SPD": 40, "REST_VEH": "0", "REST_W": 0, "REST_H": 0, "C-ITS": "0", "LENGTH": 13.249460152581999, "UPDATEDATE": "20250512", "REMARK": null, "HIST_TYPE": "LINK0001", "HISTREMARK": null }, "geometry": { "type": "LineString", "coordinates": [ [ 126.925668688342228, 35.151481661509365 ], [ 126.92570108716798, 35.151598084651987 ] ] } },
{ "type": "Feature", "properties": { "LINK_ID": "1750059301", "F_NODE": "1750014715", "T_NODE": "1750014714", "LANES": 1, "ROAD_RANK": "104", "ROAD_TYPE": "000", "ROAD_NO": "-", "ROAD_NAME": "동명로", "ROAD_USE": "0", "MULTI_LINK": "0", "CONNECT": "0", "MAX_SPD": 40, "REST_VEH": "0", "REST_W": 0, "REST_H": 0, "C-ITS": "0", "LENGTH": 13.364826749669, "UPDATEDATE": "20250512", "REMARK": null, "HIST_TYPE": "LINK0001", "HISTREMARK": null }, "geometry": { "type": "LineString", "coordinates": [ [ 126.92557237421741, 35.151623313188232 ], [ 126.925539693616273, 35.151505876255086 ] ] } },
{ "type": "Feature", "properties": { "LINK_ID": "1750036301", "F_NODE": "1750011407", "T_NODE": "1750043600", "LANES": 2, "ROAD_RANK": "104", "ROAD_TYPE": "000", "ROAD_NO": "-", "ROAD_NAME": "동명로", "ROAD_USE": "0", "MULTI_LINK": "0", "CONNECT": "0", "MAX_SPD": 50, "REST_VEH": "0", "REST_W": 0, "REST_H": 0, "C-ITS": "0", "LENGTH": 69.134317536685998, "UPDATEDATE": "20250512", "REMARK": null, "HIST_TYPE": "LINK0003", "HISTREMARK": null }, "geometry": { "type": "LineString", "coordinates": [ [ 126.92411503784561, 35.151788960494478 ], [ 126.924173893774693, 35.151762252781282 ], [ 126.924847992905555, 35.151635718656053 ] ] } },
{ "type": "Feature", "properties": { "LINK_ID": "1750036402", "F_NODE": "1750014715", "T_NODE": "1750011406", "LANES": 2, "ROAD_RANK": "104", "ROAD_TYPE": "000", "ROAD_NO": "-", "ROAD_NAME": "동명로", "ROAD_USE": "0", "MULTI_LINK": "0", "CONNECT": "0", "MAX_SPD": 50, "REST_VEH": "0", "REST_W": 0, "REST_H": 0, "C-ITS": "0", "LENGTH": 132.45632661183799, "UPDATEDATE": "20250512", "REMARK": null, "HIST_TYPE": "LINK0003", "HISTREMARK": null }, "geometry": { "type": "LineString", "coordinates": [ [ 126.92557237421741, 35.151623313188232 ], [ 126.924883002646112, 35.15175843215404 ], [ 126.924218121638887, 35.151888746750231 ], [ 126.924161771345666, 35.151908725228701 ] ] } },
{ "type": "Feature", "properties": { "LINK_ID": "1750036304", "F_NODE": "1750011408", "T_NODE": "1750011407", "LANES": 2, "ROAD_RANK": "104", "ROAD_TYPE": "000", "ROAD_NO": "-", "ROAD_NAME": "동명로", "ROAD_USE": "0", "MULTI_LINK": "0", "CONNECT": "0", "MAX_SPD": 50, "REST_VEH": "0", "REST_W": 0, "REST_H": 0, "C-ITS": "0", "LENGTH": 11.45855379334, "UPDATEDATE": "20250512", "REMARK": null, "HIST_TYPE": "LINK0001", "HISTREMARK": null }, "geometry": { "type": "LineString", "coordinates": [ [ 126.924004967445683, 35.15183890824693 ], [ 126.92411503784561, 35.151788960494478 ] ] } },
{ "type": "Feature", "properties": { "LINK_ID": "1750021401", "F_NODE": "1750011407", "T_NODE": "1750011406", "LANES": 2, "ROAD_RANK": "104", "ROAD_TYPE": "000", "ROAD_NO": "-", "ROAD_NAME": "동명로", "ROAD_USE": "0", "MULTI_LINK": "0", "CONNECT": "0", "MAX_SPD": 50, "REST_VEH": "0", "REST_W": 0, "REST_H": 0, "C-ITS": "0", "LENGTH": 13.952798499322, "UPDATEDATE": "20250512", "REMARK": null, "HIST_TYPE": "LINK0001", "HISTREMARK": null }, "geometry": { "type": "LineString", "coordinates": [ [ 126.92411503784561, 35.151788960494478 ], [ 126.924161771345666, 35.151908725228701 ] ] } },
{ "type": "Feature", "properties": { "LINK_ID": "1750022304", "F_NODE": "1750011409", "T_NODE": "1750011408", "LANES": 1, "ROAD_RANK": "104", "ROAD_TYPE": "000", "ROAD_NO": "-", "ROAD_NAME": "동계로", "ROAD_USE": "0", "MULTI_LINK": "0", "CONNECT": "0", "MAX_SPD": 50, "REST_VEH": "0", "REST_W": 0, "REST_H": 0, "C-ITS": "0", "LENGTH": 12.948719998436999, "UPDATEDATE": "20250512", "REMARK": null, "HIST_TYPE": "LINK0001", "HISTREMARK": null }, "geometry": { "type": "LineString", "coordinates": [ [ 126.924039172133519, 35.151952191527826 ], [ 126.924004967445683, 35.15183890824693 ] ] } },
{ "type": "Feature", "properties": { "LINK_ID": "1750036404", "F_NODE": "1750011406", "T_NODE": "1750011409", "LANES": 2, "ROAD_RANK": "104", "ROAD_TYPE": "000", "ROAD_NO": "-", "ROAD_NAME": "동명로", "ROAD_USE": "0", "MULTI_LINK": "0", "CONNECT": "0", "MAX_SPD": 50, "REST_VEH": "0", "REST_W": 0, "REST_H": 0, "C-ITS": "0", "LENGTH": 12.167534888857, "UPDATEDATE": "20250512", "REMARK": null, "HIST_TYPE": "LINK0001", "HISTREMARK": null }, "geometry": { "type": "LineString", "coordinates": [ [ 126.924161771345666, 35.151908725228701 ], [ 126.924039172133519, 35.151952191527826 ] ] } },
{ "type": "Feature", "properties": { "LINK_ID": "1750022401", "F_NODE": "1750011406", "T_NODE": "1750011403", "LANES": 1, "ROAD_RANK": "104", "ROAD_TYPE": "000", "ROAD_NO": "-", "ROAD_NAME": "동계로", "ROAD_USE": "0", "MULTI_LINK": "0", "CONNECT": "0", "MAX_SPD": 30, "REST_VEH": "0", "REST_W": 0, "REST_H": 0, "C-ITS": "0", "LENGTH": 74.145644394000996, "UPDATEDATE": "20250512", "REMARK": null, "HIST_TYPE": "LINK0003", "HISTREMARK": null }, "geometry": { "type": "LineString", "coordinates": [ [ 126.924161771345666, 35.151908725228701 ], [ 126.924356825206814, 35.152557560278879 ] ] } },
{ "type": "Feature", "properties": { "LINK_ID": "1750022302", "F_NODE": "1750011404", "T_NODE": "1750011409", "LANES": 1, "ROAD_RANK": "104", "ROAD_TYPE": "000", "ROAD_NO": "-", "ROAD_NAME": "동계로", "ROAD_USE": "0", "MULTI_LINK": "0", "CONNECT": "0", "MAX_SPD": 50, "REST_VEH": "0", "REST_W": 0, "REST_H": 0, "C-ITS": "0", "LENGTH": 72.141278244128003, "UPDATEDATE": "20250512", "REMARK": null, "HIST_TYPE": "LINK0003", "HISTREMARK": null }, "geometry": { "type": "LineString", "coordinates": [ [ 126.924228925690784, 35.152583492311166 ], [ 126.924039172133519, 35.151952191527826 ] ] } },
{ "type": "Feature", "properties": { "LINK_ID": "1750048602", "F_NODE": "1750011404", "T_NODE": "1750011403", "LANES": 1, "ROAD_RANK": "104", "ROAD_TYPE": "000", "ROAD_NO": "-", "ROAD_NAME": "동계로12번길", "ROAD_USE": "0", "MULTI_LINK": "0", "CONNECT": "0", "MAX_SPD": 30, "REST_VEH": "0", "REST_W": 0, "REST_H": 0, "C-ITS": "0", "LENGTH": 12.003871157739001, "UPDATEDATE": "20250512", "REMARK": null, "HIST_TYPE": "LINK0001", "HISTREMARK": null }, "geometry": { "type": "LineString", "coordinates": [ [ 126.924228925690784, 35.152583492311166 ], [ 126.924356825206814, 35.152557560278879 ] ] } },
{ "type": "Feature", "properties": { "LINK_ID": "1750048600", "F_NODE": "1750011403", "T_NODE": "1750116000", "LANES": 1, "ROAD_RANK": "104", "ROAD_TYPE": "000", "ROAD_NO": "-", "ROAD_NAME": "동계로12번길", "ROAD_USE": "0", "MULTI_LINK": "0", "CONNECT": "0", "MAX_SPD": 30, "REST_VEH": "0", "REST_W": 0, "REST_H": 0, "C-ITS": "0", "LENGTH": 24.596935672335, "UPDATEDATE": "20250512", "REMARK": null, "HIST_TYPE": "LINK0003", "HISTREMARK": null }, "geometry": { "type": "LineString", "coordinates": [ [ 126.924356825206814, 35.152557560278879 ], [ 126.924615546234946, 35.152620825087759 ] ] } },
{ "type": "Feature", "properties": { "LINK_ID": "1750036306", "F_NODE": "1750043600", "T_NODE": "1750014714", "LANES": 2, "ROAD_RANK": "104", "ROAD_TYPE": "000", "ROAD_NO": "-", "ROAD_NAME": "동명로", "ROAD_USE": "0", "MULTI_LINK": "0", "CONNECT": "0", "MAX_SPD": 50, "REST_VEH": "0", "REST_W": 0, "REST_H": 0, "C-ITS": "0", "LENGTH": 64.652691251527003, "UPDATEDATE": "20250512", "REMARK": null, "HIST_TYPE": "LINK1007", "HISTREMARK": "1750036301" }, "geometry": { "type": "LineString", "coordinates": [ [ 126.924847992905555, 35.151635718656053 ], [ 126.925539693616273, 35.151505876255086 ] ] } },
{ "type": "Feature", "properties": { "LINK_ID": "1750036403", "F_NODE": "1750014712", "T_NODE": "1750014715", "LANES": 2, "ROAD_RANK": "104", "ROAD_TYPE": "000", "ROAD_NO": "-", "ROAD_NAME": "동명로", "ROAD_USE": "0", "MULTI_LINK": "0", "CONNECT": "0", "MAX_SPD": 50, "REST_VEH": "0", "REST_W": 0, "REST_H": 0, "C-ITS": "0", "LENGTH": 12.057620254928, "UPDATEDATE": "20250512", "REMARK": null, "HIST_TYPE": "LINK0001", "HISTREMARK": null }, "geometry": { "type": "LineString", "coordinates": [ [ 126.92570108716798, 35.151598084651987 ], [ 126.92557237421741, 35.151623313188232 ] ] } },
{ "type": "Feature", "properties": { "LINK_ID": "1750036904", "F_NODE": "1750014709", "T_NODE": "1750014719", "LANES": 1, "ROAD_RANK": "104", "ROAD_TYPE": "000", "ROAD_NO": "-", "ROAD_NAME": "동명로67번길", "ROAD_USE": "0", "MULTI_LINK": "0", "CONNECT": "0", "MAX_SPD": 40, "REST_VEH": "0", "REST_W": 0, "REST_H": 0, "C-ITS": "0", "LENGTH": 214.592860394833, "UPDATEDATE": "20250512", "REMARK": null, "HIST_TYPE": "LINK0003", "HISTREMARK": null }, "geometry": { "type": "LineString", "coordinates": [ [ 126.927401071559473, 35.151787348472439 ], [ 126.927507472034648, 35.151659438093041 ] ] } },
{ "type": "Feature", "properties": { "LINK_ID": "1750059400", "F_NODE": "1750014712", "T_NODE": "1750022702", "LANES": 1, "ROAD_RANK": "104", "ROAD_TYPE": "000", "ROAD_NO": "-", "ROAD_NAME": "동명로", "ROAD_USE": "0", "MULTI_LINK": "0", "CONNECT": "0", "MAX_SPD": 40, "REST_VEH": "0", "REST_W": 0, "REST_H": 0, "C-ITS": "0", "LENGTH": 97.920515862398005, "UPDATEDATE": "20250512", "REMARK": null, "HIST_TYPE": "LINK0003", "HISTREMARK": null }, "geometry": { "type": "LineString", "coordinates": [ [ 126.92570108716798, 35.151598084651987 ], [ 126.92584099359415, 35.152434582776607 ], [ 126.925840993030164, 35.152472846053172 ] ] } },
{ "type": "Feature", "properties": { "LINK_ID": "1750059300", "F_NODE": "1750022703", "T_NODE": "1750014715", "LANES": 1, "ROAD_RANK": "104", "ROAD_TYPE": "000", "ROAD_NO": "-", "ROAD_NAME": "동명로", "ROAD_USE": "0", "MULTI_LINK": "0", "CONNECT": "0", "MAX_SPD": 40, "REST_VEH": "0", "REST_W": 0, "REST_H": 0, "C-ITS": "0", "LENGTH": 95.102834312005001, "UPDATEDATE": "20250512", "REMARK": null, "HIST_TYPE": "LINK0003", "HISTREMARK": null }, "geometry": { "type": "LineString", "coordinates": [ [ 126.925709296436267, 35.152472844691879 ], [ 126.925709296934158, 35.152441976182033 ], [ 126.92557237421741, 35.151623313188232 ] ] } },
{ "type": "Feature", "properties": { "LINK_ID": "1750059501", "F_NODE": "1750022703", "T_NODE": "1750022702", "LANES": 1, "ROAD_RANK": "104", "ROAD_TYPE": "000", "ROAD_NO": "-", "ROAD_NAME": "동계로10번길", "ROAD_USE": "0", "MULTI_LINK": "0", "CONNECT": "0", "MAX_SPD": 40, "REST_VEH": "0", "REST_W": 0, "REST_H": 0, "C-ITS": "0", "LENGTH": 12.000004042526999, "UPDATEDATE": "20250512", "REMARK": null, "HIST_TYPE": "LINK0001", "HISTREMARK": null }, "geometry": { "type": "LineString", "coordinates": [ [ 126.925709296436267, 35.152472844691879 ], [ 126.925840993030164, 35.152472846053172 ] ] } },
{ "type": "Feature", "properties": { "LINK_ID": "1750059201", "F_NODE": "1750022704", "T_NODE": "1750022703", "LANES": 1, "ROAD_RANK": "104", "ROAD_TYPE": "000", "ROAD_NO": "-", "ROAD_NAME": "동계로12번길", "ROAD_USE": "0", "MULTI_LINK": "0", "CONNECT": "0", "MAX_SPD": 40, "REST_VEH": "0", "REST_W": 0, "REST_H": 0, "C-ITS": "0", "LENGTH": 10.517359529933, "UPDATEDATE": "20250512", "REMARK": null, "HIST_TYPE": "LINK0001", "HISTREMARK": null }, "geometry": { "type": "LineString", "coordinates": [ [ 126.925709204376332, 35.152567643959664 ], [ 126.925709296436267, 35.152472844691879 ] ] } },
{ "type": "Feature", "properties": { "LINK_ID": "1750023205", "F_NODE": "1750068500", "T_NODE": "1750012103", "LANES": 2, "ROAD_RANK": "104", "ROAD_TYPE": "000", "ROAD_NO": "-", "ROAD_NAME": "중앙로", "ROAD_USE": "0", "MULTI_LINK": "0", "CONNECT": "0", "MAX_SPD": 50, "REST_VEH": "0", "REST_W": 0, "REST_H": 0, "C-ITS": "1", "LENGTH": 184.97308674273401, "UPDATEDATE": "20250512", "REMARK": null, "HIST_TYPE": "LINK0006", "HISTREMARK": null }, "geometry": { "type": "LineString", "coordinates": [ [ 126.919893046357473, 35.153747531591236 ], [ 126.919948087161316, 35.15379132811595 ], [ 126.920045058079182, 35.153873256614872 ], [ 126.92044070371918, 35.154225397893008 ], [ 126.920561422809655, 35.154329147945418 ], [ 126.920615291787001, 35.154407936476773 ] ] } },
{ "type": "Feature", "properties": { "LINK_ID": "1750023101", "F_NODE": "1750012104", "T_NODE": "1750011609", "LANES": 2, "ROAD_RANK": "104", "ROAD_TYPE": "000", "ROAD_NO": "-", "ROAD_NAME": "중앙로", "ROAD_USE": "0", "MULTI_LINK": "0", "CONNECT": "0", "MAX_SPD": 50, "REST_VEH": "0", "REST_W": 0, "REST_H": 0, "C-ITS": "1", "LENGTH": 77.460677905200995, "UPDATEDATE": "20250512", "REMARK": null, "HIST_TYPE": "LINK0003", "HISTREMARK": null }, "geometry": { "type": "LineString", "coordinates": [ [ 126.920506764307191, 35.154470120846092 ], [ 126.920454766453133, 35.154393991227515 ], [ 126.920367132754137, 35.154318697648904 ] ] } },
{ "type": "Feature", "properties": { "LINK_ID": "1750023900", "F_NODE": "1750012103", "T_NODE": "1750097500", "LANES": 1, "ROAD_RANK": "104", "ROAD_TYPE": "000", "ROAD_NO": "-", "ROAD_NAME": "경양로", "ROAD_USE": "0", "MULTI_LINK": "0", "CONNECT": "0", "MAX_SPD": 30, "REST_VEH": "0", "REST_W": 0, "REST_H": 0, "C-ITS": "0", "LENGTH": 92.943184392274006, "UPDATEDATE": "20250512", "REMARK": null, "HIST_TYPE": "LINK0003", "HISTREMARK": null }, "geometry": { "type": "LineString", "coordinates": [ [ 126.920615291787001, 35.154407936476773 ], [ 126.921055517022367, 35.154374366732839 ], [ 126.921162641935055, 35.154398959790058 ], [ 126.921523923006092, 35.154452366465812 ], [ 126.921607830288309, 35.154458960150883 ], [ 126.921623011115528, 35.154460661143197 ] ] } },
{ "type": "Feature", "properties": { "LINK_ID": "1750025501", "F_NODE": "1750012104", "T_NODE": "1750012103", "LANES": 1, "ROAD_RANK": "104", "ROAD_TYPE": "000", "ROAD_NO": "-", "ROAD_NAME": "경양로", "ROAD_USE": "0", "MULTI_LINK": "0", "CONNECT": "0", "MAX_SPD": 30, "REST_VEH": "0", "REST_W": 0, "REST_H": 0, "C-ITS": "0", "LENGTH": 12.057384823537999, "UPDATEDATE": "20250512", "REMARK": null, "HIST_TYPE": "LINK0001", "HISTREMARK": null }, "geometry": { "type": "LineString", "coordinates": [ [ 126.920506764307191, 35.154470120846092 ], [ 126.920615291787001, 35.154407936476773 ] ] } },
{ "type": "Feature", "properties": { "LINK_ID": "1750023204", "F_NODE": "1750012103", "T_NODE": "1750012102", "LANES": 2, "ROAD_RANK": "104", "ROAD_TYPE": "000", "ROAD_NO": "-", "ROAD_NAME": "중앙로", "ROAD_USE": "0", "MULTI_LINK": "0", "CONNECT": "0", "MAX_SPD": 50, "REST_VEH": "0", "REST_W": 0, "REST_H": 0, "C-ITS": "1", "LENGTH": 21.711883159247002, "UPDATEDATE": "20250512", "REMARK": null, "HIST_TYPE": "LINK0001", "HISTREMARK": null }, "geometry": { "type": "LineString", "coordinates": [ [ 126.920615291787001, 35.154407936476773 ], [ 126.920825201953619, 35.154500558576423 ] ] } },
{ "type": "Feature", "properties": { "LINK_ID": "1750070802", "F_NODE": "1750012105", "T_NODE": "1750012104", "LANES": 2, "ROAD_RANK": "107", "ROAD_TYPE": "000", "ROAD_NO": "-", "ROAD_NAME": "중앙로", "ROAD_USE": "0", "MULTI_LINK": "0", "CONNECT": "0", "MAX_SPD": 50, "REST_VEH": "0", "REST_W": 0, "REST_H": 0, "C-ITS": "1", "LENGTH": 19.68131711042, "UPDATEDATE": "20250512", "REMARK": null, "HIST_TYPE": "LINK0001", "HISTREMARK": null }, "geometry": { "type": "LineString", "coordinates": [ [ 126.920547650970576, 35.154537799231029 ], [ 126.920506764307191, 35.154470120846092 ] ] } },
{ "type": "Feature", "properties": { "LINK_ID": "1750059401", "F_NODE": "1750022702", "T_NODE": "1750022701", "LANES": 1, "ROAD_RANK": "104", "ROAD_TYPE": "000", "ROAD_NO": "-", "ROAD_NAME": "동명로", "ROAD_USE": "0", "MULTI_LINK": "0", "CONNECT": "0", "MAX_SPD": 40, "REST_VEH": "0", "REST_W": 0, "REST_H": 0, "C-ITS": "0", "LENGTH": 12.463583235591001, "UPDATEDATE": "20250512", "REMARK": null, "HIST_TYPE": "LINK0001", "HISTREMARK": null }, "geometry": { "type": "LineString", "coordinates": [ [ 126.925840993030164, 35.152472846053172 ], [ 126.925839159048806, 35.152585177739709 ] ] } },
{ "type": "Feature", "properties": { "LINK_ID": "1750059601", "F_NODE": "1750022701", "T_NODE": "1750022704", "LANES": 1, "ROAD_RANK": "104", "ROAD_TYPE": "000", "ROAD_NO": "-", "ROAD_NAME": "동계로10번길", "ROAD_USE": "0", "MULTI_LINK": "0", "CONNECT": "0", "MAX_SPD": 40, "REST_VEH": "0", "REST_W": 0, "REST_H": 0, "C-ITS": "0", "LENGTH": 11.999985319071, "UPDATEDATE": "20250512", "REMARK": null, "HIST_TYPE": "LINK0001", "HISTREMARK": null }, "geometry": { "type": "LineString", "coordinates": [ [ 126.925839159048806, 35.152585177739709 ], [ 126.925709204376332, 35.152567643959664 ] ] } },
{ "type": "Feature", "properties": { "LINK_ID": "1750059500", "F_NODE": "1750022702", "T_NODE": "1750014709", "LANES": 1, "ROAD_RANK": "104", "ROAD_TYPE": "000", "ROAD_NO": "-", "ROAD_NAME": "동계로10번길", "ROAD_USE": "0", "MULTI_LINK": "0", "CONNECT": "0", "MAX_SPD": 40, "REST_VEH": "0", "REST_W": 0, "REST_H": 0, "C-ITS": "0", "LENGTH": 70.531167028102999, "UPDATEDATE": "20250512", "REMARK": null, "HIST_TYPE": "LINK0003", "HISTREMARK": null }, "geometry": { "type": "LineString", "coordinates": [ [ 126.925840993030164, 35.152472846053172 ], [ 126.9259341302119, 35.152495424793301 ], [ 126.926133891286483, 35.152560463038427 ] ] } },
{ "type": "Feature", "properties": { "LINK_ID": "1750059600", "F_NODE": "1750014710", "T_NODE": "1750022701", "LANES": 1, "ROAD_RANK": "104", "ROAD_TYPE": "000", "ROAD_NO": "-", "ROAD_NAME": "동계로10번길", "ROAD_USE": "0", "MULTI_LINK": "0", "CONNECT": "0", "MAX_SPD": 40, "REST_VEH": "0", "REST_W": 0, "REST_H": 0, "C-ITS": "0", "LENGTH": 61.721298430944998, "UPDATEDATE": "20250512", "REMARK": null, "HIST_TYPE": "LINK0003", "HISTREMARK": null }, "geometry": { "type": "LineString", "coordinates": [ [ 126.926132807423102, 35.152676461888312 ], [ 126.925891133937611, 35.152597777732296 ], [ 126.925839159048806, 35.152585177739709 ] ] } },
{ "type": "Feature", "properties": { "LINK_ID": "1750059200", "F_NODE": "1750022602", "T_NODE": "1750022704", "LANES": 1, "ROAD_RANK": "104", "ROAD_TYPE": "000", "ROAD_NO": "-", "ROAD_NAME": "동계로12번길", "ROAD_USE": "0", "MULTI_LINK": "0", "CONNECT": "0", "MAX_SPD": 40, "REST_VEH": "0", "REST_W": 0, "REST_H": 0, "C-ITS": "0", "LENGTH": 40.643196107218003, "UPDATEDATE": "20250512", "REMARK": null, "HIST_TYPE": "LINK0003", "HISTREMARK": null }, "geometry": { "type": "LineString", "coordinates": [ [ 126.925636864986899, 35.152786164483878 ], [ 126.925664129284968, 35.152749813562558 ], [ 126.925685725046279, 35.152685028005635 ], [ 126.925709204376332, 35.152567643959664 ] ] } },
{ "type": "Feature", "properties": { "LINK_ID": "1750048603", "F_NODE": "1750116000", "T_NODE": "1750022602", "LANES": 1, "ROAD_RANK": "104", "ROAD_TYPE": "000", "ROAD_NO": "-", "ROAD_NAME": "동계로12번길", "ROAD_USE": "0", "MULTI_LINK": "0", "CONNECT": "0", "MAX_SPD": 30, "REST_VEH": "0", "REST_W": 0, "REST_H": 0, "C-ITS": "0", "LENGTH": 90.737945395457999, "UPDATEDATE": "20250512", "REMARK": null, "HIST_TYPE": "LINK1007", "HISTREMARK": "1750048600" }, "geometry": { "type": "LineString", "coordinates": [ [ 126.924615546234946, 35.152620825087759 ], [ 126.924782682031321, 35.152661694300356 ], [ 126.925084809959031, 35.152745617866593 ], [ 126.925249886332125, 35.152796410528495 ], [ 126.92535890593183, 35.152835345984904 ] ] } },
{ "type": "Feature", "properties": { "LINK_ID": "1750059100", "F_NODE": "1750022701", "T_NODE": "1750022601", "LANES": 1, "ROAD_RANK": "104", "ROAD_TYPE": "000", "ROAD_NO": "-", "ROAD_NAME": "동계로12번길", "ROAD_USE": "0", "MULTI_LINK": "0", "CONNECT": "0", "MAX_SPD": 40, "REST_VEH": "0", "REST_W": 0, "REST_H": 0, "C-ITS": "0", "LENGTH": 47.147610570939001, "UPDATEDATE": "20250512", "REMARK": null, "HIST_TYPE": "LINK0003", "HISTREMARK": null }, "geometry": { "type": "LineString", "coordinates": [ [ 126.925839159048806, 35.152585177739709 ], [ 126.925814565123559, 35.152708138521305 ], [ 126.925793247380568, 35.152772088134029 ] ] } },
{ "type": "Feature", "properties": { "LINK_ID": "1750022403", "F_NODE": "1750011403", "T_NODE": "1750011402", "LANES": 1, "ROAD_RANK": "104", "ROAD_TYPE": "000", "ROAD_NO": "-", "ROAD_NAME": "동계로", "ROAD_USE": "0", "MULTI_LINK": "0", "CONNECT": "0", "MAX_SPD": 30, "REST_VEH": "0", "REST_W": 0, "REST_H": 0, "C-ITS": "0", "LENGTH": 13.919783545619, "UPDATEDATE": "20250512", "REMARK": null, "HIST_TYPE": "LINK0001", "HISTREMARK": null }, "geometry": { "type": "LineString", "coordinates": [ [ 126.924356825206814, 35.152557560278879 ], [ 126.924393444398788, 35.152679369674786 ] ] } },
{ "type": "Feature", "properties": { "LINK_ID": "1750022303", "F_NODE": "1750011405", "T_NODE": "1750011404", "LANES": 1, "ROAD_RANK": "104", "ROAD_TYPE": "000", "ROAD_NO": "-", "ROAD_NAME": "동계로", "ROAD_USE": "0", "MULTI_LINK": "0", "CONNECT": "0", "MAX_SPD": 30, "REST_VEH": "0", "REST_W": 0, "REST_H": 0, "C-ITS": "0", "LENGTH": 13.91978868424, "UPDATEDATE": "20250512", "REMARK": null, "HIST_TYPE": "LINK0001", "HISTREMARK": null }, "geometry": { "type": "LineString", "coordinates": [ [ 126.92426553936339, 35.152705302875511 ], [ 126.924228925690784, 35.152583492311166 ] ] } },
{ "type": "Feature", "properties": { "LINK_ID": "1750048501", "F_NODE": "1750011402", "T_NODE": "1750011405", "LANES": 1, "ROAD_RANK": "104", "ROAD_TYPE": "000", "ROAD_NO": "-", "ROAD_NAME": "동계로12번길", "ROAD_USE": "0", "MULTI_LINK": "0", "CONNECT": "0", "MAX_SPD": 30, "REST_VEH": "0", "REST_W": 0, "REST_H": 0, "C-ITS": "0", "LENGTH": 12.004373628038, "UPDATEDATE": "20250512", "REMARK": null, "HIST_TYPE": "LINK0001", "HISTREMARK": null }, "geometry": { "type": "LineString", "coordinates": [ [ 126.924393444398788, 35.152679369674786 ], [ 126.92426553936339, 35.152705302875511 ] ] } },
{ "type": "Feature", "properties": { "LINK_ID": "1750022306", "F_NODE": "1750048100", "T_NODE": "1750011405", "LANES": 1, "ROAD_RANK": "104", "ROAD_TYPE": "000", "ROAD_NO": "-", "ROAD_NAME": "동계로", "ROAD_USE": "0", "MULTI_LINK": "0", "CONNECT": "0", "MAX_SPD": 30, "REST_VEH": "0", "REST_W": 0, "REST_H": 0, "C-ITS": "0", "LENGTH": 28.096497707388, "UPDATEDATE": "20250512", "REMARK": null, "HIST_TYPE": "LINK1007", "HISTREMARK": "1750022301" }, "geometry": { "type": "LineString", "coordinates": [ [ 126.924342152500969, 35.15295060799734 ], [ 126.92428611059276, 35.15277374140436 ], [ 126.92426553936339, 35.152705302875511 ] ] } },
{ "type": "Feature", "properties": { "LINK_ID": "1750048500", "F_NODE": "1750022603", "T_NODE": "1750011402", "LANES": 1, "ROAD_RANK": "104", "ROAD_TYPE": "000", "ROAD_NO": "-", "ROAD_NAME": "동계로12번길", "ROAD_USE": "0", "MULTI_LINK": "0", "CONNECT": "0", "MAX_SPD": 30, "REST_VEH": "0", "REST_W": 0, "REST_H": 0, "C-ITS": "0", "LENGTH": 105.11604320156999, "UPDATEDATE": "20250512", "REMARK": null, "HIST_TYPE": "LINK0003", "HISTREMARK": null }, "geometry": { "type": "LineString", "coordinates": [ [ 126.925253911805441, 35.152915795448436 ], [ 126.92520049371943, 35.152896717689039 ], [ 126.925040600191053, 35.152847519969647 ], [ 126.924742781714656, 35.152764792372331 ], [ 126.924577966463929, 35.152724490603724 ], [ 126.924393444398788, 35.152679369674786 ] ] } },
{ "type": "Feature", "properties": { "LINK_ID": "1750022402", "F_NODE": "1750011402", "T_NODE": "1750054900", "LANES": 1, "ROAD_RANK": "104", "ROAD_TYPE": "000", "ROAD_NO": "-", "ROAD_NAME": "동계로", "ROAD_USE": "0", "MULTI_LINK": "0", "CONNECT": "0", "MAX_SPD": 50, "REST_VEH": "0", "REST_W": 0, "REST_H": 0, "C-ITS": "0", "LENGTH": 55.673271231502, "UPDATEDATE": "20250512", "REMARK": null, "HIST_TYPE": "LINK0003", "HISTREMARK": null }, "geometry": { "type": "LineString", "coordinates": [ [ 126.924393444398788, 35.152679369674786 ], [ 126.924413829734519, 35.152747178733989 ], [ 126.924469591689231, 35.152923389051523 ], [ 126.924475359994673, 35.152941617114621 ], [ 126.924499203674344, 35.153060553862758 ], [ 126.924528646634201, 35.153154447423454 ] ] } },
{ "type": "Feature", "properties": { "LINK_ID": "1750022301", "F_NODE": "1750011723", "T_NODE": "1750048100", "LANES": 1, "ROAD_RANK": "104", "ROAD_TYPE": "000", "ROAD_NO": "-", "ROAD_NAME": "동계로", "ROAD_USE": "0", "MULTI_LINK": "0", "CONNECT": "0", "MAX_SPD": 30, "REST_VEH": "0", "REST_W": 0, "REST_H": 0, "C-ITS": "0", "LENGTH": 86.514706231456998, "UPDATEDATE": "20250512", "REMARK": null, "HIST_TYPE": "LINK0003", "HISTREMARK": null }, "geometry": { "type": "LineString", "coordinates": [ [ 126.924400129169456, 35.153178099914108 ], [ 126.9243702039807, 35.153082835261593 ], [ 126.924346422865895, 35.152964085109261 ], [ 126.924342152500969, 35.15295060799734 ] ] } },
{ "type": "Feature", "properties": { "LINK_ID": "1750023902", "F_NODE": "1750097500", "T_NODE": "1750011724", "LANES": 1, "ROAD_RANK": "104", "ROAD_TYPE": "000", "ROAD_NO": "-", "ROAD_NAME": "경양로", "ROAD_USE": "0", "MULTI_LINK": "0", "CONNECT": "0", "MAX_SPD": 30, "REST_VEH": "0", "REST_W": 0, "REST_H": 0, "C-ITS": "0", "LENGTH": 273.972189921417, "UPDATEDATE": "20250512", "REMARK": null, "HIST_TYPE": "LINK1007", "HISTREMARK": "1750023900" }, "geometry": { "type": "LineString", "coordinates": [ [ 126.921623011115528, 35.154460661143197 ], [ 126.921767078851715, 35.15447680365093 ], [ 126.921989673481704, 35.154482553632697 ], [ 126.922142611037799, 35.154479053774793 ], [ 126.922488860918705, 35.154443085262209 ], [ 126.922571610392424, 35.154433049570997 ] ] } },
{ "type": "Feature", "properties": { "LINK_ID": "1750024003", "F_NODE": "1750158300", "T_NODE": "1750012102", "LANES": 1, "ROAD_RANK": "104", "ROAD_TYPE": "000", "ROAD_NO": "-", "ROAD_NAME": "경양로", "ROAD_USE": "0", "MULTI_LINK": "0", "CONNECT": "0", "MAX_SPD": 30, "REST_VEH": "0", "REST_W": 0, "REST_H": 0, "C-ITS": "0", "LENGTH": 325.71394327583897, "UPDATEDATE": "20250512", "REMARK": null, "HIST_TYPE": "LINK1007", "HISTREMARK": "1750024000" }, "geometry": { "type": "LineString", "coordinates": [ [ 126.922519721000938, 35.154548725727686 ], [ 126.922506455280228, 35.154550334942805 ], [ 126.922152766510777, 35.154587022517667 ], [ 126.921989423087027, 35.154590804124091 ], [ 126.921756047779624, 35.15458467942539 ], [ 126.921605215826162, 35.15456777547687 ], [ 126.921592642130463, 35.154566366316367 ], [ 126.921505923065737, 35.154559647312936 ], [ 126.921133266517799, 35.154504522398604 ], [ 126.921043485739119, 35.154483960685781 ], [ 126.920825201953619, 35.154500558576423 ] ] } },
{ "type": "Feature", "properties": { "LINK_ID": "1750025402", "F_NODE": "1750096000", "T_NODE": "1750112700", "LANES": 1, "ROAD_RANK": "104", "ROAD_TYPE": "000", "ROAD_NO": "-", "ROAD_NAME": "계림로", "ROAD_USE": "0", "MULTI_LINK": "0", "CONNECT": "0", "MAX_SPD": 30, "REST_VEH": "0", "REST_W": 0, "REST_H": 0, "C-ITS": "0", "LENGTH": 27.599061437379, "UPDATEDATE": "20250512", "REMARK": null, "HIST_TYPE": "LINK1007", "HISTREMARK": "1750025400" }, "geometry": { "type": "LineString", "coordinates": [ [ 126.921688103649089, 35.154988561604263 ], [ 126.92189518579066, 35.155133112397849 ] ] } },
{ "type": "Feature", "properties": { "LINK_ID": "1750024002", "F_NODE": "1750012102", "T_NODE": "1750012101", "LANES": 1, "ROAD_RANK": "104", "ROAD_TYPE": "000", "ROAD_NO": "-", "ROAD_NAME": "경양로", "ROAD_USE": "0", "MULTI_LINK": "0", "CONNECT": "0", "MAX_SPD": 30, "REST_VEH": "0", "REST_W": 0, "REST_H": 0, "C-ITS": "1", "LENGTH": 14.639654990536, "UPDATEDATE": "20250512", "REMARK": null, "HIST_TYPE": "LINK0001", "HISTREMARK": null }, "geometry": { "type": "LineString", "coordinates": [ [ 126.920825201953619, 35.154500558576423 ], [ 126.920752272614592, 35.154618137800576 ] ] } },
{ "type": "Feature", "properties": { "LINK_ID": "1750025301", "F_NODE": "1750012101", "T_NODE": "1750012105", "LANES": 1, "ROAD_RANK": "104", "ROAD_TYPE": "000", "ROAD_NO": "-", "ROAD_NAME": "계림로", "ROAD_USE": "0", "MULTI_LINK": "0", "CONNECT": "0", "MAX_SPD": 30, "REST_VEH": "0", "REST_W": 0, "REST_H": 0, "C-ITS": "0", "LENGTH": 13.675702160702, "UPDATEDATE": "20250512", "REMARK": null, "HIST_TYPE": "LINK0001", "HISTREMARK": null }, "geometry": { "type": "LineString", "coordinates": [ [ 126.920752272614592, 35.154618137800576 ], [ 126.920745678273221, 35.15461861845283 ] ] } },
{ "type": "Feature", "properties": { "LINK_ID": "1750025400", "F_NODE": "1750012102", "T_NODE": "1750096000", "LANES": 1, "ROAD_RANK": "104", "ROAD_TYPE": "000", "ROAD_NO": "-", "ROAD_NAME": "계림로", "ROAD_USE": "0", "MULTI_LINK": "0", "CONNECT": "0", "MAX_SPD": 30, "REST_VEH": "0", "REST_W": 0, "REST_H": 0, "C-ITS": "0", "LENGTH": 95.850391543062997, "UPDATEDATE": "20250512", "REMARK": null, "HIST_TYPE": "LINK0003", "HISTREMARK": null }, "geometry": { "type": "LineString", "coordinates": [ [ 126.920825201953619, 35.154500558576423 ], [ 126.920940923297465, 35.154545335924062 ], [ 126.921372298381527, 35.154768116481605 ], [ 126.921688103649089, 35.154988561604263 ] ] } },
{ "type": "Feature", "properties": { "LINK_ID": "1750025505", "F_NODE": "1750148600", "T_NODE": "1750012104", "LANES": 1, "ROAD_RANK": "104", "ROAD_TYPE": "000", "ROAD_NO": "-", "ROAD_NAME": "경양로", "ROAD_USE": "0", "MULTI_LINK": "0", "CONNECT": "0", "MAX_SPD": 30, "REST_VEH": "0", "REST_W": 0, "REST_H": 0, "C-ITS": "0", "LENGTH": 84.451719488026001, "UPDATEDATE": "20250512", "REMARK": null, "HIST_TYPE": "LINK1007", "HISTREMARK": "1750025500" }, "geometry": { "type": "LineString", "coordinates": [ [ 126.920491493722167, 35.15450560391568 ], [ 126.920506764307191, 35.154470120846092 ] ] } },
{ "type": "Feature", "properties": { "LINK_ID": "1750025302", "F_NODE": "1750095900", "T_NODE": "1750012101", "LANES": 1, "ROAD_RANK": "104", "ROAD_TYPE": "000", "ROAD_NO": "-", "ROAD_NAME": "계림로", "ROAD_USE": "0", "MULTI_LINK": "0", "CONNECT": "0", "MAX_SPD": 30, "REST_VEH": "0", "REST_W": 0, "REST_H": 0, "C-ITS": "0", "LENGTH": 93.426969796788995, "UPDATEDATE": "20250512", "REMARK": null, "HIST_TYPE": "LINK1007", "HISTREMARK": "1750025300" }, "geometry": { "type": "LineString", "coordinates": [ [ 126.921442594732653, 35.154959081909951 ], [ 126.921294204864822, 35.154855492302097 ], [ 126.920877579053922, 35.154640428632788 ], [ 126.920752272614592, 35.154618137800576 ] ] } },
{ "type": "Feature", "properties": { "LINK_ID": "1750070901", "F_NODE": "1750012101", "T_NODE": "1750065900", "LANES": 2, "ROAD_RANK": "107", "ROAD_TYPE": "000", "ROAD_NO": "-", "ROAD_NAME": "중앙로", "ROAD_USE": "0", "MULTI_LINK": "0", "CONNECT": "0", "MAX_SPD": 50, "REST_VEH": "0", "REST_W": 0, "REST_H": 0, "C-ITS": "1", "LENGTH": 53.167762659426998, "UPDATEDATE": "20250512", "REMARK": null, "HIST_TYPE": "LINK0003", "HISTREMARK": null }, "geometry": { "type": "LineString", "coordinates": [ [ 126.920752272614592, 35.154618137800576 ], [ 126.920750359655173, 35.154620813699914 ] ] } }
]
}
