{
"type": "FeatureCollection",
"name": "road_node_raw",
"crs": { "type": "name", "properties": { "name": "urn:ogc:def:crs:OGC:1.3:CRS84" } },
"features": [
{ "type": "Feature", "properties": { "NODE_ID": "1750002102", "NODE_TYPE": "101", "NODE_NAME": "동명동 288-43", "TURN_P": "0", "UPDATEDATE": "20250512", "REMARK": null, "HIST_TYPE": "NODE0001", "HISTREMARK": null }, "geometry": { "type": "Point", "coordinates": [ 126.927211127356316, 35.146193663911006 ] } },
{ "type": "Feature", "properties": { "NODE_ID": "1750063300", "NODE_TYPE": "101", "NODE_NAME": "동명동 118-24", "TURN_P": "0", "UPDATEDATE": "20250512", "REMARK": null, "HIST_TYPE": "NODE0001", "HISTREMARK": null }, "geometry": { "type": "Point", "coordinates": [ 126.928324896547409, 35.146679764325746 ] } },
{ "type": "Feature", "properties": { "NODE_ID": "1750002105", "NODE_TYPE": "101", "NODE_NAME": "동명동 121", "TURN_P": "1", "UPDATEDATE": "20250512", "REMARK": null, "HIST_TYPE": "NODE0001", "HISTREMARK": null }, "geometry": { "type": "Point", "coordinates": [ 126.9276495312848, 35.14685829907787 ] } },
{ "type": "Feature", "properties": { "NODE_ID": "1750002106", "NODE_TYPE": "101", "NODE_NAME": "동명동 121", "TURN_P": "0", "UPDATEDATE": "20250512", "REMARK": null, "HIST_TYPE": "NODE0001", "HISTREMARK": null }, "geometry": { "type": "Point", "coordinates": [ 126.927540365209268, 35.146919857593325 ] } },
{ "type": "Feature", "properties": { "NODE_ID": "1750002104", "NODE_TYPE": "101", "NODE_NAME": "동명동 126-1", "TURN_P": "0", "UPDATEDATE": "20250512", "REMARK": null, "HIST_TYPE": "NODE0001", "HISTREMARK": null }, "geometry": { "type": "Point", "coordinates": [ 126.927712619324197, 35.146953555657177 ] } },
{ "type": "Feature", "properties": { "NODE_ID": "1750002107", "NODE_TYPE": "101", "NODE_NAME": "동명동 122-1", "TURN_P": "1", "UPDATEDATE": "20250512", "REMARK": null, "HIST_TYPE": "NODE0001", "HISTREMARK": null }, "geometry": { "type": "Point", "coordinates": [ 126.927603939728883, 35.147015750425183 ] } },
{ "type": "Feature", "properties": { "NODE_ID": "1750009403", "NODE_TYPE": "101", "NODE_NAME": "동명동 135-1", "TURN_P": "0", "UPDATEDATE": "20250512", "REMARK": null, "HIST_TYPE": "NODE0001", "HISTREMARK": null }, "geometry": { "type": "Point", "coordinates": [ 126.926519221068716, 35.147349717410869 ] } },
{ "type": "Feature", "properties": { "NODE_ID": "1750009404", "NODE_TYPE": "101", "NODE_NAME": "동명동 135-1", "TURN_P": "0", "UPDATEDATE": "20250512", "REMARK": null, "HIST_TYPE": "NODE0001", "HISTREMARK": null }, "geometry": { "type": "Point", "coordinates": [ 126.926399926895257, 35.147396170655952 ] } },
{ "type": "Feature", "properties": { "NODE_ID": "1750009402", "NODE_TYPE": "101", "NODE_NAME": "동명동 135-1", "TURN_P": "0", "UPDATEDATE": "20250512", "REMARK": null, "HIST_TYPE": "NODE0001", "HISTREMARK": null }, "geometry": { "type": "Point", "coordinates": [ 126.926582858858936, 35.147444384597236 ] } },
{ "type": "Feature", "properties": { "NODE_ID": "1750009405", "NODE_TYPE": "101", "NODE_NAME": "동명동 141-27", "TURN_P": "0", "UPDATEDATE": "20250512", "REMARK": null, "HIST_TYPE": "NODE0001", "HISTREMARK": null }, "geometry": { "type": "Point", "coordinates": [ 126.926449436381844, 35.147496177987477 ] } },
{ "type": "Feature", "properties": { "NODE_ID": "1750151100", "NODE_TYPE": "101", "NODE_NAME": "동명동 140-7", "TURN_P": "0", "UPDATEDATE": "20250512", "REMARK": null, "HIST_TYPE": "NODE0001", "HISTREMARK": null }, "geometry": { "type": "Point", "coordinates": [ 126.926331616941852, 35.147535527320827 ] } },
{ "type": "Feature", "properties": { "NODE_ID": "1750156800", "NODE_TYPE": "101", "NODE_NAME": "동명동 126-1", "TURN_P": "0", "UPDATEDATE": "20250512", "REMARK": null, "HIST_TYPE": "NODE0001", "HISTREMARK": null }, "geometry": { "type": "Point", "coordinates": [ 126.928268736795232, 35.147788398143227 ] } },
{ "type": "Feature", "properties": { "NODE_ID": "1750123800", "NODE_TYPE": "101", "NODE_NAME": "동명동 90-4", "TURN_P": "0", "UPDATEDATE": "20250512", "REMARK": null, "HIST_TYPE": "NODE0001", "HISTREMARK": null }, "geometry": { "type": "Point", "coordinates": [ 126.928741292847846, 35.148497782913523 ] } },
{ "type": "Feature", "properties": { "NODE_ID": "1750147800", "NODE_TYPE": "101", "NODE_NAME": "동명동 72-37", "TURN_P": "0", "UPDATEDATE": "20250512", "REMARK": null, "HIST_TYPE": "NODE0001", "HISTREMARK": null }, "geometry": { "type": "Point", "coordinates": [ 126.925788299045422, 35.148932304214668 ] } },
{ "type": "Feature", "properties": { "NODE_ID": "1750048300", "NODE_TYPE": "101", "NODE_NAME": "동명동 287", "TURN_P": "0", "UPDATEDATE": "20250512", "REMARK": null, "HIST_TYPE": "NODE0001", "HISTREMARK": null }, "geometry": { "type": "Point", "coordinates": [ 126.926360343543422, 35.149007445008202 ] } },
{ "type": "Feature", "properties": { "NODE_ID": "1750078900", "NODE_TYPE": "101", "NODE_NAME": "동명동 287", "TURN_P": "0", "UPDATEDATE": "20250512", "REMARK": null, "HIST_TYPE": "NODE0001", "HISTREMARK": null }, "geometry": { "type": "Point", "coordinates": [ 126.92666881392114, 35.149086198543927 ] } },
{ "type": "Feature", "properties": { "NODE_ID": "1750079000", "NODE_TYPE": "101", "NODE_NAME": "동명동 65-1", "TURN_P": "0", "UPDATEDATE": "20250512", "REMARK": null, "HIST_TYPE": "NODE0001", "HISTREMARK": null }, "geometry": { "type": "Point", "coordinates": [ 126.926653519663233, 35.14919361818253 ] } },
{ "type": "Feature", "properties": { "NODE_ID": "1750160900", "NODE_TYPE": "101", "NODE_NAME": "동명동 280", "TURN_P": "0", "UPDATEDATE": "20250512", "REMARK": null, "HIST_TYPE": "NODE0001", "HISTREMARK": null }, "geometry": { "type": "Point", "coordinates": [ 126.929531368325982, 35.149209975647899 ] } },
{ "type": "Feature", "properties": { "NODE_ID": "1750002202", "NODE_TYPE": "101", "NODE_NAME": "동명동 98", "TURN_P": "1", "UPDATEDATE": "20250512", "REMARK": null, "HIST_TYPE": "NODE0001", "HISTREMARK": null }, "geometry": { "type": "Point", "coordinates": [ 126.929218549628246, 35.149214209823619 ] } },
{ "type": "Feature", "properties": { "NODE_ID": "1750103900", "NODE_TYPE": "101", "NODE_NAME": "동명동 107-1", "TURN_P": "0", "UPDATEDATE": "20250512", "REMARK": null, "HIST_TYPE": "NODE0001", "HISTREMARK": null }, "geometry": { "type": "Point", "coordinates": [ 126.929959142439927, 35.148923334086895 ] } },
{ "type": "Feature", "properties": { "NODE_ID": "1750120700", "NODE_TYPE": "101", "NODE_NAME": "동명동 284-20", "TURN_P": "0", "UPDATEDATE": "20250512", "REMARK": null, "HIST_TYPE": "NODE0001", "HISTREMARK": null }, "geometry": { "type": "Point", "coordinates": [ 126.92824397764889, 35.149230021284922 ] } },
{ "type": "Feature", "properties": { "NODE_ID": "1750002203", "NODE_TYPE": "101", "NODE_NAME": "동명동 98", "TURN_P": "0", "UPDATEDATE": "20250512", "REMARK": null, "HIST_TYPE": "NODE0001", "HISTREMARK": null }, "geometry": { "type": "Point", "coordinates": [ 126.9290968188932, 35.149256902008965 ] } },
{ "type": "Feature", "properties": { "NODE_ID": "1750149700", "NODE_TYPE": "101", "NODE_NAME": "동명동 284-20", "TURN_P": "0", "UPDATEDATE": "20250512", "REMARK": null, "HIST_TYPE": "NODE0001", "HISTREMARK": null }, "geometry": { "type": "Point", "coordinates": [ 126.928532512318952, 35.149302093696065 ] } },
{ "type": "Feature", "properties": { "NODE_ID": "1750002201", "NODE_TYPE": "101", "NODE_NAME": "동명동 284-20", "TURN_P": "0", "UPDATEDATE": "20250512", "REMARK": null, "HIST_TYPE": "NODE0001", "HISTREMARK": null }, "geometry": { "type": "Point", "coordinates": [ 126.92928423189413, 35.149308247228312 ] } },
{ "type": "Feature", "properties": { "NODE_ID": "1750002204", "NODE_TYPE": "101", "NODE_NAME": "동명동 284-20", "TURN_P": "1", "UPDATEDATE": "20250512", "REMARK": null, "HIST_TYPE": "NODE0001", "HISTREMARK": null }, "geometry": { "type": "Point", "coordinates": [ 126.929162659599953, 35.14935205239307 ] } },
{ "type": "Feature", "properties": { "NODE_ID": "1750058900", "NODE_TYPE": "101", "NODE_NAME": "동명동 11-5", "TURN_P": "0", "UPDATEDATE": "20250512", "REMARK": null, "HIST_TYPE": "NODE0001", "HISTREMARK": null }, "geometry": { "type": "Point", "coordinates": [ 126.929572569644904, 35.14991632617415 ] } },
{ "type": "Feature", "properties": { "NODE_ID": "1750014718", "NODE_TYPE": "101", "NODE_NAME": "동명동 167-2", "TURN_P": "0", "UPDATEDATE": "20250512", "REMARK": null, "HIST_TYPE": "NODE0001", "HISTREMARK": null }, "geometry": { "type": "Point", "coordinates": [ 126.927817079038448, 35.151002394339727 ] } },
{ "type": "Feature", "properties": { "NODE_ID": "1750143200", "NODE_TYPE": "101", "NODE_NAME": "동명동 154-6", "TURN_P": "0", "UPDATEDATE": "20250512", "REMARK": null, "HIST_TYPE": "NODE0001", "HISTREMARK": null }, "geometry": { "type": "Point", "coordinates": [ 126.927093841768524, 35.151161019543288 ] } },
{ "type": "Feature", "properties": { "NODE_ID": "1750014713", "NODE_TYPE": "101", "NODE_NAME": "동명동행정복지센터", "TURN_P": "0", "UPDATEDATE": "20250512", "REMARK": null, "HIST_TYPE": "NODE0001", "HISTREMARK": null }, "geometry": { "type": "Point", "coordinates": [ 126.925668688342228, 35.151481661509365 ] } },
{ "type": "Feature", "properties": { "NODE_ID": "1750014714", "NODE_TYPE": "101", "NODE_NAME": "동명동행정복지센터", "TURN_P": "0", "UPDATEDATE": "20250512", "REMARK": null, "HIST_TYPE": "NODE0001", "HISTREMARK": null }, "geometry": { "type": "Point", "coordinates": [ 126.925539693616273, 35.151505876255086 ] } },
{ "type": "Feature", "properties": { "NODE_ID": "1750014712", "NODE_TYPE": "101", "NODE_NAME": "동명동행정복지센터", "TURN_P": "0", "UPDATEDATE": "20250512", "REMARK": null, "HIST_TYPE": "NODE0001", "HISTREMARK": null }, "geometry": { "type": "Point", "coordinates": [ 126.92570108716798, 35.151598084651987 ] } },
{ "type": "Feature", "properties": { "NODE_ID": "1750014715", "NODE_TYPE": "101", "NODE_NAME": "동명동행정복지센터", "TURN_P": "0", "UPDATEDATE": "20250512", "REMARK": null, "HIST_TYPE": "NODE0001", "HISTREMARK": null }, "geometry": { "type": "Point", "coordinates": [ 126.92557237421741, 35.151623313188232 ] } },
{ "type": "Feature", "properties": { "NODE_ID": "1750011201", "NODE_TYPE": "101", "NODE_NAME": "교통신문(광주전남지사)", "TURN_P": "0", "UPDATEDATE": "20250512", "REMARK": null, "HIST_TYPE": "NODE0001", "HISTREMARK": null }, "geometry": { "type": "Point", "coordinates": [ 126.923153895963111, 35.150331026876295 ] } },
{ "type": "Feature", "properties": { "NODE_ID": "1750011204", "NODE_TYPE": "101", "NODE_NAME": "교통신문(광주전남지사)", "TURN_P": "0", "UPDATEDATE": "20250512", "REMARK": null, "HIST_TYPE": "NODE0001", "HISTREMARK": null }, "geometry": { "type": "Point", "coordinates": [ 126.923071045743725, 35.150418594012201 ] } },
{ "type": "Feature", "properties": { "NODE_ID": "1750064100", "NODE_TYPE": "101", "NODE_NAME": "동명동 154-110", "TURN_P": "0", "UPDATEDATE": "20250512", "REMARK": null, "HIST_TYPE": "NODE0001", "HISTREMARK": null }, "geometry": { "type": "Point", "coordinates": [ 126.923454907973039, 35.150770237131745 ] } },
{ "type": "Feature", "properties": { "NODE_ID": "1750064200", "NODE_TYPE": "101", "NODE_NAME": "동명동 200", "TURN_P": "0", "UPDATEDATE": "20250512", "REMARK": null, "HIST_TYPE": "NODE0001", "HISTREMARK": null }, "geometry": { "type": "Point", "coordinates": [ 126.92333863438887, 35.150821061277178 ] } },
{ "type": "Feature", "properties": { "NODE_ID": "1750113100", "NODE_TYPE": "101", "NODE_NAME": "동명동 200", "TURN_P": "0", "UPDATEDATE": "20250512", "REMARK": null, "HIST_TYPE": "NODE0001", "HISTREMARK": null }, "geometry": { "type": "Point", "coordinates": [ 126.923790154954347, 35.151287599469356 ] } },
{ "type": "Feature", "properties": { "NODE_ID": "1750113200", "NODE_TYPE": "101", "NODE_NAME": "동명동 200", "TURN_P": "0", "UPDATEDATE": "20250512", "REMARK": null, "HIST_TYPE": "NODE0001", "HISTREMARK": null }, "geometry": { "type": "Point", "coordinates": [ 126.923673869036676, 35.151338428331258 ] } },
{ "type": "Feature", "properties": { "NODE_ID": "1750043600", "NODE_TYPE": "101", "NODE_NAME": "동명동 156-2", "TURN_P": "0", "UPDATEDATE": "20250512", "REMARK": null, "HIST_TYPE": "NODE0001", "HISTREMARK": null }, "geometry": { "type": "Point", "coordinates": [ 126.924847992905555, 35.151635718656053 ] } },
{ "type": "Feature", "properties": { "NODE_ID": "1750011407", "NODE_TYPE": "101", "NODE_NAME": "동명동 200", "TURN_P": "0", "UPDATEDATE": "20250512", "REMARK": null, "HIST_TYPE": "NODE0001", "HISTREMARK": null }, "geometry": { "type": "Point", "coordinates": [ 126.92411503784561, 35.151788960494478 ] } },
{ "type": "Feature", "properties": { "NODE_ID": "1750011408", "NODE_TYPE": "101", "NODE_NAME": "동명동 200", "TURN_P": "0", "UPDATEDATE": "20250512", "REMARK": null, "HIST_TYPE": "NODE0001", "HISTREMARK": null }, "geometry": { "type": "Point", "coordinates": [ 126.924004967445683, 35.15183890824693 ] } },
{ "type": "Feature", "properties": { "NODE_ID": "1750011406", "NODE_TYPE": "101", "NODE_NAME": "동명동 200-243", "TURN_P": "0", "UPDATEDATE": "20250512", "REMARK": null, "HIST_TYPE": "NODE0001", "HISTREMARK": null }, "geometry": { "type": "Point", "coordinates": [ 126.924161771345666, 35.151908725228701 ] } },
{ "type": "Feature", "properties": { "NODE_ID": "1750011409", "NODE_TYPE": "101", "NODE_NAME": "동명동 200", "TURN_P": "0", "UPDATEDATE": "20250512", "REMARK": null, "HIST_TYPE": "NODE0001", "HISTREMARK": null }, "geometry": { "type": "Point", "coordinates": [ 126.924039172133519, 35.151952191527826 ] } },
{ "type": "Feature", "properties": { "NODE_ID": "1750011403", "NODE_TYPE": "101", "NODE_NAME": "세계카메라영화박물관", "TURN_P": "0", "UPDATEDATE": "20250512", "REMARK": null, "HIST_TYPE": "NODE0001", "HISTREMARK": null }, "geometry": { "type": "Point", "coordinates": [ 126.924356825206814, 35.152557560278879 ] } },
{ "type": "Feature", "properties": { "NODE_ID": "1750011404", "NODE_TYPE": "101", "NODE_NAME": "세계카메라영화박물관", "TURN_P": "0", "UPDATEDATE": "20250512", "REMARK": null, "HIST_TYPE": "NODE0001", "HISTREMARK": null }, "geometry": { "type": "Point", "coordinates": [ 126.924228925690784, 35.152583492311166 ] } },
{ "type": "Feature", "properties": { "NODE_ID": "1750116000", "NODE_TYPE": "101", "NODE_NAME": "동명동 207-181", "TURN_P": "0", "UPDATEDATE": "20250512", "REMARK": null, "HIST_TYPE": "NODE0001", "HISTREMARK": null }, "geometry": { "type": "Point", "coordinates": [ 126.924615546234946, 35.152620825087759 ] } },
{ "type": "Feature", "properties": { "NODE_ID": "1750011402", "NODE_TYPE": "101", "NODE_NAME": "세계카메라영화박물관", "TURN_P": "0", "UPDATEDATE": "20250512", "REMARK": null, "HIST_TYPE": "NODE0001", "HISTREMARK": null }, "geometry": { "type": "Point", "coordinates": [ 126.924393444398788, 35.152679369674786 ] } },
{ "type": "Feature", "properties": { "NODE_ID": "1750022702", "NODE_TYPE": "101", "NODE_NAME": "동명동181-21", "TURN_P": "0", "UPDATEDATE": "20250512", "REMARK": null, "HIST_TYPE": "NODE0001", "HISTREMARK": null }, "geometry": { "type": "Point", "coordinates": [ 126.925840993030164, 35.152472846053172 ] } },
{ "type": "Feature", "properties": { "NODE_ID": "1750022703", "NODE_TYPE": "101", "NODE_NAME": "동명동181-21", "TURN_P": "0", "UPDATEDATE": "20250512", "REMARK": null, "HIST_TYPE": "NODE0001", "HISTREMARK": null }, "geometry": { "type": "Point", "coordinates": [ 126.925709296436267, 35.152472844691879 ] } },
{ "type": "Feature", "properties": { "NODE_ID": "1750022704", "NODE_TYPE": "101", "NODE_NAME": "동명동181-21", "TURN_P": "0", "UPDATEDATE": "20250512", "REMARK": null, "HIST_TYPE": "NODE0001", "HISTREMARK": null }, "geometry": { "type": "Point", "coordinates": [ 126.925709204376332, 35.152567643959664 ] } },
{ "type": "Feature", "properties": { "NODE_ID": "1750022701", "NODE_TYPE": "101", "NODE_NAME": "동명동181-21", "TURN_P": "0", "UPDATEDATE": "20250512", "REMARK": null, "HIST_TYPE": "NODE0001", "HISTREMARK": null }, "geometry": { "type": "Point", "coordinates": [ 126.925839159048806, 35.152585177739709 ] } },
{ "type": "Feature", "properties": { "NODE_ID": "1750011405", "NODE_TYPE": "101", "NODE_NAME": "세계카메라영화박물관", "TURN_P": "0", "UPDATEDATE": "20250512", "REMARK": null, "HIST_TYPE": "NODE0001", "HISTREMARK": null }, "geometry": { "type": "Point", "coordinates": [ 126.92426553936339, 35.152705302875511 ] } },
{ "type": "Feature", "properties": { "NODE_ID": "1750048100", "NODE_TYPE": "101", "NODE_NAME": "동명동 207-7", "TURN_P": "0", "UPDATEDATE": "20250512", "REMARK": null, "HIST_TYPE": "NODE0001", "HISTREMARK": null }, "geometry": { "type": "Point", "coordinates": [ 126.924342152500969, 35.15295060799734 ] } },
{ "type": "Feature", "properties": { "NODE_ID": "1750097500", "NODE_TYPE": "101", "NODE_NAME": "동명동 258", "TURN_P": "0", "UPDATEDATE": "20250512", "REMARK": null, "HIST_TYPE": "NODE0001", "HISTREMARK": null }, "geometry": { "type": "Point", "coordinates": [ 126.921623011115528, 35.154460661143197 ] } },
{ "type": "Feature", "properties": { "NODE_ID": "1750096000", "NODE_TYPE": "101", "NODE_NAME": "동명동 264-3", "TURN_P": "0", "UPDATEDATE": "20250512", "REMARK": null, "HIST_TYPE": "NODE0001", "HISTREMARK": null }, "geometry": { "type": "Point", "coordinates": [ 126.921688103649089, 35.154988561604263 ] } },
{ "type": "Feature", "properties": { "NODE_ID": "1750012103", "NODE_TYPE": "101", "NODE_NAME": "계림오거리", "TURN_P": "1", "UPDATEDATE": "20250512", "REMARK": null, "HIST_TYPE": "NODE0001", "HISTREMARK": null }, "geometry": { "type": "Point", "coordinates": [ 126.920615291787001, 35.154407936476773 ] } },
{ "type": "Feature", "properties": { "NODE_ID": "1750012104", "NODE_TYPE": "101", "NODE_NAME": "계림오거리", "TURN_P": "1", "UPDATEDATE": "20250512", "REMARK": null, "HIST_TYPE": "NODE0001", "HISTREMARK": null }, "geometry": { "type": "Point", "coordinates": [ 126.920506764307191, 35.154470120846092 ] } },
{ "type": "Feature", "properties": { "NODE_ID": "1750012102", "NODE_TYPE": "101", "NODE_NAME": "계림오거리", "TURN_P": "0", "UPDATEDATE": "20250512", "REMARK": null, "HIST_TYPE": "NODE0001", "HISTREMARK": null }, "geometry": { "type": "Point", "coordinates": [ 126.920825201953619, 35.154500558576423 ] } },
{ "type": "Feature", "properties": { "NODE_ID": "1750012101", "NODE_TYPE": "101", "NODE_NAME": "계림오거리", "TURN_P": "0", "UPDATEDATE": "20250512", "REMARK": null, "HIST_TYPE": "NODE0001", "HISTREMARK": null }, "geometry": { "type": "Point", "coordinates": [ 126.920752272614592, 35.154618137800576 ] } }
]
}
