{
"type": "FeatureCollection",
"name": "boundary",
"crs": { "type": "name", "properties": { "name": "urn:ogc:def:crs:OGC:1.3:CRS84" } },
"xy_coordinate_resolution": 1e-06,
"features": [
{ "type": "Feature", "properties": { "EMD_CD": "12210108", "EMD_ENG_NM": "Dongmyeong-dong", "EMD_KOR_NM": "동명동" }, "geometry": { "type": "Polygon", "coordinates": [ [ [ 126.921775, 35.155311 ], [ 126.921794, 35.155285 ], [ 126.921902, 35.155124 ], [ 126.92194, 35.155075 ], [ 126.922023, 35.154952 ], [ 126.922118, 35.154861 ], [ 126.922176, 35.154812 ], [ 126.922223, 35.154789 ], [ 126.922357, 35.154746 ], [ 126.922432, 35.154677 ], [ 126.922479, 35.154615 ], [ 126.922531, 35.154532 ], [ 126.922585, 35.154398 ], [ 126.922628, 35.154302 ], [ 126.922635, 35.15429 ], [ 126.922688, 35.154228 ], [ 126.922709, 35.154211 ], [ 126.922749, 35.154184 ], [ 126.922793, 35.154155 ], [ 126.922952, 35.154057 ], [ 126.92302, 35.154015 ], [ 126.923027, 35.154011 ], [ 126.923062, 35.153989 ], [ 126.923167, 35.153919 ], [ 126.923178, 35.153908 ], [ 126.923227, 35.153876 ], [ 126.92331, 35.153852 ], [ 126.923373, 35.153826 ], [ 126.923397, 35.153812 ], [ 126.923503, 35.153741 ], [ 126.92359, 35.153683 ], [ 126.923788, 35.153546 ], [ 126.923986, 35.153405 ], [ 126.92401, 35.153383 ], [ 126.924028, 35.153366 ], [ 126.924094, 35.153303 ], [ 126.9241, 35.153298 ], [ 126.924104, 35.153296 ], [ 126.924158, 35.153262 ], [ 126.924182, 35.153249 ], [ 126.924221, 35.153239 ], [ 126.924292, 35.153216 ], [ 126.924386, 35.153183 ], [ 126.924418, 35.153172 ], [ 126.924461, 35.153157 ], [ 126.924475, 35.153157 ], [ 126.924802, 35.153143 ], [ 126.924952, 35.153094 ], [ 126.92496, 35.153091 ], [ 126.924968, 35.153087 ], [ 126.925125, 35.153005 ], [ 126.925205, 35.152957 ], [ 126.925311, 35.152872 ], [ 126.925379, 35.15282 ], [ 126.925461, 35.152796 ], [ 126.925483, 35.152791 ], [ 126.925532, 35.152785 ], [ 126.925591, 35.152786 ], [ 126.92564, 35.152788 ], [ 126.925727, 35.152788 ], [ 126.925746, 35.152787 ], [ 126.925928, 35.152729 ], [ 126.926059, 35.152679 ], [ 126.926084, 35.152675 ], [ 126.926146, 35.152667 ], [ 126.926144, 35.152657 ], [ 126.926143, 35.152646 ], [ 126.926129, 35.152579 ], [ 126.926168, 35.152441 ], [ 126.926165, 35.152376 ], [ 126.926269, 35.152353 ], [ 126.926366, 35.152341 ], [ 126.926465, 35.152304 ], [ 126.926565, 35.152282 ], [ 126.926624, 35.152195 ], [ 126.926747, 35.152048 ], [ 126.926801, 35.151985 ], [ 126.926822, 35.151967 ], [ 126.926864, 35.15194 ], [ 126.926902, 35.151915 ], [ 126.926998, 35.15185 ], [ 126.927122, 35.151795 ], [ 126.927192, 35.151777 ], [ 126.927234, 35.151766 ], [ 126.927262, 35.151759 ], [ 126.927261, 35.151769 ], [ 126.92728, 35.151772 ], [ 126.927329, 35.151777 ], [ 126.927481, 35.151795 ], [ 126.927502, 35.151755 ], [ 126.927505, 35.15174 ], [ 126.927524, 35.151534 ], [ 126.927522, 35.151497 ], [ 126.927523, 35.151485 ], [ 126.927518, 35.1514 ], [ 126.927517, 35.15137 ], [ 126.927507, 35.151306 ], [ 126.927481, 35.151205 ], [ 126.927458, 35.151138 ], [ 126.927484, 35.151133 ], [ 126.927506, 35.151131 ], [ 126.927567, 35.151125 ], [ 126.927585, 35.151119 ], [ 126.927647, 35.151105 ], [ 126.927664, 35.151101 ], [ 126.927676, 35.151094 ], [ 126.927688, 35.151087 ], [ 126.927768, 35.151044 ], [ 126.927779, 35.151037 ], [ 126.927791, 35.151028 ], [ 126.927796, 35.151025 ], [ 126.927854, 35.150976 ], [ 126.927908, 35.150957 ], [ 126.928082, 35.150902 ], [ 126.928139, 35.150894 ], [ 126.92818, 35.15089 ], [ 126.92825, 35.150863 ], [ 126.928289, 35.150849 ], [ 126.92834, 35.15084 ], [ 126.928357, 35.150838 ], [ 126.928387, 35.150837 ], [ 126.928434, 35.150835 ], [ 126.928532, 35.150839 ], [ 126.928652, 35.15081 ], [ 126.928716, 35.150794 ], [ 126.92875, 35.150792 ], [ 126.928771, 35.150791 ], [ 126.928779, 35.150791 ], [ 126.928801, 35.15079 ], [ 126.928899, 35.150789 ], [ 126.92898, 35.150789 ], [ 126.929135, 35.150794 ], [ 126.92923, 35.150799 ], [ 126.929295, 35.150802 ], [ 126.929344, 35.150812 ], [ 126.929446, 35.150831 ], [ 126.929472, 35.150834 ], [ 126.929487, 35.150815 ], [ 126.929507, 35.150823 ], [ 126.929505, 35.150808 ], [ 126.929485, 35.150799 ], [ 126.929433, 35.15075 ], [ 126.929429, 35.150747 ], [ 126.929527, 35.150671 ], [ 126.929571, 35.150636 ], [ 126.929688, 35.150582 ], [ 126.929743, 35.150557 ], [ 126.929819, 35.150528 ], [ 126.930014, 35.150456 ], [ 126.929944, 35.150313 ], [ 126.929856, 35.150288 ], [ 126.92969, 35.150293 ], [ 126.929664, 35.150208 ], [ 126.929654, 35.150171 ], [ 126.929732, 35.150106 ], [ 126.929849, 35.150081 ], [ 126.929871, 35.150077 ], [ 126.930039, 35.150142 ], [ 126.930062, 35.150146 ], [ 126.930092, 35.150154 ], [ 126.930104, 35.150155 ], [ 126.93012, 35.150158 ], [ 126.930167, 35.150164 ], [ 126.930331, 35.150154 ], [ 126.930335, 35.150154 ], [ 126.930427, 35.150148 ], [ 126.930432, 35.150148 ], [ 126.930437, 35.150147 ], [ 126.930451, 35.150146 ], [ 126.930514, 35.150142 ], [ 126.93052, 35.150141 ], [ 126.930539, 35.150136 ], [ 126.930591, 35.150122 ], [ 126.930715, 35.150087 ], [ 126.930776, 35.150073 ], [ 126.930809, 35.150063 ], [ 126.930854, 35.150042 ], [ 126.930884, 35.150026 ], [ 126.930909, 35.150013 ], [ 126.930944, 35.149993 ], [ 126.930951, 35.14999 ], [ 126.930955, 35.149992 ], [ 126.930972, 35.149985 ], [ 126.930971, 35.149971 ], [ 126.930968, 35.149918 ], [ 126.93096, 35.149839 ], [ 126.930937, 35.149664 ], [ 126.930855, 35.149561 ], [ 126.930788, 35.14946 ], [ 126.930735, 35.149413 ], [ 126.930671, 35.149302 ], [ 126.930659, 35.149207 ], [ 126.930643, 35.149181 ], [ 126.930622, 35.149147 ], [ 126.930595, 35.149102 ], [ 126.930566, 35.14906 ], [ 126.930556, 35.14905 ], [ 126.930509, 35.14893 ], [ 126.930508, 35.148926 ], [ 126.930419, 35.148905 ], [ 126.930357, 35.148892 ], [ 126.930304, 35.14888 ], [ 126.930275, 35.148867 ], [ 126.93026, 35.148743 ], [ 126.930209, 35.148508 ], [ 126.930175, 35.148347 ], [ 126.930175, 35.148276 ], [ 126.930153, 35.148149 ], [ 126.930138, 35.14806 ], [ 126.930127, 35.147999 ], [ 126.930105, 35.147914 ], [ 126.930081, 35.147849 ], [ 126.929991, 35.147711 ], [ 126.929988, 35.147708 ], [ 126.929939, 35.147657 ], [ 126.929914, 35.147608 ], [ 126.929905, 35.14759 ], [ 126.929897, 35.147547 ], [ 126.929885, 35.147502 ], [ 126.929882, 35.147494 ], [ 126.929868, 35.147456 ], [ 126.929845, 35.147419 ], [ 126.929812, 35.147366 ], [ 126.929804, 35.147341 ], [ 126.929803, 35.147339 ], [ 126.9297, 35.147291 ], [ 126.929584, 35.147232 ], [ 126.929479, 35.147193 ], [ 126.929408, 35.147162 ], [ 126.929143, 35.147059 ], [ 126.929057, 35.147042 ], [ 126.929006, 35.147015 ], [ 126.928922, 35.146969 ], [ 126.928866, 35.146925 ], [ 126.928845, 35.146895 ], [ 126.928791, 35.14686 ], [ 126.928567, 35.146756 ], [ 126.928508, 35.146737 ], [ 126.928422, 35.146697 ], [ 126.928306, 35.14662 ], [ 126.928223, 35.146565 ], [ 126.928062, 35.146485 ], [ 126.927952, 35.146423 ], [ 126.927876, 35.146369 ], [ 126.927791, 35.146295 ], [ 126.927655, 35.14621 ], [ 126.92761, 35.146172 ], [ 126.927573, 35.146131 ], [ 126.927557, 35.14611 ], [ 126.927525, 35.14607 ], [ 126.927501, 35.146039 ], [ 126.927444, 35.14599 ], [ 126.927423, 35.145969 ], [ 126.927343, 35.146061 ], [ 126.927299, 35.146111 ], [ 126.927029, 35.146343 ], [ 126.926961, 35.146399 ], [ 126.926936, 35.146419 ], [ 126.926847, 35.146488 ], [ 126.926788, 35.146534 ], [ 126.926738, 35.14656 ], [ 126.926663, 35.14661 ], [ 126.926585, 35.146662 ], [ 126.926498, 35.146751 ], [ 126.926371, 35.146831 ], [ 126.926238, 35.146915 ], [ 126.92617, 35.146957 ], [ 126.926136, 35.146981 ], [ 126.926117, 35.146995 ], [ 126.926104, 35.147004 ], [ 126.926052, 35.147033 ], [ 126.926041, 35.147039 ], [ 126.926033, 35.147045 ], [ 126.925646, 35.14736 ], [ 126.925517, 35.147468 ], [ 126.925343, 35.147619 ], [ 126.925323, 35.147636 ], [ 126.925314, 35.147645 ], [ 126.925307, 35.14765 ], [ 126.925227, 35.147703 ], [ 126.92521, 35.147716 ], [ 126.925193, 35.147736 ], [ 126.925153, 35.1478 ], [ 126.925151, 35.147802 ], [ 126.925062, 35.147903 ], [ 126.925048, 35.147919 ], [ 126.925024, 35.147947 ], [ 126.924981, 35.148001 ], [ 126.924966, 35.148024 ], [ 126.924946, 35.148063 ], [ 126.924945, 35.148066 ], [ 126.924897, 35.148057 ], [ 126.924833, 35.148045 ], [ 126.924649, 35.148043 ], [ 126.924622, 35.148043 ], [ 126.924577, 35.148046 ], [ 126.924524, 35.14805 ], [ 126.92444, 35.148081 ], [ 126.924425, 35.148086 ], [ 126.924409, 35.148093 ], [ 126.924406, 35.148094 ], [ 126.924409, 35.148095 ], [ 126.924421, 35.148096 ], [ 126.924431, 35.148096 ], [ 126.924446, 35.148107 ], [ 126.924445, 35.148111 ], [ 126.92444, 35.148124 ], [ 126.924528, 35.148213 ], [ 126.924607, 35.148293 ], [ 126.924612, 35.148298 ], [ 126.924682, 35.148369 ], [ 126.924736, 35.148424 ], [ 126.924766, 35.148454 ], [ 126.924826, 35.148515 ], [ 126.924885, 35.148531 ], [ 126.924882, 35.148578 ], [ 126.924875, 35.148681 ], [ 126.924874, 35.148704 ], [ 126.924879, 35.148768 ], [ 126.924883, 35.148784 ], [ 126.924895, 35.148817 ], [ 126.924904, 35.148845 ], [ 126.924903, 35.148847 ], [ 126.92491, 35.148861 ], [ 126.924918, 35.148881 ], [ 126.924918, 35.148886 ], [ 126.924915, 35.148891 ], [ 126.924852, 35.148969 ], [ 126.924767, 35.149057 ], [ 126.924667, 35.149132 ], [ 126.924585, 35.149168 ], [ 126.924411, 35.149319 ], [ 126.924292, 35.149397 ], [ 126.924227, 35.149454 ], [ 126.924159, 35.149513 ], [ 126.924065, 35.149597 ], [ 126.923989, 35.149663 ], [ 126.923928, 35.149713 ], [ 126.923703, 35.149841 ], [ 126.923562, 35.149922 ], [ 126.923409, 35.150009 ], [ 126.923315, 35.150062 ], [ 126.923261, 35.150138 ], [ 126.923207, 35.150214 ], [ 126.923119, 35.150297 ], [ 126.923019, 35.150393 ], [ 126.922901, 35.150471 ], [ 126.922789, 35.150546 ], [ 126.92267, 35.150644 ], [ 126.922522, 35.150811 ], [ 126.922438, 35.150906 ], [ 126.922268, 35.151074 ], [ 126.922119, 35.151233 ], [ 126.921642, 35.15138 ], [ 126.921478, 35.15142 ], [ 126.921343, 35.151514 ], [ 126.921244, 35.151651 ], [ 126.921157, 35.151752 ], [ 126.921117, 35.1518 ], [ 126.921029, 35.151905 ], [ 126.920999, 35.151925 ], [ 126.92094, 35.151966 ], [ 126.920903, 35.151993 ], [ 126.920807, 35.152059 ], [ 126.920668, 35.152128 ], [ 126.920526, 35.152256 ], [ 126.92045, 35.152324 ], [ 126.920405, 35.152382 ], [ 126.920337, 35.152465 ], [ 126.920046, 35.152691 ], [ 126.919873, 35.152755 ], [ 126.919746, 35.152801 ], [ 126.919652, 35.152866 ], [ 126.91959, 35.152907 ], [ 126.919486, 35.152976 ], [ 126.919435, 35.153028 ], [ 126.919406, 35.153057 ], [ 126.919397, 35.153065 ], [ 126.919366, 35.153099 ], [ 126.919258, 35.153212 ], [ 126.919253, 35.153218 ], [ 126.919263, 35.153225 ], [ 126.919823, 35.153675 ], [ 126.919874, 35.153726 ], [ 126.920181, 35.154091 ], [ 126.920245, 35.154146 ], [ 126.920337, 35.154274 ], [ 126.920402, 35.154366 ], [ 126.920469, 35.154489 ], [ 126.920488, 35.154504 ], [ 126.920523, 35.154524 ], [ 126.920596, 35.154561 ], [ 126.920646, 35.154582 ], [ 126.920675, 35.154591 ], [ 126.920704, 35.154599 ], [ 126.920753, 35.15462 ], [ 126.920762, 35.154626 ], [ 126.920782, 35.15464 ], [ 126.920809, 35.154663 ], [ 126.920824, 35.154677 ], [ 126.920854, 35.154719 ], [ 126.920913, 35.154798 ], [ 126.920922, 35.154809 ], [ 126.920924, 35.154812 ], [ 126.920942, 35.154816 ], [ 126.920961, 35.154821 ], [ 126.921017, 35.154835 ], [ 126.921035, 35.154839 ], [ 126.921097, 35.154855 ], [ 126.921153, 35.154871 ], [ 126.921179, 35.154883 ], [ 126.921228, 35.154923 ], [ 126.921254, 35.154946 ], [ 126.921265, 35.154954 ], [ 126.921326, 35.155002 ], [ 126.921356, 35.155014 ], [ 126.921375, 35.155022 ], [ 126.921399, 35.155037 ], [ 126.921411, 35.155044 ], [ 126.92142, 35.155052 ], [ 126.921434, 35.155069 ], [ 126.92146, 35.155106 ], [ 126.921487, 35.155142 ], [ 126.921499, 35.155156 ], [ 126.921506, 35.155165 ], [ 126.921522, 35.155182 ], [ 126.92154, 35.155203 ], [ 126.921543, 35.155206 ], [ 126.921549, 35.155212 ], [ 126.921562, 35.155223 ], [ 126.921572, 35.155233 ], [ 126.921589, 35.155244 ], [ 126.921592, 35.155246 ], [ 126.921673, 35.155284 ], [ 126.921721, 35.1553 ], [ 126.921743, 35.155307 ], [ 126.92175, 35.15531 ], [ 126.921775, 35.155311 ] ] ] } }
]
}
