{
"type": "FeatureCollection",
"name": "cctv",
"crs": { "type": "name", "properties": { "name": "urn:ogc:def:crs:OGC:1.3:CRS84" } },
"xy_coordinate_resolution": 1e-06,
"features": [
{ "type": "Feature", "properties": { "관리기관명": "광주광역시 사회재난과", "소재지도로명주소": null, "카메라대수": 3, "카메라화소": "200만", "촬영방면": "360도", "최초설치": 2022, "최근설치": 2024, "설치회차": 3, "z": 6.4 }, "geometry": { "type": "Point", "coordinates": [ 126.912162, 35.155541 ] } },
{ "type": "Feature", "properties": { "관리기관명": "광주광역시 사회재난과", "소재지도로명주소": "북구 문산로 4", "카메라대수": 4, "카메라화소": "200만", "촬영방면": "360도", "최초설치": 2020, "최근설치": 2020, "설치회차": 1, "z": 6.5 }, "geometry": { "type": "Point", "coordinates": [ 126.912452, 35.153922 ] } },
{ "type": "Feature", "properties": { "관리기관명": "광주광역시 사회재난과", "소재지도로명주소": "동구 독립로264번길 15", "카메라대수": 4, "카메라화소": "200만", "촬영방면": "360도", "최초설치": 2020, "최근설치": 2023, "설치회차": 2, "z": 6.5 }, "geometry": { "type": "Point", "coordinates": [ 126.912495, 35.153933 ] } },
{ "type": "Feature", "properties": { "관리기관명": "광주광역시 사회재난과", "소재지도로명주소": "동구 금남로169번길 6-6", "카메라대수": 4, "카메라화소": "200만", "촬영방면": "360도", "최초설치": 2022, "최근설치": 2022, "설치회차": 1, "z": 7.3 }, "geometry": { "type": "Point", "coordinates": [ 126.91265, 35.152953 ] } },
{ "type": "Feature", "properties": { "관리기관명": "광주광역시 사회재난과", "소재지도로명주소": "동구 구성로 183-1", "카메라대수": 2, "카메라화소": "200만", "촬영방면": "360도", "최초설치": 2017, "최근설치": 2017, "설치회차": 1, "z": 8.0 }, "geometry": { "type": "Point", "coordinates": [ 126.913067, 35.152338 ] } },
{ "type": "Feature", "properties": { "관리기관명": "광주광역시 사회재난과", "소재지도로명주소": "동구 제봉로213번길 14-1", "카메라대수": 3, "카메라화소": "200만", "촬영방면": "360도", "최초설치": 2025, "최근설치": 2025, "설치회차": 1, "z": 6.6 }, "geometry": { "type": "Point", "coordinates": [ 126.913164, 35.153777 ] } },
{ "type": "Feature", "properties": { "관리기관명": "광주광역시 사회재난과", "소재지도로명주소": "동구 독립로 282-2", "카메라대수": 2, "카메라화소": "200만", "촬영방면": "360도", "최초설치": 2024, "최근설치": 2024, "설치회차": 1, "z": 7.3 }, "geometry": { "type": "Point", "coordinates": [ 126.913232, 35.155899 ] } },
{ "type": "Feature", "properties": { "관리기관명": "광주광역시 사회재난과", "소재지도로명주소": "동구 제봉로222번길 1", "카메라대수": 4, "카메라화소": "200만", "촬영방면": "360도", "최초설치": 2025, "최근설치": 2025, "설치회차": 1, "z": 7.3 }, "geometry": { "type": "Point", "coordinates": [ 126.913642, 35.155053 ] } },
{ "type": "Feature", "properties": { "관리기관명": "광주광역시 사회재난과", "소재지도로명주소": "동구 동계천로6번길 9", "카메라대수": 3, "카메라화소": "200만", "촬영방면": "360도", "최초설치": 2022, "최근설치": 2024, "설치회차": 2, "z": 7.5 }, "geometry": { "type": "Point", "coordinates": [ 126.913659, 35.155684 ] } },
{ "type": "Feature", "properties": { "관리기관명": "광주광역시 사회재난과", "소재지도로명주소": "동구 제봉로222번길 9-1", "카메라대수": 2, "카메라화소": "200만", "촬영방면": "360도", "최초설치": 2025, "최근설치": 2025, "설치회차": 1, "z": 7.9 }, "geometry": { "type": "Point", "coordinates": [ 126.914317, 35.155641 ] } },
{ "type": "Feature", "properties": { "관리기관명": "광주광역시 사회재난과", "소재지도로명주소": "동구 구성로194번길 5-13", "카메라대수": 2, "카메라화소": "200만", "촬영방면": "360도", "최초설치": 2017, "최근설치": 2024, "설치회차": 2, "z": 8.4 }, "geometry": { "type": "Point", "coordinates": [ 126.91466, 35.152898 ] } },
{ "type": "Feature", "properties": { "관리기관명": "광주광역시 사회재난과", "소재지도로명주소": "동구 경양로 234", "카메라대수": 1, "카메라화소": "200만", "촬영방면": "360도", "최초설치": 2021, "최근설치": 2021, "설치회차": 1, "z": 7.8 }, "geometry": { "type": "Point", "coordinates": [ 126.914753, 35.155955 ] } },
{ "type": "Feature", "properties": { "관리기관명": "광주광역시 사회재난과", "소재지도로명주소": "동구 제봉로212번길 2", "카메라대수": 3, "카메라화소": "200만", "촬영방면": "360도", "최초설치": 2018, "최근설치": 2023, "설치회차": 3, "z": 8.6 }, "geometry": { "type": "Point", "coordinates": [ 126.915051, 35.15459 ] } },
{ "type": "Feature", "properties": { "관리기관명": "광주광역시 사회재난과", "소재지도로명주소": "동구 제봉로 208", "카메라대수": 4, "카메라화소": "200만", "촬영방면": "360도", "최초설치": 2021, "최근설치": 2021, "설치회차": 2, "z": 8.7 }, "geometry": { "type": "Point", "coordinates": [ 126.915089, 35.154078 ] } },
{ "type": "Feature", "properties": { "관리기관명": "광주광역시 사회재난과", "소재지도로명주소": "동구 동계천로 26   ", "카메라대수": 2, "카메라화소": "200만", "촬영방면": "360도", "최초설치": 2020, "최근설치": 2020, "설치회차": 2, "z": 7.8 }, "geometry": { "type": "Point", "coordinates": [ 126.915145, 35.155538 ] } },
{ "type": "Feature", "properties": { "관리기관명": "광주광역시 사회재난과", "소재지도로명주소": "동구 구성로194번길 15-21", "카메라대수": 4, "카메라화소": "200만", "촬영방면": "360도", "최초설치": 2017, "최근설치": 2019, "설치회차": 2, "z": 8.9 }, "geometry": { "type": "Point", "coordinates": [ 126.915862, 35.152549 ] } },
{ "type": "Feature", "properties": { "관리기관명": "광주광역시 사회재난과", "소재지도로명주소": "동구 구성로 221-1", "카메라대수": 2, "카메라화소": "200만", "촬영방면": "360도", "최초설치": 2021, "최근설치": 2021, "설치회차": 2, "z": 8.8 }, "geometry": { "type": "Point", "coordinates": [ 126.916136, 35.154892 ] } },
{ "type": "Feature", "properties": { "관리기관명": "광주광역시 사회재난과", "소재지도로명주소": "동구 제봉로 191-1", "카메라대수": 1, "카메라화소": "200만", "촬영방면": "360도", "최초설치": 2023, "최근설치": 2023, "설치회차": 1, "z": 8.8 }, "geometry": { "type": "Point", "coordinates": [ 126.916196, 35.15317 ] } },
{ "type": "Feature", "properties": { "관리기관명": "광주광역시 사회재난과", "소재지도로명주소": "동구 제봉로 171", "카메라대수": 2, "카메라화소": "200만", "촬영방면": "360도", "최초설치": 2019, "최근설치": 2024, "설치회차": 2, "z": 9.8 }, "geometry": { "type": "Point", "coordinates": [ 126.917918, 35.15195 ] } },
{ "type": "Feature", "properties": { "관리기관명": "광주광역시 사회재난과", "소재지도로명주소": "동구 제봉로 167", "카메라대수": 4, "카메라화소": "200만", "촬영방면": "360도", "최초설치": 2013, "최근설치": 2013, "설치회차": 1, "z": 10.4 }, "geometry": { "type": "Point", "coordinates": [ 126.91841, 35.151344 ] } },
{ "type": "Feature", "properties": { "관리기관명": "광주광역시 사회재난과", "소재지도로명주소": "동구 구성로238번길 26", "카메라대수": 4, "카메라화소": "200만", "촬영방면": "360도", "최초설치": 2024, "최근설치": 2024, "설치회차": 1, "z": 8.8 }, "geometry": { "type": "Point", "coordinates": [ 126.91922, 35.154452 ] } },
{ "type": "Feature", "properties": { "관리기관명": "광주광역시 사회재난과", "소재지도로명주소": "동구 동계천로 85", "카메라대수": 4, "카메라화소": "200만", "촬영방면": "360도", "최초설치": 2018, "최근설치": 2024, "설치회차": 4, "z": 11.4 }, "geometry": { "type": "Point", "coordinates": [ 126.920345, 35.152207 ] } },
{ "type": "Feature", "properties": { "관리기관명": "광주광역시 사회재난과", "소재지도로명주소": "동구 중앙로246번길 5", "카메라대수": 4, "카메라화소": "200만", "촬영방면": "360도", "최초설치": 2024, "최근설치": 2024, "설치회차": 1, "z": 10.7 }, "geometry": { "type": "Point", "coordinates": [ 126.920369, 35.153392 ] } },
{ "type": "Feature", "properties": { "관리기관명": "광주광역시 사회재난과", "소재지도로명주소": "동구 동계천로95번길 31-14", "카메라대수": 3, "카메라화소": "200만", "촬영방면": "360도", "최초설치": 2019, "최근설치": 2019, "설치회차": 1, "z": 10.4 }, "geometry": { "type": "Point", "coordinates": [ 126.921119, 35.153688 ] } },
{ "type": "Feature", "properties": { "관리기관명": "광주광역시 사회재난과", "소재지도로명주소": "동구 중앙로 264-7", "카메라대수": 3, "카메라화소": "200만", "촬영방면": "360도", "최초설치": 2018, "최근설치": 2024, "설치회차": 3, "z": 10.0 }, "geometry": { "type": "Point", "coordinates": [ 126.921223, 35.15531 ] } },
{ "type": "Feature", "properties": { "관리기관명": "광주광역시 사회재난과", "소재지도로명주소": "동구 동계천로85번길 6-12", "카메라대수": 2, "카메라화소": "200만", "촬영방면": "360도", "최초설치": 2024, "최근설치": 2024, "설치회차": 1, "z": 12.4 }, "geometry": { "type": "Point", "coordinates": [ 126.921251, 35.152281 ] } },
{ "type": "Feature", "properties": { "관리기관명": "광주광역시 사회재난과", "소재지도로명주소": "동구 동계천로95번길 31", "카메라대수": 4, "카메라화소": "200만", "촬영방면": "360도", "최초설치": 2021, "최근설치": 2024, "설치회차": 3, "z": 10.6 }, "geometry": { "type": "Point", "coordinates": [ 126.921522, 35.153979 ] } },
{ "type": "Feature", "properties": { "관리기관명": "광주광역시 사회재난과", "소재지도로명주소": "동구 동계천로95번길 22-2", "카메라대수": 4, "카메라화소": "200만", "촬영방면": "360도", "최초설치": 2018, "최근설치": 2018, "설치회차": 1, "z": 11.2 }, "geometry": { "type": "Point", "coordinates": [ 126.921883, 35.153287 ] } },
{ "type": "Feature", "properties": { "관리기관명": "광주광역시 사회재난과", "소재지도로명주소": "동구 제봉로138번길 8-1", "카메라대수": 3, "카메라화소": "200만", "촬영방면": "360도", "최초설치": 2022, "최근설치": 2025, "설치회차": 2, "z": 13.8 }, "geometry": { "type": "Point", "coordinates": [ 126.921918, 35.150463 ] } },
{ "type": "Feature", "properties": { "관리기관명": "광주광역시 사회재난과", "소재지도로명주소": "동구 제봉로140번길 14", "카메라대수": 4, "카메라화소": "200만", "촬영방면": "360도", "최초설치": 2022, "최근설치": 2022, "설치회차": 1, "z": 13.7 }, "geometry": { "type": "Point", "coordinates": [ 126.922119, 35.151203 ] } },
{ "type": "Feature", "properties": { "관리기관명": "광주광역시 사회재난과", "소재지도로명주소": "동구 동계천로95번길 22-8", "카메라대수": 2, "카메라화소": "200만", "촬영방면": "360도", "최초설치": 2016, "최근설치": 2018, "설치회차": 2, "z": 11.2 }, "geometry": { "type": "Point", "coordinates": [ 126.922126, 35.153359 ] } },
{ "type": "Feature", "properties": { "관리기관명": "광주광역시 사회재난과", "소재지도로명주소": "동구 동계천로95번길 9", "카메라대수": 3, "카메라화소": "200만", "촬영방면": "360도", "최초설치": 2022, "최근설치": 2022, "설치회차": 1, "z": 12.7 }, "geometry": { "type": "Point", "coordinates": [ 126.922136, 35.152214 ] } },
{ "type": "Feature", "properties": { "관리기관명": "광주광역시 사회재난과", "소재지도로명주소": "동구 장동로 4-3", "카메라대수": 2, "카메라화소": "200만", "촬영방면": "360도", "최초설치": 2018, "최근설치": 2018, "설치회차": 1, "z": 14.4 }, "geometry": { "type": "Point", "coordinates": [ 126.922361, 35.148973 ] } },
{ "type": "Feature", "properties": { "관리기관명": "광주광역시 사회재난과", "소재지도로명주소": "동구 동계로9번길 13", "카메라대수": 4, "카메라화소": "200만", "촬영방면": "360도", "최초설치": 2018, "최근설치": 2024, "설치회차": 2, "z": 12.1 }, "geometry": { "type": "Point", "coordinates": [ 126.922411, 35.152972 ] } },
{ "type": "Feature", "properties": { "관리기관명": "광주광역시 사회재난과", "소재지도로명주소": null, "카메라대수": 3, "카메라화소": "200만", "촬영방면": "360도", "최초설치": 2024, "최근설치": 2024, "설치회차": 1, "z": 13.1 }, "geometry": { "type": "Point", "coordinates": [ 126.922729, 35.154942 ] } },
{ "type": "Feature", "properties": { "관리기관명": "광주광역시 사회재난과", "소재지도로명주소": "동구 동계로1번길 9", "카메라대수": 4, "카메라화소": "200만", "촬영방면": "360도", "최초설치": 2016, "최근설치": 2019, "설치회차": 2, "z": 15.5 }, "geometry": { "type": "Point", "coordinates": [ 126.923055, 35.152029 ] } },
{ "type": "Feature", "properties": { "관리기관명": "광주광역시 사회재난과", "소재지도로명주소": "동구 동명로 12", "카메라대수": 4, "카메라화소": "200만", "촬영방면": "360도", "최초설치": 2023, "최근설치": 2023, "설치회차": 2, "z": 16.1 }, "geometry": { "type": "Point", "coordinates": [ 126.9231, 35.150238 ] } },
{ "type": "Feature", "properties": { "관리기관명": "광주광역시 사회재난과", "소재지도로명주소": null, "카메라대수": 2, "카메라화소": "200만", "촬영방면": "360도", "최초설치": 2021, "최근설치": 2024, "설치회차": 2, "z": 13.6 }, "geometry": { "type": "Point", "coordinates": [ 126.923167, 35.154907 ] } },
{ "type": "Feature", "properties": { "관리기관명": "광주광역시 사회재난과", "소재지도로명주소": "동구 동계로13번길 11", "카메라대수": 3, "카메라화소": "200만", "촬영방면": "360도", "최초설치": 2019, "최근설치": 2019, "설치회차": 1, "z": 13.0 }, "geometry": { "type": "Point", "coordinates": [ 126.923193, 35.15321 ] } },
{ "type": "Feature", "properties": { "관리기관명": "광주광역시 사회재난과", "소재지도로명주소": "동구 동계로15번길 14", "카메라대수": 3, "카메라화소": "200만", "촬영방면": "360도", "최초설치": 2019, "최근설치": 2019, "설치회차": 1, "z": 12.5 }, "geometry": { "type": "Point", "coordinates": [ 126.923284, 35.15393 ] } },
{ "type": "Feature", "properties": { "관리기관명": "광주광역시 사회재난과", "소재지도로명주소": "동구 제봉로110번길 10", "카메라대수": 4, "카메라화소": "200만", "촬영방면": "360도", "최초설치": 2021, "최근설치": 2021, "설치회차": 2, "z": 15.6 }, "geometry": { "type": "Point", "coordinates": [ 126.923315, 35.148829 ] } },
{ "type": "Feature", "properties": { "관리기관명": "광주광역시 사회재난과", "소재지도로명주소": "동구 동명로 19", "카메라대수": 3, "카메라화소": "200만", "촬영방면": "360도", "최초설치": 2018, "최근설치": 2024, "설치회차": 2, "z": 16.9 }, "geometry": { "type": "Point", "coordinates": [ 126.923425, 35.150842 ] } },
{ "type": "Feature", "properties": { "관리기관명": "광주광역시 사회재난과", "소재지도로명주소": "동구 경양로321번길 8-1", "카메라대수": 3, "카메라화소": "200만", "촬영방면": "360도", "최초설치": 2022, "최근설치": 2022, "설치회차": 1, "z": 15.1 }, "geometry": { "type": "Point", "coordinates": [ 126.923847, 35.15465 ] } },
{ "type": "Feature", "properties": { "관리기관명": "광주광역시 사회재난과", "소재지도로명주소": "동구 동계로 7", "카메라대수": 4, "카메라화소": "200만", "촬영방면": "360도", "최초설치": 2013, "최근설치": 2017, "설치회차": 3, "z": 14.0 }, "geometry": { "type": "Point", "coordinates": [ 126.924103, 35.152539 ] } },
{ "type": "Feature", "properties": { "관리기관명": "광주광역시 사회재난과", "소재지도로명주소": "동구 동계로 33", "카메라대수": 2, "카메라화소": "200만", "촬영방면": "360도", "최초설치": 2024, "최근설치": 2024, "설치회차": 1, "z": 15.5 }, "geometry": { "type": "Point", "coordinates": [ 126.924294, 35.154535 ] } },
{ "type": "Feature", "properties": { "관리기관명": "광주광역시 사회재난과", "소재지도로명주소": "동구 동명로20번길 9", "카메라대수": 4, "카메라화소": "200만", "촬영방면": "360도", "최초설치": 2019, "최근설치": 2020, "설치회차": 2, "z": 18.9 }, "geometry": { "type": "Point", "coordinates": [ 126.92465, 35.15061 ] } },
{ "type": "Feature", "properties": { "관리기관명": "광주광역시 사회재난과", "소재지도로명주소": "동구 장동로 23-16", "카메라대수": 3, "카메라화소": "200만", "촬영방면": "360도", "최초설치": 2021, "최근설치": 2021, "설치회차": 2, "z": 18.3 }, "geometry": { "type": "Point", "coordinates": [ 126.925057, 35.148828 ] } },
{ "type": "Feature", "properties": { "관리기관명": "광주광역시 사회재난과", "소재지도로명주소": "동구 동계로12번길 11-1", "카메라대수": 3, "카메라화소": "200만", "촬영방면": "360도", "최초설치": 2019, "최근설치": 2019, "설치회차": 1, "z": 14.0 }, "geometry": { "type": "Point", "coordinates": [ 126.925544, 35.152983 ] } },
{ "type": "Feature", "properties": { "관리기관명": "광주광역시 사회재난과", "소재지도로명주소": null, "카메라대수": 3, "카메라화소": "200만", "촬영방면": "360도", "최초설치": 2019, "최근설치": 2024, "설치회차": 3, "z": 14.3 }, "geometry": { "type": "Point", "coordinates": [ 126.925749, 35.152596 ] } },
{ "type": "Feature", "properties": { "관리기관명": "광주광역시 사회재난과", "소재지도로명주소": "동구 동계천로 159-11", "카메라대수": 4, "카메라화소": "200만", "촬영방면": "360도", "최초설치": 2019, "최근설치": 2019, "설치회차": 1, "z": 22.6 }, "geometry": { "type": "Point", "coordinates": [ 126.926351, 35.149821 ] } },
{ "type": "Feature", "properties": { "관리기관명": "광주광역시 사회재난과", "소재지도로명주소": "동구 경양로 340", "카메라대수": 3, "카메라화소": "200만", "촬영방면": "360도", "최초설치": 2019, "최근설치": 2019, "설치회차": 1, "z": 18.7 }, "geometry": { "type": "Point", "coordinates": [ 126.926381, 35.153846 ] } },
{ "type": "Feature", "properties": { "관리기관명": "광주광역시 사회재난과", "소재지도로명주소": "동구 장동로43번길 10", "카메라대수": 2, "카메라화소": "200만", "촬영방면": "360도", "최초설치": 2023, "최근설치": 2023, "설치회차": 1, "z": 20.2 }, "geometry": { "type": "Point", "coordinates": [ 126.926428, 35.148349 ] } },
{ "type": "Feature", "properties": { "관리기관명": "광주광역시 사회재난과", "소재지도로명주소": "동구 백서로 219", "카메라대수": 3, "카메라화소": "200만", "촬영방면": "360도", "최초설치": 2023, "최근설치": 2023, "설치회차": 2, "z": 20.2 }, "geometry": { "type": "Point", "coordinates": [ 126.926459, 35.14736 ] } },
{ "type": "Feature", "properties": { "관리기관명": "광주광역시 사회재난과", "소재지도로명주소": "동구 동계로67번길 20", "카메라대수": 4, "카메라화소": "200만", "촬영방면": "360도", "최초설치": 2019, "최근설치": 2019, "설치회차": 1, "z": 15.4 }, "geometry": { "type": "Point", "coordinates": [ 126.92662, 35.152746 ] } },
{ "type": "Feature", "properties": { "관리기관명": "광주광역시 사회재난과", "소재지도로명주소": "동구 백서로224번길 2", "카메라대수": 3, "카메라화소": "200만", "촬영방면": "360도", "최초설치": 2018, "최근설치": 2023, "설치회차": 3, "z": 20.6 }, "geometry": { "type": "Point", "coordinates": [ 126.926693, 35.147724 ] } },
{ "type": "Feature", "properties": { "관리기관명": "광주광역시 사회재난과", "소재지도로명주소": "동구 동명로 63-26", "카메라대수": 2, "카메라화소": "200만", "촬영방면": "360도", "최초설치": 2026, "최근설치": 2026, "설치회차": 1, "z": 18.4 }, "geometry": { "type": "Point", "coordinates": [ 126.926713, 35.152081 ] } },
{ "type": "Feature", "properties": { "관리기관명": "광주광역시 사회재난과", "소재지도로명주소": "동구 동계천로 162", "카메라대수": 4, "카메라화소": "200만", "촬영방면": "360도", "최초설치": 2023, "최근설치": 2023, "설치회차": 2, "z": 21.6 }, "geometry": { "type": "Point", "coordinates": [ 126.926774, 35.149109 ] } },
{ "type": "Feature", "properties": { "관리기관명": "광주광역시 사회재난과", "소재지도로명주소": "동구 동명로 63-14", "카메라대수": 2, "카메라화소": "200만", "촬영방면": "360도", "최초설치": 2026, "최근설치": 2026, "설치회차": 1, "z": 19.2 }, "geometry": { "type": "Point", "coordinates": [ 126.926914, 35.151955 ] } },
{ "type": "Feature", "properties": { "관리기관명": "광주광역시 사회재난과", "소재지도로명주소": null, "카메라대수": 3, "카메라화소": "200만", "촬영방면": "360도", "최초설치": 2019, "최근설치": 2020, "설치회차": 2, "z": 24.3 }, "geometry": { "type": "Point", "coordinates": [ 126.926929, 35.150289 ] } },
{ "type": "Feature", "properties": { "관리기관명": "광주광역시 사회재난과", "소재지도로명주소": "동구 동명로67번길 22-44", "카메라대수": 4, "카메라화소": "200만", "촬영방면": "360도", "최초설치": 2017, "최근설치": 2024, "설치회차": 3, "z": 18.3 }, "geometry": { "type": "Point", "coordinates": [ 126.926976, 35.153705 ] } },
{ "type": "Feature", "properties": { "관리기관명": "광주광역시 사회재난과", "소재지도로명주소": null, "카메라대수": 3, "카메라화소": "200만", "촬영방면": "360도", "최초설치": 2017, "최근설치": 2020, "설치회차": 2, "z": 17.0 }, "geometry": { "type": "Point", "coordinates": [ 126.927101, 35.153211 ] } },
{ "type": "Feature", "properties": { "관리기관명": "광주광역시 사회재난과", "소재지도로명주소": "동구 동명로69번길 20", "카메라대수": 2, "카메라화소": "200만", "촬영방면": "360도", "최초설치": 2017, "최근설치": 2017, "설치회차": 1, "z": 17.5 }, "geometry": { "type": "Point", "coordinates": [ 126.927512, 35.153167 ] } },
{ "type": "Feature", "properties": { "관리기관명": "광주광역시 사회재난과", "소재지도로명주소": null, "카메라대수": 3, "카메라화소": "200만", "촬영방면": "360도", "최초설치": 2018, "최근설치": 2024, "설치회차": 2, "z": 26.1 }, "geometry": { "type": "Point", "coordinates": [ 126.927948, 35.150601 ] } },
{ "type": "Feature", "properties": { "관리기관명": "광주광역시 사회재난과", "소재지도로명주소": "동구 동계천로 170", "카메라대수": 2, "카메라화소": "200만", "촬영방면": "360도", "최초설치": 2023, "최근설치": 2023, "설치회차": 2, "z": 23.6 }, "geometry": { "type": "Point", "coordinates": [ 126.928044, 35.149033 ] } },
{ "type": "Feature", "properties": { "관리기관명": "광주광역시 사회재난과", "소재지도로명주소": "동구 경양로 355", "카메라대수": 2, "카메라화소": "200만", "촬영방면": "360도", "최초설치": 2022, "최근설치": 2024, "설치회차": 2, "z": 26.7 }, "geometry": { "type": "Point", "coordinates": [ 126.928104, 35.154378 ] } },
{ "type": "Feature", "properties": { "관리기관명": "광주광역시 사회재난과", "소재지도로명주소": "동구 동계천로 172-1", "카메라대수": 3, "카메라화소": "200만", "촬영방면": "360도", "최초설치": 2016, "최근설치": 2019, "설치회차": 2, "z": 25.2 }, "geometry": { "type": "Point", "coordinates": [ 126.928293, 35.149421 ] } },
{ "type": "Feature", "properties": { "관리기관명": "광주광역시 사회재난과", "소재지도로명주소": "동구 필문대로273번길 5-1", "카메라대수": 5, "카메라화소": "200만", "촬영방면": "360도", "최초설치": 2016, "최근설치": 2020, "설치회차": 3, "z": 23.6 }, "geometry": { "type": "Point", "coordinates": [ 126.928325, 35.14656 ] } },
{ "type": "Feature", "properties": { "관리기관명": "광주광역시 사회재난과", "소재지도로명주소": null, "카메라대수": 2, "카메라화소": "200만", "촬영방면": "360도", "최초설치": 2014, "최근설치": 2025, "설치회차": 2, "z": 26.0 }, "geometry": { "type": "Point", "coordinates": [ 126.928401, 35.149656 ] } },
{ "type": "Feature", "properties": { "관리기관명": "광주광역시 사회재난과", "소재지도로명주소": null, "카메라대수": 2, "카메라화소": "200만", "촬영방면": "360도", "최초설치": 2022, "최근설치": 2024, "설치회차": 2, "z": 28.2 }, "geometry": { "type": "Point", "coordinates": [ 126.928619, 35.150134 ] } },
{ "type": "Feature", "properties": { "관리기관명": "광주광역시 사회재난과", "소재지도로명주소": "동구 동명로 77-9", "카메라대수": 3, "카메라화소": "200만", "촬영방면": "360도", "최초설치": 2020, "최근설치": 2020, "설치회차": 1, "z": 24.8 }, "geometry": { "type": "Point", "coordinates": [ 126.929132, 35.151529 ] } },
{ "type": "Feature", "properties": { "관리기관명": "광주광역시 사회재난과", "소재지도로명주소": "동구 경양로 370", "카메라대수": 3, "카메라화소": "200만", "촬영방면": "360도", "최초설치": 2022, "최근설치": 2024, "설치회차": 2, "z": 28.4 }, "geometry": { "type": "Point", "coordinates": [ 126.929354, 35.154024 ] } },
{ "type": "Feature", "properties": { "관리기관명": "광주광역시 사회재난과", "소재지도로명주소": "동구 필문대로192번길 21", "카메라대수": 3, "카메라화소": "200만", "촬영방면": "360도", "최초설치": 2017, "최근설치": 2024, "설치회차": 2, "z": 20.4 }, "geometry": { "type": "Point", "coordinates": [ 126.929448, 35.153474 ] } },
{ "type": "Feature", "properties": { "관리기관명": "광주광역시 사회재난과", "소재지도로명주소": "동구 필문대로263번길 15", "카메라대수": 3, "카메라화소": "200만", "촬영방면": "360도", "최초설치": 2020, "최근설치": 2024, "설치회차": 3, "z": 26.7 }, "geometry": { "type": "Point", "coordinates": [ 126.929784, 35.147256 ] } },
{ "type": "Feature", "properties": { "관리기관명": "광주광역시 사회재난과", "소재지도로명주소": "동구 필문대로253번길 9-2", "카메라대수": 3, "카메라화소": "200만", "촬영방면": "360도", "최초설치": 2022, "최근설치": 2022, "설치회차": 2, "z": 26.1 }, "geometry": { "type": "Point", "coordinates": [ 126.929933, 35.148201 ] } },
{ "type": "Feature", "properties": { "관리기관명": "광주광역시 사회재난과", "소재지도로명주소": "동구 필문대로218번길 2-28", "카메라대수": 4, "카메라화소": "200만", "촬영방면": "360도", "최초설치": 2026, "최근설치": 2026, "설치회차": 1, "z": 20.7 }, "geometry": { "type": "Point", "coordinates": [ 126.930206, 35.152605 ] } },
{ "type": "Feature", "properties": { "관리기관명": "광주광역시 사회재난과", "소재지도로명주소": "동구 동명로98번길 17", "카메라대수": 4, "카메라화소": "200만", "촬영방면": "360도", "최초설치": 2019, "최근설치": 2024, "설치회차": 2, "z": 26.9 }, "geometry": { "type": "Point", "coordinates": [ 126.930611, 35.149228 ] } },
{ "type": "Feature", "properties": { "관리기관명": "광주광역시 사회재난과", "소재지도로명주소": "동구 동명로98번길 9", "카메라대수": 3, "카메라화소": "200만", "촬영방면": "360도", "최초설치": 2022, "최근설치": 2024, "설치회차": 2, "z": 30.3 }, "geometry": { "type": "Point", "coordinates": [ 126.930966, 35.150134 ] } },
{ "type": "Feature", "properties": { "관리기관명": "광주광역시 사회재난과", "소재지도로명주소": "동구 필문대로 217-1", "카메라대수": 3, "카메라화소": "200만", "촬영방면": "360도", "최초설치": 2018, "최근설치": 2024, "설치회차": 2, "z": 26.9 }, "geometry": { "type": "Point", "coordinates": [ 126.931583, 35.15163 ] } },
{ "type": "Feature", "properties": { "관리기관명": "광주광역시 사회재난과", "소재지도로명주소": "동구 필문대로205번길 5-1", "카메라대수": 4, "카메라화소": "200만", "촬영방면": "360도", "최초설치": 2022, "최근설치": 2024, "설치회차": 2, "z": 24.6 }, "geometry": { "type": "Point", "coordinates": [ 126.931738, 35.152195 ] } },
{ "type": "Feature", "properties": { "관리기관명": "광주광역시 사회재난과", "소재지도로명주소": "동구 지산로57번길 12", "카메라대수": 3, "카메라화소": "200만", "촬영방면": "360도", "최초설치": 2025, "최근설치": 2025, "설치회차": 2, "z": 29.6 }, "geometry": { "type": "Point", "coordinates": [ 126.931822, 35.149079 ] } },
{ "type": "Feature", "properties": { "관리기관명": "광주광역시 사회재난과", "소재지도로명주소": "동구 지산로 37", "카메라대수": 4, "카메라화소": "200만", "촬영방면": "360도", "최초설치": 2016, "최근설치": 2018, "설치회차": 2, "z": 30.7 }, "geometry": { "type": "Point", "coordinates": [ 126.931996, 35.147039 ] } },
{ "type": "Feature", "properties": { "관리기관명": "광주광역시 사회재난과", "소재지도로명주소": "동구 필문대로205번길 12-1", "카메라대수": 3, "카메라화소": "200만", "촬영방면": "360도", "최초설치": 2023, "최근설치": 2023, "설치회차": 1, "z": 25.2 }, "geometry": { "type": "Point", "coordinates": [ 126.932442, 35.152134 ] } },
{ "type": "Feature", "properties": { "관리기관명": "광주광역시 사회재난과", "소재지도로명주소": "동구 지산로 54", "카메라대수": 2, "카메라화소": "200만", "촬영방면": "360도", "최초설치": 2021, "최근설치": 2024, "설치회차": 2, "z": 32.3 }, "geometry": { "type": "Point", "coordinates": [ 126.93279, 35.148664 ] } },
{ "type": "Feature", "properties": { "관리기관명": "광주광역시 사회재난과", "소재지도로명주소": "동구 동명로 114", "카메라대수": 4, "카메라화소": "200만", "촬영방면": "360도", "최초설치": 2021, "최근설치": 2021, "설치회차": 1, "z": 33.8 }, "geometry": { "type": "Point", "coordinates": [ 126.933101, 35.150675 ] } },
{ "type": "Feature", "properties": { "관리기관명": "광주광역시 사회재난과", "소재지도로명주소": "동구 필문대로205번길 19", "카메라대수": 3, "카메라화소": "200만", "촬영방면": "360도", "최초설치": 2018, "최근설치": 2023, "설치회차": 3, "z": 25.9 }, "geometry": { "type": "Point", "coordinates": [ 126.93311, 35.152062 ] } },
{ "type": "Feature", "properties": { "관리기관명": "광주광역시 사회재난과", "소재지도로명주소": "동구 지산로 82-7", "카메라대수": 4, "카메라화소": "200만", "촬영방면": "360도", "최초설치": 2023, "최근설치": 2023, "설치회차": 1, "z": 31.3 }, "geometry": { "type": "Point", "coordinates": [ 126.933379, 35.151224 ] } },
{ "type": "Feature", "properties": { "관리기관명": "광주광역시 사회재난과", "소재지도로명주소": "동구 지산로78번길 17-1", "카메라대수": 3, "카메라화소": "200만", "촬영방면": "360도", "최초설치": 2018, "최근설치": 2018, "설치회차": 1, "z": 28.4 }, "geometry": { "type": "Point", "coordinates": [ 126.933949, 35.151681 ] } },
{ "type": "Feature", "properties": { "관리기관명": "광주광역시 사회재난과", "소재지도로명주소": "동구 준법로 7-12", "카메라대수": 1, "카메라화소": "200만", "촬영방면": "360도", "최초설치": 2021, "최근설치": 2021, "설치회차": 1, "z": 41.6 }, "geometry": { "type": "Point", "coordinates": [ 126.935173, 35.149374 ] } },
{ "type": "Feature", "properties": { "관리기관명": "광주광역시 사회재난과", "소재지도로명주소": "동구 밤실로43번길 10", "카메라대수": 3, "카메라화소": "200만", "촬영방면": "360도", "최초설치": 2023, "최근설치": 2023, "설치회차": 1, "z": 32.5 }, "geometry": { "type": "Point", "coordinates": [ 126.935796, 35.151572 ] } },
{ "type": "Feature", "properties": { "관리기관명": "광주광역시 사회재난과", "소재지도로명주소": "동구 밤실로23번길 7", "카메라대수": 3, "카메라화소": "200만", "촬영방면": "360도", "최초설치": 2019, "최근설치": 2024, "설치회차": 2, "z": 44.1 }, "geometry": { "type": "Point", "coordinates": [ 126.936376, 35.149866 ] } },
{ "type": "Feature", "properties": { "관리기관명": "광주광역시 사회재난과", "소재지도로명주소": "동구 밤실로 47", "카메라대수": 3, "카메라화소": "200만", "촬영방면": "360도", "최초설치": 2019, "최근설치": 2020, "설치회차": 2, "z": 32.1 }, "geometry": { "type": "Point", "coordinates": [ 126.936383, 35.151839 ] } },
{ "type": "Feature", "properties": { "관리기관명": "광주광역시 사회재난과", "소재지도로명주소": null, "카메라대수": 2, "카메라화소": "200만", "촬영방면": "360도", "최초설치": 2013, "최근설치": 2017, "설치회차": 2, "z": 40.3 }, "geometry": { "type": "Point", "coordinates": [ 126.936548, 35.147877 ] } },
{ "type": "Feature", "properties": { "관리기관명": "광주광역시 사회재난과", "소재지도로명주소": "동구 밤실로 43", "카메라대수": 3, "카메라화소": "200만", "촬영방면": "360도", "최초설치": 2025, "최근설치": 2025, "설치회차": 1, "z": 36.3 }, "geometry": { "type": "Point", "coordinates": [ 126.936784, 35.151344 ] } },
{ "type": "Feature", "properties": { "관리기관명": "광주광역시 사회재난과", "소재지도로명주소": "동구 밤실로 20", "카메라대수": 3, "카메라화소": "200만", "촬영방면": "360도", "최초설치": 2022, "최근설치": 2022, "설치회차": 2, "z": 46.5 }, "geometry": { "type": "Point", "coordinates": [ 126.937013, 35.149298 ] } },
{ "type": "Feature", "properties": { "관리기관명": "광주광역시 사회재난과", "소재지도로명주소": null, "카메라대수": 2, "카메라화소": "200만", "촬영방면": "360도", "최초설치": 2017, "최근설치": 2024, "설치회차": 2, "z": 39.6 }, "geometry": { "type": "Point", "coordinates": [ 126.937661, 35.151324 ] } },
{ "type": "Feature", "properties": { "관리기관명": "광주광역시 사회재난과", "소재지도로명주소": "동구 밤실로20번길 7", "카메라대수": 4, "카메라화소": "200만", "촬영방면": "360도", "최초설치": 2013, "최근설치": 2019, "설치회차": 2, "z": 48.7 }, "geometry": { "type": "Point", "coordinates": [ 126.937696, 35.149346 ] } },
{ "type": "Feature", "properties": { "관리기관명": "광주광역시 사회재난과", "소재지도로명주소": null, "카메라대수": 3, "카메라화소": "200만", "촬영방면": "360도", "최초설치": 2023, "최근설치": 2023, "설치회차": 1, "z": 44.8 }, "geometry": { "type": "Point", "coordinates": [ 126.93796, 35.150358 ] } },
{ "type": "Feature", "properties": { "관리기관명": "광주광역시 사회재난과", "소재지도로명주소": null, "카메라대수": 3, "카메라화소": "200만", "촬영방면": "360도", "최초설치": 2024, "최근설치": 2024, "설치회차": 1, "z": 45.6 }, "geometry": { "type": "Point", "coordinates": [ 126.938021, 35.14839 ] } },
{ "type": "Feature", "properties": { "관리기관명": "광주광역시 사회재난과", "소재지도로명주소": "동구 지호로 81-11", "카메라대수": 2, "카메라화소": "200만", "촬영방면": "360도", "최초설치": 2022, "최근설치": 2022, "설치회차": 1, "z": 44.1 }, "geometry": { "type": "Point", "coordinates": [ 126.938034, 35.14794 ] } },
{ "type": "Feature", "properties": { "관리기관명": "광주광역시 사회재난과", "소재지도로명주소": "동구 밤실로4번안길 19", "카메라대수": 3, "카메라화소": "200만", "촬영방면": "360도", "최초설치": 2019, "최근설치": 2024, "설치회차": 2, "z": 47.7 }, "geometry": { "type": "Point", "coordinates": [ 126.938065, 35.149692 ] } },
{ "type": "Feature", "properties": { "관리기관명": "광주광역시 사회재난과", "소재지도로명주소": "동구 지호로86번길 3", "카메라대수": 3, "카메라화소": "200만", "촬영방면": "360도", "최초설치": 2018, "최근설치": 2023, "설치회차": 3, "z": 43.5 }, "geometry": { "type": "Point", "coordinates": [ 126.93824, 35.147444 ] } },
{ "type": "Feature", "properties": { "관리기관명": "광주광역시 사회재난과", "소재지도로명주소": "동구 밤실로20번길 17", "카메라대수": 3, "카메라화소": "200만", "촬영방면": "360도", "최초설치": 2022, "최근설치": 2022, "설치회차": 1, "z": 51.3 }, "geometry": { "type": "Point", "coordinates": [ 126.938818, 35.149261 ] } },
{ "type": "Feature", "properties": { "관리기관명": "광주광역시 사회재난과", "소재지도로명주소": "동구 밤실로4번길 19-2", "카메라대수": 2, "카메라화소": "200만", "촬영방면": "360도", "최초설치": 2022, "최근설치": 2022, "설치회차": 1, "z": 47.7 }, "geometry": { "type": "Point", "coordinates": [ 126.93889, 35.148568 ] } },
{ "type": "Feature", "properties": { "관리기관명": "광주광역시 사회재난과", "소재지도로명주소": "동구 밤실로4번길 31-1", "카메라대수": 2, "카메라화소": "200만", "촬영방면": "360도", "최초설치": 2019, "최근설치": 2024, "설치회차": 2, "z": 49.8 }, "geometry": { "type": "Point", "coordinates": [ 126.939619, 35.148521 ] } }
]
}
