{"features":[{"geometry":{"coordinates":[126.916375,35.155558],"type":"Point"},"properties":{"kind":"child_zone","name":"동구어린이집"},"type":"Feature"},{"geometry":{"coordinates":[126.918639,35.15093],"type":"Point"},"properties":{"kind":"child_zone","name":"중앙초등학교"},"type":"Feature"},{"geometry":{"coordinates":[126.920454,35.144478],"type":"Point"},"properties":{"kind":"child_zone","name":"소화유치원"},"type":"Feature"},{"geometry":{"coordinates":[126.92427,35.154622],"type":"Point"},"properties":{"kind":"child_zone","name":"무등어린이집"},"type":"Feature"},{"geometry":{"coordinates":[126.925561,35.147553],"type":"Point"},"properties":{"kind":"child_zone","name":"서석초등학교"},"type":"Feature"},{"geometry":{"coordinates":[126.928336,35.155848],"type":"Point"},"properties":{"kind":"child_zone","name":"산수초등학교"},"type":"Feature"},{"geometry":{"coordinates":[126.932185,35.158106],"type":"Point"},"properties":{"kind":"child_zone","name":"다솜어린이집"},"type":"Feature"},{"geometry":{"coordinates":[126.933531,35.149052],"type":"Point"},"properties":{"kind":"child_zone","name":"연화유치원"},"type":"Feature"},{"geometry":{"coordinates":[126.935555,35.148557],"type":"Point"},"properties":{"kind":"child_zone","name":"동산초등학교"},"type":"Feature"},{"geometry":{"coordinates":[126.936214,35.154935],"type":"Point"},"properties":{"kind":"child_zone","name":"광주법원어린이집"},"type":"Feature"},{"geometry":{"coordinates":[126.937769,35.157788],"type":"Point"},"properties":{"kind":"child_zone","name":"장원초등학교"},"type":"Feature"},{"geometry":{"coordinates":[126.912575,35.144618],"type":"Point"},"properties":{"kind":"senior_zone","name":"광주시각장애인복지관"},"type":"Feature"},{"geometry":{"coordinates":[126.912575,35.144618],"type":"Point"},"properties":{"kind":"senior_zone","name":"광주시각장애인복지관"},"type":"Feature"},{"geometry":{"coordinates":[126.915051,35.153134],"type":"Point"},"properties":{"kind":"senior_zone","name":"상이군경회 경로당"},"type":"Feature"},{"geometry":{"coordinates":[126.915051,35.153134],"type":"Point"},"properties":{"kind":"senior_zone","name":"상이군경회 경로당"},"type":"Feature"},{"geometry":{"coordinates":[126.915472,35.152546],"type":"Point"},"properties":{"kind":"senior_zone","name":"하나비젼실버홈"},"type":"Feature"},{"geometry":{"coordinates":[126.915472,35.152546],"type":"Point"},"properties":{"kind":"senior_zone","name":"하나비젼실버홈"},"type":"Feature"},{"geometry":{"coordinates":[126.924369,35.150484],"type":"Point"},"properties":{"kind":"senior_zone","name":"동구노인종합복지관"},"type":"Feature"},{"geometry":{"coordinates":[126.924369,35.150484],"type":"Point"},"properties":{"kind":"senior_zone","name":"동구노인종합복지관"},"type":"Feature"},{"geometry":{"coordinates":[126.924777,35.145321],"type":"Point"},"properties":{"kind":"senior_zone","name":"서석경로당"},"type":"Feature"},{"geometry":{"coordinates":[126.924777,35.145321],"type":"Point"},"properties":{"kind":"senior_zone","name":"서석경로당"},"type":"Feature"},{"geometry":{"coordinates":[126.926248,35.145793],"type":"Point"},"properties":{"kind":"senior_zone","name":"광주광역시동구장애인복지관"},"type":"Feature"},{"geometry":{"coordinates":[126.926248,35.145793],"type":"Point"},"properties":{"kind":"senior_zone","name":"광주광역시동구장애인복지관"},"type":"Feature"},{"geometry":{"coordinates":[126.912038,35.154241],"type":"Point"},"properties":{"h_m":0.0,"kind":"speedbump","road":"독립로"},"type":"Feature"},{"geometry":{"coordinates":[126.913073,35.154377],"type":"Point"},"properties":{"h_m":0.0,"kind":"speedbump","road":"제봉로"},"type":"Feature"},{"geometry":{"coordinates":[126.913229,35.15451],"type":"Point"},"properties":{"h_m":0.0,"kind":"speedbump","road":"제봉로"},"type":"Feature"},{"geometry":{"coordinates":[126.913857,35.155142],"type":"Point"},"properties":{"h_m":0.0,"kind":"speedbump","road":"제봉로"},"type":"Feature"},{"geometry":{"coordinates":[126.913863,35.154152],"type":"Point"},"properties":{"h_m":0.0,"kind":"speedbump","road":"제봉로"},"type":"Feature"},{"geometry":{"coordinates":[126.914764,35.145784],"type":"Point"},"properties":{"h_m":0.0,"kind":"speedbump","road":"서석로"},"type":"Feature"},{"geometry":{"coordinates":[126.915003,35.153385],"type":"Point"},"properties":{"h_m":0.0,"kind":"speedbump","road":"구성로"},"type":"Feature"},{"geometry":{"coordinates":[126.915437,35.155492],"type":"Point"},"properties":{"h_m":0.0,"kind":"speedbump","road":"동계천로"},"type":"Feature"},{"geometry":{"coordinates":[126.915442,35.152952],"type":"Point"},"properties":{"h_m":0.0,"kind":"speedbump","road":"구성로"},"type":"Feature"},{"geometry":{"coordinates":[126.915832,35.144378],"type":"Point"},"properties":{"h_m":0.0,"kind":"speedbump","road":"문화전당로"},"type":"Feature"},{"geometry":{"coordinates":[126.917218,35.14981],"type":"Point"},"properties":{"h_m":0.0,"kind":"speedbump","road":"중앙로"},"type":"Feature"},{"geometry":{"coordinates":[126.917497,35.15842],"type":"Point"},"properties":{"h_m":0.0,"kind":"speedbump","road":"경양로"},"type":"Feature"},{"geometry":{"coordinates":[126.917538,35.15859],"type":"Point"},"properties":{"h_m":0.0,"kind":"speedbump","road":"경양로"},"type":"Feature"},{"geometry":{"coordinates":[126.917683,35.158603],"type":"Point"},"properties":{"h_m":0.0,"kind":"speedbump","road":"경양로"},"type":"Feature"},{"geometry":{"coordinates":[126.917766,35.158412],"type":"Point"},"properties":{"h_m":0.0,"kind":"speedbump","road":"경양로"},"type":"Feature"},{"geometry":{"coordinates":[126.917937,35.149265],"type":"Point"},"properties":{"h_m":0.0,"kind":"speedbump","road":"중앙로"},"type":"Feature"},{"geometry":{"coordinates":[126.9183,35.156343],"type":"Point"},"properties":{"h_m":0.0,"kind":"speedbump","road":"경양로"},"type":"Feature"},{"geometry":{"coordinates":[126.918316,35.156799],"type":"Point"},"properties":{"h_m":0.0,"kind":"speedbump","road":"구성로"},"type":"Feature"},{"geometry":{"coordinates":[126.918477,35.154958],"type":"Point"},"properties":{"h_m":0.0,"kind":"speedbump","road":"구성로"},"type":"Feature"},{"geometry":{"coordinates":[126.918577,35.148797],"type":"Point"},"properties":{"h_m":0.0,"kind":"speedbump","road":"중앙로"},"type":"Feature"},{"geometry":{"coordinates":[126.918683,35.157709],"type":"Point"},"properties":{"h_m":0.0,"kind":"speedbump","road":"경양로"},"type":"Feature"},{"geometry":{"coordinates":[126.91896,35.158052],"type":"Point"},"properties":{"h_m":0.0,"kind":"speedbump","road":"경양로"},"type":"Feature"},{"geometry":{"coordinates":[126.919205,35.14914],"type":"Point"},"properties":{"h_m":0.0,"kind":"speedbump","road":"중앙로"},"type":"Feature"},{"geometry":{"coordinates":[126.919452,35.15423],"type":"Point"},"properties":{"h_m":0.0,"kind":"speedbump","road":"구성로"},"type":"Feature"},{"geometry":{"coordinates":[126.92,35.149762],"type":"Point"},"properties":{"h_m":0.0,"kind":"speedbump","road":"예술길"},"type":"Feature"},{"geometry":{"coordinates":[126.920869,35.152537],"type":"Point"},"properties":{"h_m":0.0,"kind":"speedbump","road":"동계천로"},"type":"Feature"},{"geometry":{"coordinates":[126.921159,35.156819],"type":"Point"},"properties":{"h_m":0.0,"kind":"speedbump","road":"중앙로"},"type":"Feature"},{"geometry":{"coordinates":[126.921234,35.155568],"type":"Point"},"properties":{"h_m":0.0,"kind":"speedbump","road":"중앙로"},"type":"Feature"},{"geometry":{"coordinates":[126.921533,35.153006],"type":"Point"},"properties":{"h_m":0.0,"kind":"speedbump","road":"동계천로"},"type":"Feature"},{"geometry":{"coordinates":[126.92198,35.152806],"type":"Point"},"properties":{"h_m":0.0,"kind":"speedbump","road":"동계천로"},"type":"Feature"},{"geometry":{"coordinates":[126.922115,35.155375],"type":"Point"},"properties":{"h_m":0.0,"kind":"speedbump","road":"계림로"},"type":"Feature"},{"geometry":{"coordinates":[126.922267,35.143148],"type":"Point"},"properties":{"h_m":0.0,"kind":"speedbump","road":"백서로"},"type":"Feature"},{"geometry":{"coordinates":[126.922619,35.155959],"type":"Point"},"properties":{"h_m":0.0,"kind":"speedbump","road":"계림로"},"type":"Feature"},{"geometry":{"coordinates":[126.922769,35.157915],"type":"Point"},"properties":{"h_m":0.0,"kind":"speedbump","road":"중앙로"},"type":"Feature"},{"geometry":{"coordinates":[126.922847,35.14781],"type":"Point"},"properties":{"h_m":0.0,"kind":"speedbump","road":"제봉로"},"type":"Feature"},{"geometry":{"coordinates":[126.923056,35.146738],"type":"Point"},"properties":{"h_m":0.0,"kind":"speedbump","road":"제봉로"},"type":"Feature"},{"geometry":{"coordinates":[126.923383,35.152009],"type":"Point"},"properties":{"h_m":0.0,"kind":"speedbump","road":"동계로"},"type":"Feature"},{"geometry":{"coordinates":[126.923986,35.143839],"type":"Point"},"properties":{"h_m":0.0,"kind":"speedbump","road":"백서로"},"type":"Feature"},{"geometry":{"coordinates":[126.924294,35.146502],"type":"Point"},"properties":{"h_m":0.0,"kind":"speedbump","road":"백서로"},"type":"Feature"},{"geometry":{"coordinates":[126.924415,35.154687],"type":"Point"},"properties":{"h_m":0.0,"kind":"speedbump","road":"동계로"},"type":"Feature"},{"geometry":{"coordinates":[126.924492,35.15447],"type":"Point"},"properties":{"h_m":0.0,"kind":"speedbump","road":"동계로"},"type":"Feature"},{"geometry":{"coordinates":[126.924524,35.150029],"type":"Point"},"properties":{"h_m":0.0,"kind":"speedbump","road":"동명로"},"type":"Feature"},{"geometry":{"coordinates":[126.924526,35.144012],"type":"Point"},"properties":{"h_m":0.0,"kind":"speedbump","road":"백서로"},"type":"Feature"},{"geometry":{"coordinates":[126.924571,35.146031],"type":"Point"},"properties":{"h_m":0.0,"kind":"speedbump","road":"백서로"},"type":"Feature"},{"geometry":{"coordinates":[126.924985,35.158387],"type":"Point"},"properties":{"h_m":0.0,"kind":"speedbump","road":"계림로"},"type":"Feature"},{"geometry":{"coordinates":[126.92503,35.145782],"type":"Point"},"properties":{"h_m":0.0,"kind":"speedbump","road":"백서로"},"type":"Feature"},{"geometry":{"coordinates":[126.925405,35.158656],"type":"Point"},"properties":{"h_m":0.0,"kind":"speedbump","road":"무등로"},"type":"Feature"},{"geometry":{"coordinates":[126.925471,35.145899],"type":"Point"},"properties":{"h_m":0.0,"kind":"speedbump","road":"백서로"},"type":"Feature"},{"geometry":{"coordinates":[126.925655,35.151767],"type":"Point"},"properties":{"h_m":0.0,"kind":"speedbump","road":"동명로"},"type":"Feature"},{"geometry":{"coordinates":[126.926032,35.157004],"type":"Point"},"properties":{"h_m":0.0,"kind":"speedbump","road":"무등로"},"type":"Feature"},{"geometry":{"coordinates":[126.92613,35.145302],"type":"Point"},"properties":{"h_m":0.0,"kind":"speedbump","road":"백서로"},"type":"Feature"},{"geometry":{"coordinates":[126.926156,35.152621],"type":"Point"},"properties":{"h_m":0.0,"kind":"speedbump","road":"동계로"},"type":"Feature"},{"geometry":{"coordinates":[126.926672,35.152649],"type":"Point"},"properties":{"h_m":0.0,"kind":"speedbump","road":"동명로"},"type":"Feature"},{"geometry":{"coordinates":[126.926704,35.148],"type":"Point"},"properties":{"h_m":0.0,"kind":"speedbump","road":"백서로"},"type":"Feature"},{"geometry":{"coordinates":[126.926728,35.148631],"type":"Point"},"properties":{"h_m":0.0,"kind":"speedbump","road":"백서로"},"type":"Feature"},{"geometry":{"coordinates":[126.926833,35.1538],"type":"Point"},"properties":{"h_m":0.0,"kind":"speedbump","road":"경양로"},"type":"Feature"},{"geometry":{"coordinates":[126.927039,35.159274],"type":"Point"},"properties":{"h_m":0.0,"kind":"speedbump","road":"무등로"},"type":"Feature"},{"geometry":{"coordinates":[126.927232,35.158612],"type":"Point"},"properties":{"h_m":0.0,"kind":"speedbump","road":"산수길"},"type":"Feature"},{"geometry":{"coordinates":[126.927245,35.150224],"type":"Point"},"properties":{"h_m":0.0,"kind":"speedbump","road":"동명로"},"type":"Feature"},{"geometry":{"coordinates":[126.927437,35.155962],"type":"Point"},"properties":{"h_m":0.0,"kind":"speedbump","road":"산수길"},"type":"Feature"},{"geometry":{"coordinates":[126.927483,35.153826],"type":"Point"},"properties":{"h_m":0.0,"kind":"speedbump","road":"경양로"},"type":"Feature"},{"geometry":{"coordinates":[126.92752,35.155721],"type":"Point"},"properties":{"h_m":0.0,"kind":"speedbump","road":"산수길"},"type":"Feature"},{"geometry":{"coordinates":[126.927566,35.152789],"type":"Point"},"properties":{"h_m":0.0,"kind":"speedbump","road":"동명로"},"type":"Feature"},{"geometry":{"coordinates":[126.927616,35.155574],"type":"Point"},"properties":{"h_m":0.0,"kind":"speedbump","road":"산수길"},"type":"Feature"},{"geometry":{"coordinates":[126.927654,35.15634],"type":"Point"},"properties":{"h_m":0.0,"kind":"speedbump","road":"산수길"},"type":"Feature"},{"geometry":{"coordinates":[126.927726,35.155295],"type":"Point"},"properties":{"h_m":0.0,"kind":"speedbump","road":"산수길"},"type":"Feature"},{"geometry":{"coordinates":[126.927773,35.154689],"type":"Point"},"properties":{"h_m":0.0,"kind":"speedbump","road":"산수길"},"type":"Feature"},{"geometry":{"coordinates":[126.927799,35.150157],"type":"Point"},"properties":{"h_m":0.0,"kind":"speedbump","road":"동명로"},"type":"Feature"},{"geometry":{"coordinates":[126.927848,35.156586],"type":"Point"},"properties":{"h_m":0.0,"kind":"speedbump","road":"산수길"},"type":"Feature"},{"geometry":{"coordinates":[126.928051,35.15694],"type":"Point"},"properties":{"h_m":0.0,"kind":"speedbump","road":"산수길"},"type":"Feature"},{"geometry":{"coordinates":[126.928204,35.145421],"type":"Point"},"properties":{"h_m":0.0,"kind":"speedbump","road":"필문대로"},"type":"Feature"},{"geometry":{"coordinates":[126.928248,35.15813],"type":"Point"},"properties":{"h_m":0.0,"kind":"speedbump","road":"무등로"},"type":"Feature"},{"geometry":{"coordinates":[126.928405,35.157208],"type":"Point"},"properties":{"h_m":0.0,"kind":"speedbump","road":"산수길"},"type":"Feature"},{"geometry":{"coordinates":[126.928481,35.145288],"type":"Point"},"properties":{"h_m":0.0,"kind":"speedbump","road":"필문대로"},"type":"Feature"},{"geometry":{"coordinates":[126.928657,35.157359],"type":"Point"},"properties":{"h_m":0.0,"kind":"speedbump","road":"산수길"},"type":"Feature"},{"geometry":{"coordinates":[126.928762,35.150976],"type":"Point"},"properties":{"h_m":0.0,"kind":"speedbump","road":"동명로"},"type":"Feature"},{"geometry":{"coordinates":[126.929157,35.157267],"type":"Point"},"properties":{"h_m":0.0,"kind":"speedbump","road":"무등로"},"type":"Feature"},{"geometry":{"coordinates":[126.929332,35.144912],"type":"Point"},"properties":{"h_m":0.0,"kind":"speedbump","road":"필문대로"},"type":"Feature"},{"geometry":{"coordinates":[126.92958,35.156871],"type":"Point"},"properties":{"h_m":0.0,"kind":"speedbump","road":"무등로"},"type":"Feature"},{"geometry":{"coordinates":[126.929595,35.158018],"type":"Point"},"properties":{"h_m":0.0,"kind":"speedbump","road":"무등로"},"type":"Feature"},{"geometry":{"coordinates":[126.929879,35.156186],"type":"Point"},"properties":{"h_m":0.0,"kind":"speedbump","road":"경양로"},"type":"Feature"},{"geometry":{"coordinates":[126.929943,35.155361],"type":"Point"},"properties":{"h_m":0.0,"kind":"speedbump","road":"경양로"},"type":"Feature"},{"geometry":{"coordinates":[126.93031,35.156164],"type":"Point"},"properties":{"h_m":0.0,"kind":"speedbump","road":"무등로"},"type":"Feature"},{"geometry":{"coordinates":[126.930315,35.156655],"type":"Point"},"properties":{"h_m":0.0,"kind":"speedbump","road":"무등로"},"type":"Feature"},{"geometry":{"coordinates":[126.930344,35.154623],"type":"Point"},"properties":{"h_m":0.0,"kind":"speedbump","road":"경양로"},"type":"Feature"},{"geometry":{"coordinates":[126.930434,35.145692],"type":"Point"},"properties":{"h_m":0.0,"kind":"speedbump","road":"필문대로"},"type":"Feature"},{"geometry":{"coordinates":[126.93058,35.158278],"type":"Point"},"properties":{"h_m":0.0,"kind":"speedbump","road":"무등로"},"type":"Feature"},{"geometry":{"coordinates":[126.93079,35.156899],"type":"Point"},"properties":{"h_m":0.0,"kind":"speedbump","road":"무등로"},"type":"Feature"},{"geometry":{"coordinates":[126.930962,35.154488],"type":"Point"},"properties":{"h_m":0.0,"kind":"speedbump","road":"경양로"},"type":"Feature"},{"geometry":{"coordinates":[126.931169,35.145898],"type":"Point"},"properties":{"h_m":0.0,"kind":"speedbump","road":"지산로"},"type":"Feature"},{"geometry":{"coordinates":[126.931412,35.151412],"type":"Point"},"properties":{"h_m":0.0,"kind":"speedbump","road":"지산로"},"type":"Feature"},{"geometry":{"coordinates":[126.931496,35.151626],"type":"Point"},"properties":{"h_m":0.0,"kind":"speedbump","road":"지산로"},"type":"Feature"},{"geometry":{"coordinates":[126.931652,35.152005],"type":"Point"},"properties":{"h_m":0.0,"kind":"speedbump","road":"지산로"},"type":"Feature"},{"geometry":{"coordinates":[126.931731,35.146793],"type":"Point"},"properties":{"h_m":0.0,"kind":"speedbump","road":"지산로"},"type":"Feature"},{"geometry":{"coordinates":[126.932054,35.147314],"type":"Point"},"properties":{"h_m":0.0,"kind":"speedbump","road":"지산로"},"type":"Feature"},{"geometry":{"coordinates":[126.932062,35.158026],"type":"Point"},"properties":{"h_m":0.0,"kind":"speedbump","road":"필문대로"},"type":"Feature"},{"geometry":{"coordinates":[126.932194,35.157402],"type":"Point"},"properties":{"h_m":0.0,"kind":"speedbump","road":"필문대로"},"type":"Feature"},{"geometry":{"coordinates":[126.932425,35.156325],"type":"Point"},"properties":{"h_m":0.0,"kind":"speedbump","road":"필문대로"},"type":"Feature"},{"geometry":{"coordinates":[126.932571,35.155724],"type":"Point"},"properties":{"h_m":0.0,"kind":"speedbump","road":"필문대로"},"type":"Feature"},{"geometry":{"coordinates":[126.932942,35.149115],"type":"Point"},"properties":{"h_m":0.0,"kind":"speedbump","road":"지산로"},"type":"Feature"},{"geometry":{"coordinates":[126.933077,35.158428],"type":"Point"},"properties":{"h_m":0.0,"kind":"speedbump","road":"필문대로"},"type":"Feature"},{"geometry":{"coordinates":[126.93311,35.155104],"type":"Point"},"properties":{"h_m":0.0,"kind":"speedbump","road":"무등로"},"type":"Feature"},{"geometry":{"coordinates":[126.933111,35.15002],"type":"Point"},"properties":{"h_m":0.0,"kind":"speedbump","road":"지산로"},"type":"Feature"},{"geometry":{"coordinates":[126.933112,35.152213],"type":"Point"},"properties":{"h_m":0.0,"kind":"speedbump","road":"필문대로"},"type":"Feature"},{"geometry":{"coordinates":[126.933431,35.157423],"type":"Point"},"properties":{"h_m":0.0,"kind":"speedbump","road":"필문대로"},"type":"Feature"},{"geometry":{"coordinates":[126.933526,35.155801],"type":"Point"},"properties":{"h_m":0.0,"kind":"speedbump","road":"필문대로"},"type":"Feature"},{"geometry":{"coordinates":[126.934291,35.14941],"type":"Point"},"properties":{"h_m":0.0,"kind":"speedbump","road":"준법로"},"type":"Feature"},{"geometry":{"coordinates":[126.934394,35.147748],"type":"Point"},"properties":{"h_m":0.0,"kind":"speedbump","road":"지호로"},"type":"Feature"},{"geometry":{"coordinates":[126.934981,35.147755],"type":"Point"},"properties":{"h_m":0.0,"kind":"speedbump","road":"지호로"},"type":"Feature"},{"geometry":{"coordinates":[126.93504,35.149357],"type":"Point"},"properties":{"h_m":0.0,"kind":"speedbump","road":"준법로"},"type":"Feature"},{"geometry":{"coordinates":[126.93517,35.151924],"type":"Point"},"properties":{"h_m":0.0,"kind":"speedbump","road":"필문대로"},"type":"Feature"},{"geometry":{"coordinates":[126.935326,35.158812],"type":"Point"},"properties":{"h_m":0.0,"kind":"speedbump","road":"밤실로"},"type":"Feature"},{"geometry":{"coordinates":[126.935384,35.1584],"type":"Point"},"properties":{"h_m":0.0,"kind":"speedbump","road":"밤실로"},"type":"Feature"},{"geometry":{"coordinates":[126.935395,35.15815],"type":"Point"},"properties":{"h_m":0.0,"kind":"speedbump","road":"밤실로"},"type":"Feature"},{"geometry":{"coordinates":[126.935486,35.157773],"type":"Point"},"properties":{"h_m":0.0,"kind":"speedbump","road":"밤실로"},"type":"Feature"},{"geometry":{"coordinates":[126.935763,35.154684],"type":"Point"},"properties":{"h_m":0.0,"kind":"speedbump","road":"필문대로"},"type":"Feature"},{"geometry":{"coordinates":[126.935764,35.157656],"type":"Point"},"properties":{"h_m":0.0,"kind":"speedbump","road":"밤실로"},"type":"Feature"},{"geometry":{"coordinates":[126.93608,35.156329],"type":"Point"},"properties":{"h_m":0.0,"kind":"speedbump","road":"밤실로"},"type":"Feature"},{"geometry":{"coordinates":[126.936123,35.15477],"type":"Point"},"properties":{"h_m":0.0,"kind":"speedbump","road":"필문대로"},"type":"Feature"},{"geometry":{"coordinates":[126.936175,35.147649],"type":"Point"},"properties":{"h_m":0.0,"kind":"speedbump","road":"지호로"},"type":"Feature"},{"geometry":{"coordinates":[126.936248,35.152528],"type":"Point"},"properties":{"h_m":0.0,"kind":"speedbump","road":"밤실로"},"type":"Feature"},{"geometry":{"coordinates":[126.936319,35.152231],"type":"Point"},"properties":{"h_m":0.0,"kind":"speedbump","road":"밤실로"},"type":"Feature"},{"geometry":{"coordinates":[126.936344,35.155647],"type":"Point"},"properties":{"h_m":0.0,"kind":"speedbump","road":"밤실로"},"type":"Feature"},{"geometry":{"coordinates":[126.936459,35.15603],"type":"Point"},"properties":{"h_m":0.0,"kind":"speedbump","road":"무등로"},"type":"Feature"},{"geometry":{"coordinates":[126.936502,35.15767],"type":"Point"},"properties":{"h_m":0.0,"kind":"speedbump","road":"밤실로"},"type":"Feature"},{"geometry":{"coordinates":[126.93652,35.155176],"type":"Point"},"properties":{"h_m":0.0,"kind":"speedbump","road":"밤실로"},"type":"Feature"},{"geometry":{"coordinates":[126.936558,35.151809],"type":"Point"},"properties":{"h_m":0.0,"kind":"speedbump","road":"밤실로"},"type":"Feature"},{"geometry":{"coordinates":[126.936829,35.156129],"type":"Point"},"properties":{"h_m":0.0,"kind":"speedbump","road":"무등로"},"type":"Feature"},{"geometry":{"coordinates":[126.936896,35.148443],"type":"Point"},"properties":{"h_m":0.0,"kind":"speedbump","road":"밤실로"},"type":"Feature"},{"geometry":{"coordinates":[126.936945,35.148903],"type":"Point"},"properties":{"h_m":0.0,"kind":"speedbump","road":"밤실로"},"type":"Feature"},{"geometry":{"coordinates":[126.936991,35.149689],"type":"Point"},"properties":{"h_m":0.0,"kind":"speedbump","road":"밤실로"},"type":"Feature"},{"geometry":{"coordinates":[126.93779,35.155474],"type":"Point"},"properties":{"h_m":0.0,"kind":"speedbump","road":"밤실로"},"type":"Feature"},{"geometry":{"coordinates":[126.938031,35.155875],"type":"Point"},"properties":{"h_m":0.0,"kind":"speedbump","road":"밤실로"},"type":"Feature"},{"geometry":{"coordinates":[126.938031,35.15674],"type":"Point"},"properties":{"h_m":0.0,"kind":"speedbump","road":"무등로"},"type":"Feature"},{"geometry":{"coordinates":[126.938316,35.157036],"type":"Point"},"properties":{"h_m":0.0,"kind":"speedbump","road":"무등로"},"type":"Feature"},{"geometry":{"coordinates":[126.939952,35.156052],"type":"Point"},"properties":{"h_m":0.0,"kind":"speedbump","road":"무등로"},"type":"Feature"},{"geometry":{"coordinates":[126.940163,35.156832],"type":"Point"},"properties":{"h_m":0.0,"kind":"speedbump","road":"무등로"},"type":"Feature"},{"geometry":{"coordinates":[126.940206,35.156922],"type":"Point"},"properties":{"h_m":0.0,"kind":"speedbump","road":"무등로"},"type":"Feature"},{"geometry":{"coordinates":[126.940353,35.147838],"type":"Point"},"properties":{"h_m":0.0,"kind":"speedbump","road":"지호로"},"type":"Feature"},{"geometry":{"coordinates":[126.940603,35.155433],"type":"Point"},"properties":{"h_m":0.0,"kind":"speedbump","road":"무등로"},"type":"Feature"},{"geometry":{"coordinates":[126.940693,35.1486],"type":"Point"},"properties":{"h_m":0.0,"kind":"speedbump","road":"지호로"},"type":"Feature"},{"geometry":{"coordinates":[126.941483,35.14899],"type":"Point"},"properties":{"h_m":0.0,"kind":"speedbump","road":"지호로"},"type":"Feature"},{"geometry":{"coordinates":[126.941949,35.149191],"type":"Point"},"properties":{"h_m":0.0,"kind":"speedbump","road":"지호로"},"type":"Feature"},{"geometry":{"coordinates":[126.913668,35.159189],"type":"Point"},"properties":{"kind":"speedcam","limit":50.0,"place":"광주 북구 독립로 중흥초 사거리(구시청4 → 대인광장5)"},"type":"Feature"},{"geometry":{"coordinates":[126.915094,35.154198],"type":"Point"},"properties":{"kind":"speedcam","limit":50.0,"place":"광주 동구 제봉로 동부소방서 사거리(동구청 → 대인광장5)"},"type":"Feature"},{"geometry":{"coordinates":[126.9158,35.15001],"type":"Point"},"properties":{"kind":"speedcam","limit":50.0,"place":"광주 동구 금남로4가역 교차로(문화의전당 → 금남로5가역)"},"type":"Feature"},{"geometry":{"coordinates":[126.916403,35.15526],"type":"Point"},"properties":{"kind":"speedcam","limit":30.0,"place":"광주 동구 구성로 동구어린이집 스쿨존(광주고 → 동부소방서)"},"type":"Feature"},{"geometry":{"coordinates":[126.917991,35.152036],"type":"Point"},"properties":{"kind":"speedcam","limit":50.0,"place":"광주 동구 제봉로 한미쇼핑앞 사거리(대인5 → 동구청)"},"type":"Feature"},{"geometry":{"coordinates":[126.921113,35.144193],"type":"Point"},"properties":{"kind":"speedcam","limit":30.0,"place":"광주 동구 제봉로 소화유치원(남동성당) 스쿨존(동구청앞R → 전대의대앞R)"},"type":"Feature"},{"geometry":{"coordinates":[126.921559,35.144553],"type":"Point"},"properties":{"kind":"speedcam","limit":30.0,"place":"광주 동구 제봉로 소화유치원(남동성당) 스쿨존(전대의대앞R → 동구청앞R)"},"type":"Feature"},{"geometry":{"coordinates":[126.922642,35.148545],"type":"Point"},"properties":{"kind":"speedcam","limit":30.0,"place":"광주 동구 제봉로110번길 서석초교 병설유치원 스쿨존(동명동 → 제봉로)"},"type":"Feature"},{"geometry":{"coordinates":[126.924294,35.154812],"type":"Point"},"properties":{"kind":"speedcam","limit":30.0,"place":"광주 동구 동계로 무등어린이집 스쿨존(두산위브A → 경양로)"},"type":"Feature"},{"geometry":{"coordinates":[126.925614,35.144003],"type":"Point"},"properties":{"kind":"speedcam","limit":50.0,"place":"광주 동구 필문대로 조대4(남광주고가방면)"},"type":"Feature"},{"geometry":{"coordinates":[126.926036,35.144099],"type":"Point"},"properties":{"kind":"speedcam","limit":50.0,"place":"광주 동구 필문대로 조선대4거리(지산동 방면)"},"type":"Feature"},{"geometry":{"coordinates":[126.928876,35.157396],"type":"Point"},"properties":{"kind":"speedcam","limit":30.0,"place":"광주 동구 무등로 산수초교 병설유치원 스쿨존(계림초 → 산수5)"},"type":"Feature"},{"geometry":{"coordinates":[126.928918,35.157619],"type":"Point"},"properties":{"kind":"speedcam","limit":30.0,"place":"광주 동구 무등로 산수초교 스쿨존(산수5 → 광주역)"},"type":"Feature"},{"geometry":{"coordinates":[126.929031,35.149186],"type":"Point"},"properties":{"kind":"speedcam","limit":50.0,"place":"광주 동구 필문대로 돔방사거리(조선대 방면)"},"type":"Feature"},{"geometry":{"coordinates":[126.934501,35.14948],"type":"Point"},"properties":{"kind":"speedcam","limit":30.0,"place":"광주 동구 준법로 동산초교 스쿨존(밤실로 → 지산로)"},"type":"Feature"},{"geometry":{"coordinates":[126.934632,35.149303],"type":"Point"},"properties":{"kind":"speedcam","limit":30.0,"place":"광주 동구 준법로 동산초교 스쿨존(지산로 → 밤실로)"},"type":"Feature"},{"geometry":{"coordinates":[126.934937,35.147816],"type":"Point"},"properties":{"kind":"speedcam","limit":30.0,"place":"광주 동구 지호로 동산초교 병설유치원 스쿨존(지산로 → 호텔무등파크)"},"type":"Feature"},{"geometry":{"coordinates":[126.936305,35.156054],"type":"Point"},"properties":{"kind":"speedcam","limit":30.0,"place":"광주 동구 무등로 장원초교 부근 사거리(산수5 → 지산유원지)"},"type":"Feature"},{"geometry":{"coordinates":[126.936311,35.156058],"type":"Point"},"properties":{"kind":"speedcam","limit":30.0,"place":"광주 동구 무등로 장원초교 스쿨존(지산유원지 →산수5)"},"type":"Feature"},{"geometry":{"coordinates":[126.936547,35.154817],"type":"Point"},"properties":{"kind":"speedcam","limit":30.0,"place":"광주 동구 밤실로 법원어린이집 스쿨존(율곡초 → 법원)"},"type":"Feature"}],"name":"context","type":"FeatureCollection"}