{"features":[{"geometry":{"coordinates":[126.9164,35.1576],"type":"Point"},"properties":{"center":"지산119안전센터","kind":"dispatch","resp_s":504,"yr":2022},"type":"Feature"},{"geometry":{"coordinates":[126.9175,35.1517],"type":"Point"},"properties":{"center":"지산119안전센터","kind":"dispatch","resp_s":174,"yr":2022},"type":"Feature"},{"geometry":{"coordinates":[126.9185,35.1534],"type":"Point"},"properties":{"center":"지산119안전센터","kind":"dispatch","resp_s":504,"yr":2022},"type":"Feature"},{"geometry":{"coordinates":[126.919,35.1519],"type":"Point"},"properties":{"center":"지산119안전센터","kind":"dispatch","resp_s":660,"yr":2022},"type":"Feature"},{"geometry":{"coordinates":[126.9194,35.1489],"type":"Point"},"properties":{"center":"지산119안전센터","kind":"dispatch","resp_s":null,"yr":2022},"type":"Feature"},{"geometry":{"coordinates":[126.9194,35.1531],"type":"Point"},"properties":{"center":"지산119안전센터","kind":"dispatch","resp_s":221,"yr":2022},"type":"Feature"},{"geometry":{"coordinates":[126.9195,35.1532],"type":"Point"},"properties":{"center":"지산119안전센터","kind":"dispatch","resp_s":null,"yr":2022},"type":"Feature"},{"geometry":{"coordinates":[126.9195,35.1532],"type":"Point"},"properties":{"center":"지산119안전센터","kind":"dispatch","resp_s":182,"yr":2022},"type":"Feature"},{"geometry":{"coordinates":[126.9195,35.1532],"type":"Point"},"properties":{"center":"대인119안전센터","kind":"dispatch","resp_s":241,"yr":2022},"type":"Feature"},{"geometry":{"coordinates":[126.9196,35.153],"type":"Point"},"properties":{"center":"대인119안전센터","kind":"dispatch","resp_s":251,"yr":2022},"type":"Feature"},{"geometry":{"coordinates":[126.9197,35.1492],"type":"Point"},"properties":{"center":"지산119안전센터","kind":"dispatch","resp_s":282,"yr":2022},"type":"Feature"},{"geometry":{"coordinates":[126.9205,35.1544],"type":"Point"},"properties":{"center":"지산119안전센터","kind":"dispatch","resp_s":null,"yr":2022},"type":"Feature"},{"geometry":{"coordinates":[126.9206,35.1522],"type":"Point"},"properties":{"center":"지산119안전센터","kind":"dispatch","resp_s":346,"yr":2022},"type":"Feature"},{"geometry":{"coordinates":[126.9206,35.1522],"type":"Point"},"properties":{"center":"지산119안전센터","kind":"dispatch","resp_s":602,"yr":2022},"type":"Feature"},{"geometry":{"coordinates":[126.9209,35.1524],"type":"Point"},"properties":{"center":"지산119안전센터","kind":"dispatch","resp_s":318,"yr":2022},"type":"Feature"},{"geometry":{"coordinates":[126.921,35.1527],"type":"Point"},"properties":{"center":"지산119안전센터","kind":"dispatch","resp_s":582,"yr":2022},"type":"Feature"},{"geometry":{"coordinates":[126.9212,35.1531],"type":"Point"},"properties":{"center":"지산119안전센터","kind":"dispatch","resp_s":221,"yr":2022},"type":"Feature"},{"geometry":{"coordinates":[126.9212,35.1547],"type":"Point"},"properties":{"center":"지산119안전센터","kind":"dispatch","resp_s":null,"yr":2022},"type":"Feature"},{"geometry":{"coordinates":[126.9218,35.1508],"type":"Point"},"properties":{"center":"지산119안전센터","kind":"dispatch","resp_s":335,"yr":2022},"type":"Feature"},{"geometry":{"coordinates":[126.922,35.1519],"type":"Point"},"properties":{"center":"지산119안전센터","kind":"dispatch","resp_s":660,"yr":2022},"type":"Feature"},{"geometry":{"coordinates":[126.922,35.1536],"type":"Point"},"properties":{"center":"지산119안전센터","kind":"dispatch","resp_s":480,"yr":2022},"type":"Feature"},{"geometry":{"coordinates":[126.9224,35.1517],"type":"Point"},"properties":{"center":"지산119안전센터","kind":"dispatch","resp_s":536,"yr":2022},"type":"Feature"},{"geometry":{"coordinates":[126.9227,35.1468],"type":"Point"},"properties":{"center":"지산119안전센터","kind":"dispatch","resp_s":361,"yr":2022},"type":"Feature"},{"geometry":{"coordinates":[126.9227,35.1468],"type":"Point"},"properties":{"center":"지산119안전센터","kind":"dispatch","resp_s":448,"yr":2022},"type":"Feature"},{"geometry":{"coordinates":[126.9227,35.1468],"type":"Point"},"properties":{"center":"지산119안전센터","kind":"dispatch","resp_s":null,"yr":2022},"type":"Feature"},{"geometry":{"coordinates":[126.9227,35.1468],"type":"Point"},"properties":{"center":"지산119안전센터","kind":"dispatch","resp_s":170,"yr":2022},"type":"Feature"},{"geometry":{"coordinates":[126.9227,35.1535],"type":"Point"},"properties":{"center":"지산119안전센터","kind":"dispatch","resp_s":494,"yr":2022},"type":"Feature"},{"geometry":{"coordinates":[126.9228,35.1515],"type":"Point"},"properties":{"center":"지산119안전센터","kind":"dispatch","resp_s":511,"yr":2022},"type":"Feature"},{"geometry":{"coordinates":[126.9228,35.1544],"type":"Point"},"properties":{"center":"지산119안전센터","kind":"dispatch","resp_s":528,"yr":2022},"type":"Feature"},{"geometry":{"coordinates":[126.923,35.1506],"type":"Point"},"properties":{"center":"지산119안전센터","kind":"dispatch","resp_s":397,"yr":2022},"type":"Feature"},{"geometry":{"coordinates":[126.9231,35.1534],"type":"Point"},"properties":{"center":"지산119안전센터","kind":"dispatch","resp_s":1357,"yr":2022},"type":"Feature"},{"geometry":{"coordinates":[126.9241,35.1527],"type":"Point"},"properties":{"center":"지산119안전센터","kind":"dispatch","resp_s":386,"yr":2022},"type":"Feature"},{"geometry":{"coordinates":[126.9242,35.15],"type":"Point"},"properties":{"center":"지산119안전센터","kind":"dispatch","resp_s":251,"yr":2022},"type":"Feature"},{"geometry":{"coordinates":[126.9242,35.1517],"type":"Point"},"properties":{"center":"지산119안전센터","kind":"dispatch","resp_s":391,"yr":2022},"type":"Feature"},{"geometry":{"coordinates":[126.9242,35.1525],"type":"Point"},"properties":{"center":"지산119안전센터","kind":"dispatch","resp_s":337,"yr":2022},"type":"Feature"},{"geometry":{"coordinates":[126.9242,35.1528],"type":"Point"},"properties":{"center":"지산119안전센터","kind":"dispatch","resp_s":null,"yr":2022},"type":"Feature"},{"geometry":{"coordinates":[126.9244,35.1492],"type":"Point"},"properties":{"center":"지산119안전센터","kind":"dispatch","resp_s":566,"yr":2022},"type":"Feature"},{"geometry":{"coordinates":[126.9244,35.1525],"type":"Point"},"properties":{"center":"지산119안전센터","kind":"dispatch","resp_s":503,"yr":2022},"type":"Feature"},{"geometry":{"coordinates":[126.9244,35.1529],"type":"Point"},"properties":{"center":"지산119안전센터","kind":"dispatch","resp_s":503,"yr":2022},"type":"Feature"},{"geometry":{"coordinates":[126.9244,35.1532],"type":"Point"},"properties":{"center":"지산119안전센터","kind":"dispatch","resp_s":503,"yr":2022},"type":"Feature"},{"geometry":{"coordinates":[126.9245,35.1504],"type":"Point"},"properties":{"center":"지산119안전센터","kind":"dispatch","resp_s":null,"yr":2022},"type":"Feature"},{"geometry":{"coordinates":[126.9245,35.1504],"type":"Point"},"properties":{"center":"지산119안전센터","kind":"dispatch","resp_s":481,"yr":2022},"type":"Feature"},{"geometry":{"coordinates":[126.9245,35.1504],"type":"Point"},"properties":{"center":"지산119안전센터","kind":"dispatch","resp_s":341,"yr":2022},"type":"Feature"},{"geometry":{"coordinates":[126.9245,35.1504],"type":"Point"},"properties":{"center":"지산119안전센터","kind":"dispatch","resp_s":null,"yr":2022},"type":"Feature"},{"geometry":{"coordinates":[126.9245,35.1504],"type":"Point"},"properties":{"center":"지산119안전센터","kind":"dispatch","resp_s":554,"yr":2022},"type":"Feature"},{"geometry":{"coordinates":[126.9245,35.1519],"type":"Point"},"properties":{"center":"지산119안전센터","kind":"dispatch","resp_s":465,"yr":2022},"type":"Feature"},{"geometry":{"coordinates":[126.9247,35.1531],"type":"Point"},"properties":{"center":"지산119안전센터","kind":"dispatch","resp_s":407,"yr":2022},"type":"Feature"},{"geometry":{"coordinates":[126.9248,35.1529],"type":"Point"},"properties":{"center":"지산119안전센터","kind":"dispatch","resp_s":492,"yr":2022},"type":"Feature"},{"geometry":{"coordinates":[126.9248,35.1529],"type":"Point"},"properties":{"center":"지산119안전센터","kind":"dispatch","resp_s":382,"yr":2022},"type":"Feature"},{"geometry":{"coordinates":[126.9248,35.1529],"type":"Point"},"properties":{"center":"지산119안전센터","kind":"dispatch","resp_s":125,"yr":2022},"type":"Feature"},{"geometry":{"coordinates":[126.9248,35.1529],"type":"Point"},"properties":{"center":"지산119안전센터","kind":"dispatch","resp_s":1329,"yr":2022},"type":"Feature"},{"geometry":{"coordinates":[126.9248,35.1529],"type":"Point"},"properties":{"center":"대인119안전센터","kind":"dispatch","resp_s":302,"yr":2022},"type":"Feature"},{"geometry":{"coordinates":[126.9249,35.1481],"type":"Point"},"properties":{"center":"지산119안전센터","kind":"dispatch","resp_s":362,"yr":2022},"type":"Feature"},{"geometry":{"coordinates":[126.925,35.1508],"type":"Point"},"properties":{"center":"지산119안전센터","kind":"dispatch","resp_s":329,"yr":2022},"type":"Feature"},{"geometry":{"coordinates":[126.9252,35.1519],"type":"Point"},"properties":{"center":"지산119안전센터","kind":"dispatch","resp_s":300,"yr":2022},"type":"Feature"},{"geometry":{"coordinates":[126.9255,35.1529],"type":"Point"},"properties":{"center":"지산119안전센터","kind":"dispatch","resp_s":318,"yr":2022},"type":"Feature"},{"geometry":{"coordinates":[126.9258,35.1492],"type":"Point"},"properties":{"center":"지산119안전센터","kind":"dispatch","resp_s":436,"yr":2022},"type":"Feature"},{"geometry":{"coordinates":[126.926,35.1491],"type":"Point"},"properties":{"center":"지산119안전센터","kind":"dispatch","resp_s":506,"yr":2022},"type":"Feature"},{"geometry":{"coordinates":[126.926,35.1491],"type":"Point"},"properties":{"center":"지산119안전센터","kind":"dispatch","resp_s":332,"yr":2022},"type":"Feature"},{"geometry":{"coordinates":[126.9261,35.1511],"type":"Point"},"properties":{"center":"지산119안전센터","kind":"dispatch","resp_s":360,"yr":2022},"type":"Feature"},{"geometry":{"coordinates":[126.9263,35.148],"type":"Point"},"properties":{"center":"지산119안전센터","kind":"dispatch","resp_s":472,"yr":2022},"type":"Feature"},{"geometry":{"coordinates":[126.9263,35.1514],"type":"Point"},"properties":{"center":"지산119안전센터","kind":"dispatch","resp_s":95,"yr":2022},"type":"Feature"},{"geometry":{"coordinates":[126.9264,35.145],"type":"Point"},"properties":{"center":"지산119안전센터","kind":"dispatch","resp_s":447,"yr":2022},"type":"Feature"},{"geometry":{"coordinates":[126.9264,35.1472],"type":"Point"},"properties":{"center":"지산119안전센터","kind":"dispatch","resp_s":573,"yr":2022},"type":"Feature"},{"geometry":{"coordinates":[126.9264,35.1474],"type":"Point"},"properties":{"center":"지산119안전센터","kind":"dispatch","resp_s":null,"yr":2022},"type":"Feature"},{"geometry":{"coordinates":[126.9267,35.1492],"type":"Point"},"properties":{"center":"지산119안전센터","kind":"dispatch","resp_s":null,"yr":2022},"type":"Feature"},{"geometry":{"coordinates":[126.9267,35.1494],"type":"Point"},"properties":{"center":"지산119안전센터","kind":"dispatch","resp_s":433,"yr":2022},"type":"Feature"},{"geometry":{"coordinates":[126.9271,35.1519],"type":"Point"},"properties":{"center":"지산119안전센터","kind":"dispatch","resp_s":502,"yr":2022},"type":"Feature"},{"geometry":{"coordinates":[126.9272,35.1469],"type":"Point"},"properties":{"center":"지산119안전센터","kind":"dispatch","resp_s":463,"yr":2022},"type":"Feature"},{"geometry":{"coordinates":[126.9272,35.1517],"type":"Point"},"properties":{"center":"지산119안전센터","kind":"dispatch","resp_s":null,"yr":2022},"type":"Feature"},{"geometry":{"coordinates":[126.9277,35.1518],"type":"Point"},"properties":{"center":"지산119안전센터","kind":"dispatch","resp_s":386,"yr":2022},"type":"Feature"},{"geometry":{"coordinates":[126.9278,35.1495],"type":"Point"},"properties":{"center":"지산119안전센터","kind":"dispatch","resp_s":null,"yr":2022},"type":"Feature"},{"geometry":{"coordinates":[126.928,35.147],"type":"Point"},"properties":{"center":"지산119안전센터","kind":"dispatch","resp_s":514,"yr":2022},"type":"Feature"},{"geometry":{"coordinates":[126.9281,35.1483],"type":"Point"},"properties":{"center":"지산119안전센터","kind":"dispatch","resp_s":1682,"yr":2022},"type":"Feature"},{"geometry":{"coordinates":[126.9283,35.1461],"type":"Point"},"properties":{"center":"지산119안전센터","kind":"dispatch","resp_s":258,"yr":2022},"type":"Feature"},{"geometry":{"coordinates":[126.9284,35.147],"type":"Point"},"properties":{"center":"지산119안전센터","kind":"dispatch","resp_s":604,"yr":2022},"type":"Feature"},{"geometry":{"coordinates":[126.9284,35.147],"type":"Point"},"properties":{"center":"지산119안전센터","kind":"dispatch","resp_s":996,"yr":2022},"type":"Feature"},{"geometry":{"coordinates":[126.9284,35.147],"type":"Point"},"properties":{"center":"지산119안전센터","kind":"dispatch","resp_s":494,"yr":2022},"type":"Feature"},{"geometry":{"coordinates":[126.9289,35.1469],"type":"Point"},"properties":{"center":"지산119안전센터","kind":"dispatch","resp_s":488,"yr":2022},"type":"Feature"},{"geometry":{"coordinates":[126.929,35.1486],"type":"Point"},"properties":{"center":"지산119안전센터","kind":"dispatch","resp_s":456,"yr":2022},"type":"Feature"},{"geometry":{"coordinates":[126.929,35.1489],"type":"Point"},"properties":{"center":"지산119안전센터","kind":"dispatch","resp_s":755,"yr":2022},"type":"Feature"},{"geometry":{"coordinates":[126.9291,35.1579],"type":"Point"},"properties":{"center":"지산119안전센터","kind":"dispatch","resp_s":488,"yr":2022},"type":"Feature"},{"geometry":{"coordinates":[126.9294,35.1496],"type":"Point"},"properties":{"center":"지산119안전센터","kind":"dispatch","resp_s":352,"yr":2022},"type":"Feature"},{"geometry":{"coordinates":[126.9294,35.1497],"type":"Point"},"properties":{"center":"지산119안전센터","kind":"dispatch","resp_s":372,"yr":2022},"type":"Feature"},{"geometry":{"coordinates":[126.9295,35.1491],"type":"Point"},"properties":{"center":"지산119안전센터","kind":"dispatch","resp_s":365,"yr":2022},"type":"Feature"},{"geometry":{"coordinates":[126.9296,35.1492],"type":"Point"},"properties":{"center":"지산119안전센터","kind":"dispatch","resp_s":409,"yr":2022},"type":"Feature"},{"geometry":{"coordinates":[126.9303,35.1501],"type":"Point"},"properties":{"center":"지산119안전센터","kind":"dispatch","resp_s":382,"yr":2022},"type":"Feature"},{"geometry":{"coordinates":[126.9305,35.1494],"type":"Point"},"properties":{"center":"지산119안전센터","kind":"dispatch","resp_s":327,"yr":2022},"type":"Feature"},{"geometry":{"coordinates":[126.9328,35.1493],"type":"Point"},"properties":{"center":"지산119안전센터","kind":"dispatch","resp_s":427,"yr":2022},"type":"Feature"},{"geometry":{"coordinates":[126.9336,35.1508],"type":"Point"},"properties":{"center":"지산119안전센터","kind":"dispatch","resp_s":316,"yr":2022},"type":"Feature"},{"geometry":{"coordinates":[126.9164,35.1576],"type":"Point"},"properties":{"center":"지산119안전센터","kind":"dispatch","resp_s":535,"yr":2023},"type":"Feature"},{"geometry":{"coordinates":[126.9191,35.1443],"type":"Point"},"properties":{"center":"지산119안전센터","kind":"dispatch","resp_s":null,"yr":2023},"type":"Feature"},{"geometry":{"coordinates":[126.9195,35.1532],"type":"Point"},"properties":{"center":"지산119안전센터","kind":"dispatch","resp_s":null,"yr":2023},"type":"Feature"},{"geometry":{"coordinates":[126.9196,35.1509],"type":"Point"},"properties":{"center":"지산119안전센터","kind":"dispatch","resp_s":null,"yr":2023},"type":"Feature"},{"geometry":{"coordinates":[126.92,35.1501],"type":"Point"},"properties":{"center":"지산119안전센터","kind":"dispatch","resp_s":390,"yr":2023},"type":"Feature"},{"geometry":{"coordinates":[126.92,35.1534],"type":"Point"},"properties":{"center":"지산119안전센터","kind":"dispatch","resp_s":359,"yr":2023},"type":"Feature"},{"geometry":{"coordinates":[126.9205,35.1535],"type":"Point"},"properties":{"center":"지산119안전센터","kind":"dispatch","resp_s":236,"yr":2023},"type":"Feature"},{"geometry":{"coordinates":[126.9214,35.15],"type":"Point"},"properties":{"center":"지산119안전센터","kind":"dispatch","resp_s":null,"yr":2023},"type":"Feature"},{"geometry":{"coordinates":[126.9224,35.152],"type":"Point"},"properties":{"center":"지산119안전센터","kind":"dispatch","resp_s":null,"yr":2023},"type":"Feature"},{"geometry":{"coordinates":[126.9227,35.1533],"type":"Point"},"properties":{"center":"지산119안전센터","kind":"dispatch","resp_s":null,"yr":2023},"type":"Feature"},{"geometry":{"coordinates":[126.923,35.1506],"type":"Point"},"properties":{"center":"지산119안전센터","kind":"dispatch","resp_s":null,"yr":2023},"type":"Feature"},{"geometry":{"coordinates":[126.923,35.1506],"type":"Point"},"properties":{"center":"지산119안전센터","kind":"dispatch","resp_s":null,"yr":2023},"type":"Feature"},{"geometry":{"coordinates":[126.923,35.1506],"type":"Point"},"properties":{"center":"지산119안전센터","kind":"dispatch","resp_s":null,"yr":2023},"type":"Feature"},{"geometry":{"coordinates":[126.923,35.1506],"type":"Point"},"properties":{"center":"지산119안전센터","kind":"dispatch","resp_s":null,"yr":2023},"type":"Feature"},{"geometry":{"coordinates":[126.9235,35.1508],"type":"Point"},"properties":{"center":"지산119안전센터","kind":"dispatch","resp_s":null,"yr":2023},"type":"Feature"},{"geometry":{"coordinates":[126.924,35.1499],"type":"Point"},"properties":{"center":"지산119안전센터","kind":"dispatch","resp_s":85,"yr":2023},"type":"Feature"},{"geometry":{"coordinates":[126.9242,35.1502],"type":"Point"},"properties":{"center":"지산119안전센터","kind":"dispatch","resp_s":null,"yr":2023},"type":"Feature"},{"geometry":{"coordinates":[126.9242,35.1522],"type":"Point"},"properties":{"center":"지산119안전센터","kind":"dispatch","resp_s":413,"yr":2023},"type":"Feature"},{"geometry":{"coordinates":[126.9243,35.1495],"type":"Point"},"properties":{"center":"지산119안전센터","kind":"dispatch","resp_s":null,"yr":2023},"type":"Feature"},{"geometry":{"coordinates":[126.9244,35.1492],"type":"Point"},"properties":{"center":"지산119안전센터","kind":"dispatch","resp_s":null,"yr":2023},"type":"Feature"},{"geometry":{"coordinates":[126.9244,35.1508],"type":"Point"},"properties":{"center":"지산119안전센터","kind":"dispatch","resp_s":null,"yr":2023},"type":"Feature"},{"geometry":{"coordinates":[126.9244,35.1527],"type":"Point"},"properties":{"center":"지산119안전센터","kind":"dispatch","resp_s":399,"yr":2023},"type":"Feature"},{"geometry":{"coordinates":[126.9245,35.1504],"type":"Point"},"properties":{"center":"지산119안전센터","kind":"dispatch","resp_s":null,"yr":2023},"type":"Feature"},{"geometry":{"coordinates":[126.9246,35.1517],"type":"Point"},"properties":{"center":"지산119안전센터","kind":"dispatch","resp_s":null,"yr":2023},"type":"Feature"},{"geometry":{"coordinates":[126.9247,35.1511],"type":"Point"},"properties":{"center":"지산119안전센터","kind":"dispatch","resp_s":null,"yr":2023},"type":"Feature"},{"geometry":{"coordinates":[126.9248,35.1529],"type":"Point"},"properties":{"center":"지산119안전센터","kind":"dispatch","resp_s":372,"yr":2023},"type":"Feature"},{"geometry":{"coordinates":[126.9248,35.1529],"type":"Point"},"properties":{"center":"지산119안전센터","kind":"dispatch","resp_s":399,"yr":2023},"type":"Feature"},{"geometry":{"coordinates":[126.9248,35.1529],"type":"Point"},"properties":{"center":"지산119안전센터","kind":"dispatch","resp_s":423,"yr":2023},"type":"Feature"},{"geometry":{"coordinates":[126.925,35.1533],"type":"Point"},"properties":{"center":"지산119안전센터","kind":"dispatch","resp_s":null,"yr":2023},"type":"Feature"},{"geometry":{"coordinates":[126.9255,35.1438],"type":"Point"},"properties":{"center":"지산119안전센터","kind":"dispatch","resp_s":null,"yr":2023},"type":"Feature"},{"geometry":{"coordinates":[126.9257,35.1515],"type":"Point"},"properties":{"center":"지산119안전센터","kind":"dispatch","resp_s":null,"yr":2023},"type":"Feature"},{"geometry":{"coordinates":[126.9257,35.1515],"type":"Point"},"properties":{"center":"지산119안전센터","kind":"dispatch","resp_s":null,"yr":2023},"type":"Feature"},{"geometry":{"coordinates":[126.926,35.1491],"type":"Point"},"properties":{"center":"지산119안전센터","kind":"dispatch","resp_s":321,"yr":2023},"type":"Feature"},{"geometry":{"coordinates":[126.9261,35.1511],"type":"Point"},"properties":{"center":"지산119안전센터","kind":"dispatch","resp_s":303,"yr":2023},"type":"Feature"},{"geometry":{"coordinates":[126.9263,35.1514],"type":"Point"},"properties":{"center":"지산119안전센터","kind":"dispatch","resp_s":null,"yr":2023},"type":"Feature"},{"geometry":{"coordinates":[126.9266,35.1507],"type":"Point"},"properties":{"center":"지산119안전센터","kind":"dispatch","resp_s":null,"yr":2023},"type":"Feature"},{"geometry":{"coordinates":[126.9267,35.1483],"type":"Point"},"properties":{"center":"대인119안전센터","kind":"dispatch","resp_s":null,"yr":2023},"type":"Feature"},{"geometry":{"coordinates":[126.927,35.1521],"type":"Point"},"properties":{"center":"지산119안전센터","kind":"dispatch","resp_s":null,"yr":2023},"type":"Feature"},{"geometry":{"coordinates":[126.9274,35.1536],"type":"Point"},"properties":{"center":"지산119안전센터","kind":"dispatch","resp_s":null,"yr":2023},"type":"Feature"},{"geometry":{"coordinates":[126.9278,35.148],"type":"Point"},"properties":{"center":"지산119안전센터","kind":"dispatch","resp_s":null,"yr":2023},"type":"Feature"},{"geometry":{"coordinates":[126.9278,35.148],"type":"Point"},"properties":{"center":"지산119안전센터","kind":"dispatch","resp_s":null,"yr":2023},"type":"Feature"},{"geometry":{"coordinates":[126.9279,35.1469],"type":"Point"},"properties":{"center":"지산119안전센터","kind":"dispatch","resp_s":357,"yr":2023},"type":"Feature"},{"geometry":{"coordinates":[126.9281,35.1548],"type":"Point"},"properties":{"center":"지산119안전센터","kind":"dispatch","resp_s":null,"yr":2023},"type":"Feature"},{"geometry":{"coordinates":[126.9289,35.1469],"type":"Point"},"properties":{"center":"지산119안전센터","kind":"dispatch","resp_s":null,"yr":2023},"type":"Feature"},{"geometry":{"coordinates":[126.929,35.1471],"type":"Point"},"properties":{"center":"지산119안전센터","kind":"dispatch","resp_s":null,"yr":2023},"type":"Feature"},{"geometry":{"coordinates":[126.929,35.1474],"type":"Point"},"properties":{"center":"지산119안전센터","kind":"dispatch","resp_s":null,"yr":2023},"type":"Feature"},{"geometry":{"coordinates":[126.9294,35.149],"type":"Point"},"properties":{"center":"지산119안전센터","kind":"dispatch","resp_s":null,"yr":2023},"type":"Feature"},{"geometry":{"coordinates":[126.9298,35.1475],"type":"Point"},"properties":{"center":"지산119안전센터","kind":"dispatch","resp_s":null,"yr":2023},"type":"Feature"},{"geometry":{"coordinates":[126.920837,35.152367],"type":"Point"},"properties":{"center":"지산119안전센터","kind":"rescue","place":"연립·다세대주택","resp_s":540,"yr":2019},"type":"Feature"},{"geometry":{"coordinates":[126.920837,35.152367],"type":"Point"},"properties":{"center":"대인119안전센터","kind":"rescue","place":"기타 공동주택","resp_s":480,"yr":2019},"type":"Feature"},{"geometry":{"coordinates":[126.921105,35.154803],"type":"Point"},"properties":{"center":"동부119구조대","kind":"rescue","place":"일반도로(기타)","resp_s":180,"yr":2019},"type":"Feature"},{"geometry":{"coordinates":[126.921155,35.152128],"type":"Point"},"properties":{"center":"지산119안전센터","kind":"rescue","place":"기타 단독주택","resp_s":480,"yr":2019},"type":"Feature"},{"geometry":{"coordinates":[126.921155,35.152128],"type":"Point"},"properties":{"center":"지산119안전센터","kind":"rescue","place":"단독주택","resp_s":480,"yr":2019},"type":"Feature"},{"geometry":{"coordinates":[126.921158,35.152124],"type":"Point"},"properties":{"center":"지산119안전센터","kind":"rescue","place":"단독주택","resp_s":660,"yr":2019},"type":"Feature"},{"geometry":{"coordinates":[126.92214,35.153759],"type":"Point"},"properties":{"center":"지산119안전센터","kind":"rescue","place":"단독주택","resp_s":1440,"yr":2019},"type":"Feature"},{"geometry":{"coordinates":[126.922168,35.151354],"type":"Point"},"properties":{"center":"동부119구조대","kind":"rescue","place":"아파트","resp_s":240,"yr":2019},"type":"Feature"},{"geometry":{"coordinates":[126.922536,35.152494],"type":"Point"},"properties":{"center":"지산119안전센터","kind":"rescue","place":"단독주택","resp_s":480,"yr":2019},"type":"Feature"},{"geometry":{"coordinates":[126.922536,35.152494],"type":"Point"},"properties":{"center":"지산119안전센터","kind":"rescue","place":"단독주택","resp_s":720,"yr":2019},"type":"Feature"},{"geometry":{"coordinates":[126.923014,35.152994],"type":"Point"},"properties":{"center":"지산119안전센터","kind":"rescue","place":"아파트","resp_s":540,"yr":2019},"type":"Feature"},{"geometry":{"coordinates":[126.923172,35.152736],"type":"Point"},"properties":{"center":"지산119안전센터","kind":"rescue","place":"단독주택","resp_s":300,"yr":2019},"type":"Feature"},{"geometry":{"coordinates":[126.923354,35.151041],"type":"Point"},"properties":{"center":"동부119구조대","kind":"rescue","place":"기타","resp_s":null,"yr":2019},"type":"Feature"},{"geometry":{"coordinates":[126.923508,35.150927],"type":"Point"},"properties":{"center":"지산119안전센터","kind":"rescue","place":"일반도로(기타)","resp_s":480,"yr":2019},"type":"Feature"},{"geometry":{"coordinates":[126.923539,35.150486],"type":"Point"},"properties":{"center":"지산119안전센터","kind":"rescue","place":"기타","resp_s":660,"yr":2019},"type":"Feature"},{"geometry":{"coordinates":[126.923753,35.150349],"type":"Point"},"properties":{"center":"동부119구조대","kind":"rescue","place":"단독주택","resp_s":240,"yr":2019},"type":"Feature"},{"geometry":{"coordinates":[126.923832,35.151189],"type":"Point"},"properties":{"center":"동부119구조대","kind":"rescue","place":"단독주택","resp_s":240,"yr":2019},"type":"Feature"},{"geometry":{"coordinates":[126.924095,35.149813],"type":"Point"},"properties":{"center":"동부119구조대","kind":"rescue","place":"기타 판매시설","resp_s":120,"yr":2019},"type":"Feature"},{"geometry":{"coordinates":[126.924416,35.151399],"type":"Point"},"properties":{"center":"지산119안전센터","kind":"rescue","place":"단독주택","resp_s":480,"yr":2019},"type":"Feature"},{"geometry":{"coordinates":[126.924524,35.152163],"type":"Point"},"properties":{"center":"지산119안전센터","kind":"rescue","place":"단독주택","resp_s":480,"yr":2019},"type":"Feature"},{"geometry":{"coordinates":[126.924966,35.149066],"type":"Point"},"properties":{"center":"지산119안전센터","kind":"rescue","place":"기타 판매시설","resp_s":360,"yr":2019},"type":"Feature"},{"geometry":{"coordinates":[126.925174,35.152377],"type":"Point"},"properties":{"center":"지산119안전센터","kind":"rescue","place":"연립·다세대주택","resp_s":600,"yr":2019},"type":"Feature"},{"geometry":{"coordinates":[126.925411,35.149096],"type":"Point"},"properties":{"center":"지산119안전센터","kind":"rescue","place":"단독주택","resp_s":420,"yr":2019},"type":"Feature"},{"geometry":{"coordinates":[126.92563,35.149047],"type":"Point"},"properties":{"center":"지산119안전센터","kind":"rescue","place":"단독주택","resp_s":300,"yr":2019},"type":"Feature"},{"geometry":{"coordinates":[126.92576,35.148232],"type":"Point"},"properties":{"center":"지산119안전센터","kind":"rescue","place":"공공업무시설","resp_s":480,"yr":2019},"type":"Feature"},{"geometry":{"coordinates":[126.926059,35.149561],"type":"Point"},"properties":{"center":"동부119구조대","kind":"rescue","place":"단독주택","resp_s":300,"yr":2019},"type":"Feature"},{"geometry":{"coordinates":[126.926088,35.147441],"type":"Point"},"properties":{"center":"동부119구조대","kind":"rescue","place":"기타 공동주택","resp_s":360,"yr":2019},"type":"Feature"},{"geometry":{"coordinates":[126.9261,35.14956],"type":"Point"},"properties":{"center":"동부119구조대","kind":"rescue","place":"단독주택","resp_s":360,"yr":2019},"type":"Feature"},{"geometry":{"coordinates":[126.926547,35.151648],"type":"Point"},"properties":{"center":"동부119구조대","kind":"rescue","place":"한방병원","resp_s":240,"yr":2019},"type":"Feature"},{"geometry":{"coordinates":[126.926547,35.151648],"type":"Point"},"properties":{"center":"지산119안전센터","kind":"rescue","place":"한방병원","resp_s":420,"yr":2019},"type":"Feature"},{"geometry":{"coordinates":[126.926547,35.151648],"type":"Point"},"properties":{"center":"지산119안전센터","kind":"rescue","place":"한방병원","resp_s":300,"yr":2019},"type":"Feature"},{"geometry":{"coordinates":[126.926547,35.151648],"type":"Point"},"properties":{"center":"지산119안전센터","kind":"rescue","place":"한방병원","resp_s":360,"yr":2019},"type":"Feature"},{"geometry":{"coordinates":[126.926598,35.151699],"type":"Point"},"properties":{"center":"지산119안전센터","kind":"rescue","place":"한방병원","resp_s":360,"yr":2019},"type":"Feature"},{"geometry":{"coordinates":[126.926668,35.151523],"type":"Point"},"properties":{"center":"지산119안전센터","kind":"rescue","place":"한방병원","resp_s":540,"yr":2019},"type":"Feature"},{"geometry":{"coordinates":[126.926923,35.151375],"type":"Point"},"properties":{"center":"지산119안전센터","kind":"rescue","place":"기타","resp_s":420,"yr":2019},"type":"Feature"},{"geometry":{"coordinates":[126.92714,35.146984],"type":"Point"},"properties":{"center":"동부119구조대","kind":"rescue","place":"기타 단독주택","resp_s":300,"yr":2019},"type":"Feature"},{"geometry":{"coordinates":[126.927165,35.14925],"type":"Point"},"properties":{"center":"지산119안전센터","kind":"rescue","place":"기타 공동주택","resp_s":360,"yr":2019},"type":"Feature"},{"geometry":{"coordinates":[126.927381,35.150659],"type":"Point"},"properties":{"center":"동부119구조대","kind":"rescue","place":"다가구주택","resp_s":300,"yr":2019},"type":"Feature"},{"geometry":{"coordinates":[126.92792,35.146895],"type":"Point"},"properties":{"center":"동부119구조대","kind":"rescue","place":"기타","resp_s":420,"yr":2019},"type":"Feature"},{"geometry":{"coordinates":[126.928014,35.146765],"type":"Point"},"properties":{"center":"지산119안전센터","kind":"rescue","place":"기숙사","resp_s":480,"yr":2019},"type":"Feature"},{"geometry":{"coordinates":[126.928165,35.146584],"type":"Point"},"properties":{"center":"지산119안전센터","kind":"rescue","place":"단독주택","resp_s":360,"yr":2019},"type":"Feature"},{"geometry":{"coordinates":[126.9283,35.147233],"type":"Point"},"properties":{"center":"동부119구조대","kind":"rescue","place":"기타 공동주택","resp_s":360,"yr":2019},"type":"Feature"},{"geometry":{"coordinates":[126.9283,35.147233],"type":"Point"},"properties":{"center":"서부119구조대","kind":"rescue","place":"기타 공동주택","resp_s":360,"yr":2019},"type":"Feature"},{"geometry":{"coordinates":[126.92865,35.148882],"type":"Point"},"properties":{"center":"지산119안전센터","kind":"rescue","place":"개인상점","resp_s":240,"yr":2019},"type":"Feature"},{"geometry":{"coordinates":[126.928921,35.147451],"type":"Point"},"properties":{"center":"지산119안전센터","kind":"rescue","place":"기타 공동주택","resp_s":240,"yr":2019},"type":"Feature"},{"geometry":{"coordinates":[126.928996,35.147318],"type":"Point"},"properties":{"center":"지산119안전센터","kind":"rescue","place":"기타 숙박시설","resp_s":540,"yr":2019},"type":"Feature"},{"geometry":{"coordinates":[126.928996,35.147318],"type":"Point"},"properties":{"center":"동부119구조대","kind":"rescue","place":"기타 공동주택","resp_s":360,"yr":2019},"type":"Feature"},{"geometry":{"coordinates":[126.929011,35.147407],"type":"Point"},"properties":{"center":"지산119안전센터","kind":"rescue","place":"기타 숙박시설","resp_s":300,"yr":2019},"type":"Feature"},{"geometry":{"coordinates":[126.929072,35.147443],"type":"Point"},"properties":{"center":"지산119안전센터","kind":"rescue","place":"기타 공동주택","resp_s":420,"yr":2019},"type":"Feature"},{"geometry":{"coordinates":[126.929112,35.147991],"type":"Point"},"properties":{"center":"동부119구조대","kind":"rescue","place":"연립·다세대주택","resp_s":300,"yr":2019},"type":"Feature"},{"geometry":{"coordinates":[126.929112,35.147991],"type":"Point"},"properties":{"center":"특수구조대","kind":"rescue","place":"기타 숙박시설","resp_s":300,"yr":2019},"type":"Feature"},{"geometry":{"coordinates":[126.929178,35.150045],"type":"Point"},"properties":{"center":"지산119안전센터","kind":"rescue","place":"단독주택","resp_s":960,"yr":2019},"type":"Feature"},{"geometry":{"coordinates":[126.92923,35.149764],"type":"Point"},"properties":{"center":"동부119구조대","kind":"rescue","place":"일반도로(기타)","resp_s":300,"yr":2019},"type":"Feature"},{"geometry":{"coordinates":[126.929239,35.147656],"type":"Point"},"properties":{"center":"동부119구조대","kind":"rescue","place":"다가구주택","resp_s":240,"yr":2019},"type":"Feature"},{"geometry":{"coordinates":[126.929498,35.149543],"type":"Point"},"properties":{"center":"지산119안전센터","kind":"rescue","place":"일반도로(기타)","resp_s":240,"yr":2019},"type":"Feature"},{"geometry":{"coordinates":[126.929682,35.147991],"type":"Point"},"properties":{"center":"동부119구조대","kind":"rescue","place":"기타 공동주택","resp_s":420,"yr":2019},"type":"Feature"},{"geometry":{"coordinates":[126.9298,35.147569],"type":"Point"},"properties":{"center":"지산119안전센터","kind":"rescue","place":"단독주택","resp_s":420,"yr":2019},"type":"Feature"},{"geometry":{"coordinates":[126.9298,35.147569],"type":"Point"},"properties":{"center":"지산119안전센터","kind":"rescue","place":"단독주택","resp_s":660,"yr":2019},"type":"Feature"},{"geometry":{"coordinates":[126.930085,35.149127],"type":"Point"},"properties":{"center":"지산119안전센터","kind":"rescue","place":"연립·다세대주택","resp_s":360,"yr":2019},"type":"Feature"},{"geometry":{"coordinates":[126.914805,35.154494],"type":"Point"},"properties":{"center":"동부119구조대","kind":"rescue","place":"기타","resp_s":240,"yr":2020},"type":"Feature"},{"geometry":{"coordinates":[126.920278,35.153832],"type":"Point"},"properties":{"center":"지산119안전센터","kind":"rescue","place":"주상복합아파트","resp_s":900,"yr":2020},"type":"Feature"},{"geometry":{"coordinates":[126.920353,35.153661],"type":"Point"},"properties":{"center":"동부119구조대","kind":"rescue","place":"아파트","resp_s":120,"yr":2020},"type":"Feature"},{"geometry":{"coordinates":[126.920582,35.153869],"type":"Point"},"properties":{"center":"동부119구조대","kind":"rescue","place":"단독주택","resp_s":1320,"yr":2020},"type":"Feature"},{"geometry":{"coordinates":[126.920648,35.152708],"type":"Point"},"properties":{"center":"대인119안전센터","kind":"rescue","place":"일반도로(기타)","resp_s":1740,"yr":2020},"type":"Feature"},{"geometry":{"coordinates":[126.920714,35.15228],"type":"Point"},"properties":{"center":"지산119안전센터","kind":"rescue","place":"연립·다세대주택","resp_s":780,"yr":2020},"type":"Feature"},{"geometry":{"coordinates":[126.920982,35.152189],"type":"Point"},"properties":{"center":"동부119구조대","kind":"rescue","place":"기타 단독주택","resp_s":240,"yr":2020},"type":"Feature"},{"geometry":{"coordinates":[126.920983,35.152531],"type":"Point"},"properties":{"center":"지산119안전센터","kind":"rescue","place":"일반도로(기타)","resp_s":420,"yr":2020},"type":"Feature"},{"geometry":{"coordinates":[126.921506,35.153709],"type":"Point"},"properties":{"center":"지산119안전센터","kind":"rescue","place":"지하맨홀","resp_s":600,"yr":2020},"type":"Feature"},{"geometry":{"coordinates":[126.921507,35.153925],"type":"Point"},"properties":{"center":"지산119안전센터","kind":"rescue","place":"단독주택","resp_s":540,"yr":2020},"type":"Feature"},{"geometry":{"coordinates":[126.921579,35.152719],"type":"Point"},"properties":{"center":"지산119안전센터","kind":"rescue","place":"단독주택","resp_s":360,"yr":2020},"type":"Feature"},{"geometry":{"coordinates":[126.921735,35.154949],"type":"Point"},"properties":{"center":"대인119안전센터","kind":"rescue","place":"단독주택","resp_s":360,"yr":2020},"type":"Feature"},{"geometry":{"coordinates":[126.922168,35.151354],"type":"Point"},"properties":{"center":"지산119안전센터","kind":"rescue","place":"단독주택","resp_s":540,"yr":2020},"type":"Feature"},{"geometry":{"coordinates":[126.922168,35.151354],"type":"Point"},"properties":{"center":"지산119안전센터","kind":"rescue","place":"단독주택","resp_s":420,"yr":2020},"type":"Feature"},{"geometry":{"coordinates":[126.922245,35.152075],"type":"Point"},"properties":{"center":"지산119안전센터","kind":"rescue","place":"단독주택","resp_s":1140,"yr":2020},"type":"Feature"},{"geometry":{"coordinates":[126.922388,35.151587],"type":"Point"},"properties":{"center":"동부119구조대","kind":"rescue","place":"기타","resp_s":240,"yr":2020},"type":"Feature"},{"geometry":{"coordinates":[126.922591,35.153909],"type":"Point"},"properties":{"center":"지산119안전센터","kind":"rescue","place":"단독주택","resp_s":900,"yr":2020},"type":"Feature"},{"geometry":{"coordinates":[126.923168,35.151407],"type":"Point"},"properties":{"center":"지산119안전센터","kind":"rescue","place":"개인상점","resp_s":240,"yr":2020},"type":"Feature"},{"geometry":{"coordinates":[126.923486,35.153562],"type":"Point"},"properties":{"center":"동부119구조대","kind":"rescue","place":"단독주택","resp_s":240,"yr":2020},"type":"Feature"},{"geometry":{"coordinates":[126.9235,35.15015],"type":"Point"},"properties":{"center":"동부119구조대","kind":"rescue","place":"연립·다세대주택","resp_s":420,"yr":2020},"type":"Feature"},{"geometry":{"coordinates":[126.923647,35.153022],"type":"Point"},"properties":{"center":"동부119구조대","kind":"rescue","place":"기타 단독주택","resp_s":240,"yr":2020},"type":"Feature"},{"geometry":{"coordinates":[126.923787,35.152221],"type":"Point"},"properties":{"center":"지산119안전센터","kind":"rescue","place":"아파트","resp_s":420,"yr":2020},"type":"Feature"},{"geometry":{"coordinates":[126.923804,35.152803],"type":"Point"},"properties":{"center":"지산119안전센터","kind":"rescue","place":"단독주택","resp_s":480,"yr":2020},"type":"Feature"},{"geometry":{"coordinates":[126.923804,35.152803],"type":"Point"},"properties":{"center":"지산119안전센터","kind":"rescue","place":"공가","resp_s":120,"yr":2020},"type":"Feature"},{"geometry":{"coordinates":[126.924132,35.151825],"type":"Point"},"properties":{"center":"지산119안전센터","kind":"rescue","place":"일반도로(기타)","resp_s":900,"yr":2020},"type":"Feature"},{"geometry":{"coordinates":[126.924243,35.153119],"type":"Point"},"properties":{"center":"북부119구조대","kind":"rescue","place":"기타 판매시설","resp_s":240,"yr":2020},"type":"Feature"},{"geometry":{"coordinates":[126.924369,35.150484],"type":"Point"},"properties":{"center":"동부119구조대","kind":"rescue","place":"노인복지지설","resp_s":240,"yr":2020},"type":"Feature"},{"geometry":{"coordinates":[126.925018,35.151784],"type":"Point"},"properties":{"center":"동부119구조대","kind":"rescue","place":"기타 공동주택","resp_s":240,"yr":2020},"type":"Feature"},{"geometry":{"coordinates":[126.925018,35.151784],"type":"Point"},"properties":{"center":"특수구조대","kind":"rescue","place":"기타 공동주택","resp_s":240,"yr":2020},"type":"Feature"},{"geometry":{"coordinates":[126.925592,35.1475],"type":"Point"},"properties":{"center":"지산119안전센터","kind":"rescue","place":"초등학교","resp_s":960,"yr":2020},"type":"Feature"},{"geometry":{"coordinates":[126.925998,35.149031],"type":"Point"},"properties":{"center":"지산119안전센터","kind":"rescue","place":"단독주택","resp_s":1140,"yr":2020},"type":"Feature"},{"geometry":{"coordinates":[126.926115,35.151229],"type":"Point"},"properties":{"center":"동부119구조대","kind":"rescue","place":"목욕탕·사우나","resp_s":240,"yr":2020},"type":"Feature"},{"geometry":{"coordinates":[126.926125,35.151584],"type":"Point"},"properties":{"center":"지산119안전센터","kind":"rescue","place":"개인상점","resp_s":600,"yr":2020},"type":"Feature"},{"geometry":{"coordinates":[126.926201,35.151299],"type":"Point"},"properties":{"center":"동부119구조대","kind":"rescue","place":"연립·다세대주택","resp_s":360,"yr":2020},"type":"Feature"},{"geometry":{"coordinates":[126.926304,35.151205],"type":"Point"},"properties":{"center":"지산119안전센터","kind":"rescue","place":"연립·다세대주택","resp_s":780,"yr":2020},"type":"Feature"},{"geometry":{"coordinates":[126.926506,35.151184],"type":"Point"},"properties":{"center":"지산119안전센터","kind":"rescue","place":"기타","resp_s":1380,"yr":2020},"type":"Feature"},{"geometry":{"coordinates":[126.926511,35.151207],"type":"Point"},"properties":{"center":"지산119안전센터","kind":"rescue","place":"기타","resp_s":1320,"yr":2020},"type":"Feature"},{"geometry":{"coordinates":[126.926827,35.151828],"type":"Point"},"properties":{"center":"지산119안전센터","kind":"rescue","place":"단독주택","resp_s":900,"yr":2020},"type":"Feature"},{"geometry":{"coordinates":[126.927188,35.14937],"type":"Point"},"properties":{"center":"지산119안전센터","kind":"rescue","place":"단독주택","resp_s":780,"yr":2020},"type":"Feature"},{"geometry":{"coordinates":[126.9272,35.1469],"type":"Point"},"properties":{"center":"동부119구조대","kind":"rescue","place":"기타 판매시설","resp_s":600,"yr":2020},"type":"Feature"},{"geometry":{"coordinates":[126.92757,35.150762],"type":"Point"},"properties":{"center":"동부119구조대","kind":"rescue","place":"단독주택","resp_s":360,"yr":2020},"type":"Feature"},{"geometry":{"coordinates":[126.92757,35.150762],"type":"Point"},"properties":{"center":"동부119구조대","kind":"rescue","place":"단독주택","resp_s":240,"yr":2020},"type":"Feature"},{"geometry":{"coordinates":[126.927752,35.146364],"type":"Point"},"properties":{"center":"동부119구조대","kind":"rescue","place":"연립·다세대주택","resp_s":480,"yr":2020},"type":"Feature"},{"geometry":{"coordinates":[126.927756,35.146356],"type":"Point"},"properties":{"center":"동부119구조대","kind":"rescue","place":"연립·다세대주택","resp_s":360,"yr":2020},"type":"Feature"},{"geometry":{"coordinates":[126.928032,35.147266],"type":"Point"},"properties":{"center":"지산119안전센터","kind":"rescue","place":"일반도로(교량)","resp_s":660,"yr":2020},"type":"Feature"},{"geometry":{"coordinates":[126.9283,35.147233],"type":"Point"},"properties":{"center":"지산119안전센터","kind":"rescue","place":"기타 숙박시설","resp_s":420,"yr":2020},"type":"Feature"},{"geometry":{"coordinates":[126.929057,35.147843],"type":"Point"},"properties":{"center":"동부119구조대","kind":"rescue","place":"연립·다세대주택","resp_s":360,"yr":2020},"type":"Feature"},{"geometry":{"coordinates":[126.929393,35.147818],"type":"Point"},"properties":{"center":"지산119안전센터","kind":"rescue","place":"단독주택","resp_s":360,"yr":2020},"type":"Feature"},{"geometry":{"coordinates":[126.929459,35.147544],"type":"Point"},"properties":{"center":"대인119안전센터","kind":"rescue","place":"기타","resp_s":360,"yr":2020},"type":"Feature"},{"geometry":{"coordinates":[126.929459,35.147544],"type":"Point"},"properties":{"center":"용산119안전센터","kind":"rescue","place":"단독주택","resp_s":360,"yr":2020},"type":"Feature"},{"geometry":{"coordinates":[126.929459,35.147544],"type":"Point"},"properties":{"center":"동부119구조대","kind":"rescue","place":"고등학교","resp_s":360,"yr":2020},"type":"Feature"},{"geometry":{"coordinates":[126.9298,35.14904],"type":"Point"},"properties":{"center":"동부119구조대","kind":"rescue","place":"연립·다세대주택","resp_s":300,"yr":2020},"type":"Feature"},{"geometry":{"coordinates":[126.9298,35.1491],"type":"Point"},"properties":{"center":"지산119안전센터","kind":"rescue","place":"다가구주택","resp_s":300,"yr":2020},"type":"Feature"},{"geometry":{"coordinates":[126.9298,35.1491],"type":"Point"},"properties":{"center":"동부119구조대","kind":"rescue","place":"기타 공동주택","resp_s":300,"yr":2020},"type":"Feature"},{"geometry":{"coordinates":[126.930845,35.149793],"type":"Point"},"properties":{"center":"동부119구조대","kind":"rescue","place":"단독주택","resp_s":360,"yr":2020},"type":"Feature"},{"geometry":{"coordinates":[126.919679,35.153105],"type":"Point"},"properties":{"center":"대인119안전센터","kind":"rescue","place":"기타","resp_s":360,"yr":2021},"type":"Feature"},{"geometry":{"coordinates":[126.920218,35.153598],"type":"Point"},"properties":{"center":"대인119안전센터","kind":"rescue","place":"아파트","resp_s":240,"yr":2021},"type":"Feature"},{"geometry":{"coordinates":[126.920262,35.153688],"type":"Point"},"properties":{"center":"동부119구조대","kind":"rescue","place":"연립·다세대주택","resp_s":240,"yr":2021},"type":"Feature"},{"geometry":{"coordinates":[126.920284,35.153628],"type":"Point"},"properties":{"center":"동부119구조대","kind":"rescue","place":"주상복합아파트","resp_s":240,"yr":2021},"type":"Feature"},{"geometry":{"coordinates":[126.920335,35.154206],"type":"Point"},"properties":{"center":"대인119안전센터","kind":"rescue","place":"일반도로(기타)","resp_s":300,"yr":2021},"type":"Feature"},{"geometry":{"coordinates":[126.920353,35.153661],"type":"Point"},"properties":{"center":"동부119구조대","kind":"rescue","place":"아파트","resp_s":120,"yr":2021},"type":"Feature"},{"geometry":{"coordinates":[126.920353,35.153661],"type":"Point"},"properties":{"center":"동부119구조대","kind":"rescue","place":"연립·다세대주택","resp_s":120,"yr":2021},"type":"Feature"},{"geometry":{"coordinates":[126.920353,35.153661],"type":"Point"},"properties":{"center":"지산119안전센터","kind":"rescue","place":"아파트","resp_s":540,"yr":2021},"type":"Feature"},{"geometry":{"coordinates":[126.920353,35.153661],"type":"Point"},"properties":{"center":"지산119안전센터","kind":"rescue","place":"기타 공동주택","resp_s":960,"yr":2021},"type":"Feature"},{"geometry":{"coordinates":[126.920353,35.153661],"type":"Point"},"properties":{"center":"동부119구조대","kind":"rescue","place":"아파트","resp_s":360,"yr":2021},"type":"Feature"},{"geometry":{"coordinates":[126.9206,35.15451],"type":"Point"},"properties":{"center":"대인119안전센터","kind":"rescue","place":"일반도로(기타)","resp_s":300,"yr":2021},"type":"Feature"},{"geometry":{"coordinates":[126.920982,35.152189],"type":"Point"},"properties":{"center":"동부119구조대","kind":"rescue","place":"단독주택","resp_s":180,"yr":2021},"type":"Feature"},{"geometry":{"coordinates":[126.921356,35.152122],"type":"Point"},"properties":{"center":"지산119안전센터","kind":"rescue","place":"기타","resp_s":360,"yr":2021},"type":"Feature"},{"geometry":{"coordinates":[126.921667,35.152183],"type":"Point"},"properties":{"center":"지산119안전센터","kind":"rescue","place":"일반도로(기타)","resp_s":540,"yr":2021},"type":"Feature"},{"geometry":{"coordinates":[126.9218,35.1544],"type":"Point"},"properties":{"center":"동부119구조대","kind":"rescue","place":"단독주택","resp_s":300,"yr":2021},"type":"Feature"},{"geometry":{"coordinates":[126.922129,35.151683],"type":"Point"},"properties":{"center":"동부119구조대","kind":"rescue","place":"단독주택","resp_s":120,"yr":2021},"type":"Feature"},{"geometry":{"coordinates":[126.922762,35.151918],"type":"Point"},"properties":{"center":"지산119안전센터","kind":"rescue","place":"기타 공동주택","resp_s":1080,"yr":2021},"type":"Feature"},{"geometry":{"coordinates":[126.922762,35.151918],"type":"Point"},"properties":{"center":"지산119안전센터","kind":"rescue","place":"연립·다세대주택","resp_s":840,"yr":2021},"type":"Feature"},{"geometry":{"coordinates":[126.922955,35.155195],"type":"Point"},"properties":{"center":"동부119구조대","kind":"rescue","place":"기타 공동주택","resp_s":300,"yr":2021},"type":"Feature"},{"geometry":{"coordinates":[126.92297,35.152689],"type":"Point"},"properties":{"center":"지산119안전센터","kind":"rescue","place":"일반도로(기타)","resp_s":360,"yr":2021},"type":"Feature"},{"geometry":{"coordinates":[126.923004,35.154499],"type":"Point"},"properties":{"center":"대인119안전센터","kind":"rescue","place":"일반도로(기타)","resp_s":300,"yr":2021},"type":"Feature"},{"geometry":{"coordinates":[126.923014,35.152994],"type":"Point"},"properties":{"center":"동부119구조대","kind":"rescue","place":"연립·다세대주택","resp_s":240,"yr":2021},"type":"Feature"},{"geometry":{"coordinates":[126.923014,35.152994],"type":"Point"},"properties":{"center":"지산119안전센터","kind":"rescue","place":"아파트","resp_s":300,"yr":2021},"type":"Feature"},{"geometry":{"coordinates":[126.923035,35.150552],"type":"Point"},"properties":{"center":"대인119안전센터","kind":"rescue","place":"기타","resp_s":300,"yr":2021},"type":"Feature"},{"geometry":{"coordinates":[126.923215,35.153636],"type":"Point"},"properties":{"center":"지산119안전센터","kind":"rescue","place":"기타","resp_s":480,"yr":2021},"type":"Feature"},{"geometry":{"coordinates":[126.923332,35.150789],"type":"Point"},"properties":{"center":"동부119구조대","kind":"rescue","place":"기타 판매시설","resp_s":180,"yr":2021},"type":"Feature"},{"geometry":{"coordinates":[126.924062,35.150037],"type":"Point"},"properties":{"center":"동부119구조대","kind":"rescue","place":"다가구주택","resp_s":240,"yr":2021},"type":"Feature"},{"geometry":{"coordinates":[126.924091,35.151969],"type":"Point"},"properties":{"center":"대인119안전센터","kind":"rescue","place":"일반도로(기타)","resp_s":300,"yr":2021},"type":"Feature"},{"geometry":{"coordinates":[126.92417,35.150278],"type":"Point"},"properties":{"center":"지산119안전센터","kind":"rescue","place":"다가구주택","resp_s":1200,"yr":2021},"type":"Feature"},{"geometry":{"coordinates":[126.92417,35.150278],"type":"Point"},"properties":{"center":"대인119안전센터","kind":"rescue","place":"기타","resp_s":1200,"yr":2021},"type":"Feature"},{"geometry":{"coordinates":[126.924369,35.150484],"type":"Point"},"properties":{"center":"대인119안전센터","kind":"rescue","place":"노인복지지설","resp_s":120,"yr":2021},"type":"Feature"},{"geometry":{"coordinates":[126.924369,35.150484],"type":"Point"},"properties":{"center":"대인119안전센터","kind":"rescue","place":"노인복지지설","resp_s":60,"yr":2021},"type":"Feature"},{"geometry":{"coordinates":[126.924369,35.150484],"type":"Point"},"properties":{"center":"지산119안전센터","kind":"rescue","place":"노인복지지설","resp_s":60,"yr":2021},"type":"Feature"},{"geometry":{"coordinates":[126.924369,35.150484],"type":"Point"},"properties":{"center":"동부119구조대","kind":"rescue","place":"노인복지지설","resp_s":60,"yr":2021},"type":"Feature"},{"geometry":{"coordinates":[126.92439,35.150523],"type":"Point"},"properties":{"center":"대인119안전센터","kind":"rescue","place":"노인복지지설","resp_s":60,"yr":2021},"type":"Feature"},{"geometry":{"coordinates":[126.92439,35.150523],"type":"Point"},"properties":{"center":"동부119구조대","kind":"rescue","place":"노인복지지설","resp_s":null,"yr":2021},"type":"Feature"},{"geometry":{"coordinates":[126.92439,35.150523],"type":"Point"},"properties":{"center":"지산119안전센터","kind":"rescue","place":"노인복지지설","resp_s":240,"yr":2021},"type":"Feature"},{"geometry":{"coordinates":[126.92439,35.150523],"type":"Point"},"properties":{"center":"대인119안전센터","kind":"rescue","place":"노인복지지설","resp_s":120,"yr":2021},"type":"Feature"},{"geometry":{"coordinates":[126.92439,35.150523],"type":"Point"},"properties":{"center":"동부119구조대","kind":"rescue","place":"노인복지지설","resp_s":null,"yr":2021},"type":"Feature"},{"geometry":{"coordinates":[126.924435,35.150766],"type":"Point"},"properties":{"center":"동부119구조대","kind":"rescue","place":"격리병원(정신병원. 요양소)","resp_s":420,"yr":2021},"type":"Feature"},{"geometry":{"coordinates":[126.924633,35.148218],"type":"Point"},"properties":{"center":"동부119구조대","kind":"rescue","place":"기타","resp_s":240,"yr":2021},"type":"Feature"},{"geometry":{"coordinates":[126.924937,35.150177],"type":"Point"},"properties":{"center":"지산119안전센터","kind":"rescue","place":"단독주택","resp_s":540,"yr":2021},"type":"Feature"},{"geometry":{"coordinates":[126.925008,35.151442],"type":"Point"},"properties":{"center":"동부119구조대","kind":"rescue","place":"연립·다세대주택","resp_s":240,"yr":2021},"type":"Feature"},{"geometry":{"coordinates":[126.925052,35.148711],"type":"Point"},"properties":{"center":"지산119안전센터","kind":"rescue","place":"개인상점","resp_s":300,"yr":2021},"type":"Feature"},{"geometry":{"coordinates":[126.925106,35.148833],"type":"Point"},"properties":{"center":"지산119안전센터","kind":"rescue","place":"기타 도로.철도","resp_s":540,"yr":2021},"type":"Feature"},{"geometry":{"coordinates":[126.925235,35.149658],"type":"Point"},"properties":{"center":"지산119안전센터","kind":"rescue","place":"일반도로(기타)","resp_s":420,"yr":2021},"type":"Feature"},{"geometry":{"coordinates":[126.92531,35.148693],"type":"Point"},"properties":{"center":"동부119구조대","kind":"rescue","place":"연립·다세대주택","resp_s":240,"yr":2021},"type":"Feature"},{"geometry":{"coordinates":[126.925375,35.148887],"type":"Point"},"properties":{"center":"동부119구조대","kind":"rescue","place":"일반업무시설","resp_s":60,"yr":2021},"type":"Feature"},{"geometry":{"coordinates":[126.925379,35.152706],"type":"Point"},"properties":{"center":"동부119구조대","kind":"rescue","place":"다가구주택","resp_s":300,"yr":2021},"type":"Feature"},{"geometry":{"coordinates":[126.925514,35.150036],"type":"Point"},"properties":{"center":"지산119안전센터","kind":"rescue","place":"단독주택","resp_s":720,"yr":2021},"type":"Feature"},{"geometry":{"coordinates":[126.925592,35.1475],"type":"Point"},"properties":{"center":"지산119안전센터","kind":"rescue","place":"초등학교","resp_s":480,"yr":2021},"type":"Feature"},{"geometry":{"coordinates":[126.925592,35.1475],"type":"Point"},"properties":{"center":"지산119안전센터","kind":"rescue","place":"초등학교","resp_s":420,"yr":2021},"type":"Feature"},{"geometry":{"coordinates":[126.925797,35.148899],"type":"Point"},"properties":{"center":"지산119안전센터","kind":"rescue","place":"기타","resp_s":900,"yr":2021},"type":"Feature"},{"geometry":{"coordinates":[126.9258,35.14938],"type":"Point"},"properties":{"center":"지산119안전센터","kind":"rescue","place":"기타 판매시설","resp_s":480,"yr":2021},"type":"Feature"},{"geometry":{"coordinates":[126.92585,35.147528],"type":"Point"},"properties":{"center":"동부119구조대","kind":"rescue","place":"연립·다세대주택","resp_s":540,"yr":2021},"type":"Feature"},{"geometry":{"coordinates":[126.926224,35.147257],"type":"Point"},"properties":{"center":"지산119안전센터","kind":"rescue","place":"기타 판매시설","resp_s":540,"yr":2021},"type":"Feature"},{"geometry":{"coordinates":[126.926243,35.147614],"type":"Point"},"properties":{"center":"지산119안전센터","kind":"rescue","place":"개인상점","resp_s":300,"yr":2021},"type":"Feature"},{"geometry":{"coordinates":[126.926373,35.150641],"type":"Point"},"properties":{"center":"동부119구조대","kind":"rescue","place":"공사장","resp_s":300,"yr":2021},"type":"Feature"},{"geometry":{"coordinates":[126.926489,35.148602],"type":"Point"},"properties":{"center":"지산119안전센터","kind":"rescue","place":"단독주택","resp_s":240,"yr":2021},"type":"Feature"},{"geometry":{"coordinates":[126.926511,35.151207],"type":"Point"},"properties":{"center":"지산119안전센터","kind":"rescue","place":"개인상점","resp_s":1200,"yr":2021},"type":"Feature"},{"geometry":{"coordinates":[126.926681,35.147435],"type":"Point"},"properties":{"center":"동부119구조대","kind":"rescue","place":"단독주택","resp_s":420,"yr":2021},"type":"Feature"},{"geometry":{"coordinates":[126.926684,35.151466],"type":"Point"},"properties":{"center":"지산119안전센터","kind":"rescue","place":"한방병원","resp_s":420,"yr":2021},"type":"Feature"},{"geometry":{"coordinates":[126.927046,35.14796],"type":"Point"},"properties":{"center":"지산119안전센터","kind":"rescue","place":"단독주택","resp_s":300,"yr":2021},"type":"Feature"},{"geometry":{"coordinates":[126.927281,35.146996],"type":"Point"},"properties":{"center":"지산119안전센터","kind":"rescue","place":"일반도로(기타)","resp_s":4200,"yr":2021},"type":"Feature"},{"geometry":{"coordinates":[126.927377,35.149984],"type":"Point"},"properties":{"center":"지산119안전센터","kind":"rescue","place":"단독주택","resp_s":720,"yr":2021},"type":"Feature"},{"geometry":{"coordinates":[126.927711,35.146595],"type":"Point"},"properties":{"center":"동부119구조대","kind":"rescue","place":"기타 도로.철도","resp_s":300,"yr":2021},"type":"Feature"},{"geometry":{"coordinates":[126.927716,35.150874],"type":"Point"},"properties":{"center":"지산119안전센터","kind":"rescue","place":"공사장","resp_s":360,"yr":2021},"type":"Feature"},{"geometry":{"coordinates":[126.927827,35.146968],"type":"Point"},"properties":{"center":"지산119안전센터","kind":"rescue","place":"일반도로(기타)","resp_s":360,"yr":2021},"type":"Feature"},{"geometry":{"coordinates":[126.927895,35.147117],"type":"Point"},"properties":{"center":"지산119안전센터","kind":"rescue","place":"일반도로(기타)","resp_s":240,"yr":2021},"type":"Feature"},{"geometry":{"coordinates":[126.927915,35.14979],"type":"Point"},"properties":{"center":"지산119안전센터","kind":"rescue","place":"단독주택","resp_s":1620,"yr":2021},"type":"Feature"},{"geometry":{"coordinates":[126.927915,35.14979],"type":"Point"},"properties":{"center":"동부119구조대","kind":"rescue","place":"단독주택","resp_s":1680,"yr":2021},"type":"Feature"},{"geometry":{"coordinates":[126.927931,35.147343],"type":"Point"},"properties":{"center":"북부119구조대","kind":"rescue","place":"일반도로(기타)","resp_s":180,"yr":2021},"type":"Feature"},{"geometry":{"coordinates":[126.927931,35.147343],"type":"Point"},"properties":{"center":"동부119구조대","kind":"rescue","place":"일반도로(기타)","resp_s":420,"yr":2021},"type":"Feature"},{"geometry":{"coordinates":[126.928162,35.14726],"type":"Point"},"properties":{"center":"동부119구조대","kind":"rescue","place":"기타","resp_s":240,"yr":2021},"type":"Feature"},{"geometry":{"coordinates":[126.9283,35.147266],"type":"Point"},"properties":{"center":"지산119안전센터","kind":"rescue","place":"기타 단독주택","resp_s":780,"yr":2021},"type":"Feature"},{"geometry":{"coordinates":[126.928303,35.147378],"type":"Point"},"properties":{"center":"지산119안전센터","kind":"rescue","place":"기타","resp_s":540,"yr":2021},"type":"Feature"},{"geometry":{"coordinates":[126.928311,35.147377],"type":"Point"},"properties":{"center":"지산119안전센터","kind":"rescue","place":"기타 숙박시설","resp_s":300,"yr":2021},"type":"Feature"},{"geometry":{"coordinates":[126.9286,35.14915],"type":"Point"},"properties":{"center":"동부119구조대","kind":"rescue","place":"일반도로(기타)","resp_s":720,"yr":2021},"type":"Feature"},{"geometry":{"coordinates":[126.9286,35.14915],"type":"Point"},"properties":{"center":"지산119안전센터","kind":"rescue","place":"일반도로(기타)","resp_s":720,"yr":2021},"type":"Feature"},{"geometry":{"coordinates":[126.928639,35.150097],"type":"Point"},"properties":{"center":"동부119구조대","kind":"rescue","place":"기타 단독주택","resp_s":240,"yr":2021},"type":"Feature"},{"geometry":{"coordinates":[126.928801,35.147953],"type":"Point"},"properties":{"center":"서부119구조대","kind":"rescue","place":"기타 판매시설","resp_s":120,"yr":2021},"type":"Feature"},{"geometry":{"coordinates":[126.928801,35.147953],"type":"Point"},"properties":{"center":"동부119구조대","kind":"rescue","place":"다가구주택","resp_s":360,"yr":2021},"type":"Feature"},{"geometry":{"coordinates":[126.928902,35.147202],"type":"Point"},"properties":{"center":"지산119안전센터","kind":"rescue","place":"기타","resp_s":480,"yr":2021},"type":"Feature"},{"geometry":{"coordinates":[126.9291,35.14771],"type":"Point"},"properties":{"center":"동부119구조대","kind":"rescue","place":"다가구주택","resp_s":300,"yr":2021},"type":"Feature"},{"geometry":{"coordinates":[126.9291,35.14771],"type":"Point"},"properties":{"center":"대인119안전센터","kind":"rescue","place":"단독주택","resp_s":300,"yr":2021},"type":"Feature"},{"geometry":{"coordinates":[126.929304,35.148298],"type":"Point"},"properties":{"center":"지산119안전센터","kind":"rescue","place":"일반도로(기타)","resp_s":360,"yr":2021},"type":"Feature"},{"geometry":{"coordinates":[126.930088,35.149124],"type":"Point"},"properties":{"center":"동부119구조대","kind":"rescue","place":"연립·다세대주택","resp_s":360,"yr":2021},"type":"Feature"},{"geometry":{"coordinates":[126.924432,35.152909],"type":"Point"},"properties":{"center":"대인119안전센터","kind":"rescue","place":"일반도로(기타)","resp_s":300,"yr":2022},"type":"Feature"},{"geometry":{"coordinates":[126.926218,35.152245],"type":"Point"},"properties":{"center":"동부119구조대","kind":"rescue","place":"기타 단독주택","resp_s":300,"yr":2022},"type":"Feature"},{"geometry":{"coordinates":[126.926547,35.151648],"type":"Point"},"properties":{"center":"동부119구조대","kind":"rescue","place":"기타 업무시설","resp_s":null,"yr":2022},"type":"Feature"},{"geometry":{"coordinates":[126.926667,35.151521],"type":"Point"},"properties":{"center":"동부119구조대","kind":"rescue","place":"한방병원","resp_s":360,"yr":2022},"type":"Feature"}],"name":"history","summary":{"by_center":{"대인119안전센터":{"median_s":300,"n":21,"straight_kmh":9.0},"동부119구조대":{"median_s":300,"n":73,"straight_kmh":null},"북부119구조대":{"median_s":210,"n":2,"straight_kmh":null},"서부119구조대":{"median_s":240,"n":2,"straight_kmh":null},"용산119안전센터":{"median_s":360,"n":1,"straight_kmh":null},"지산119안전센터":{"median_s":448,"n":191,"straight_kmh":9.9},"특수구조대":{"median_s":270,"n":2,"straight_kmh":null}},"fire_donggu":{"median_s":214,"n":363},"note":"현장 도착 − 출동 지령(초). 신고 · 구조는 동명동 지점, 화재는 동구 전체 요약(좌표 없음)","points":343,"resp_median_s":360,"resp_n":292,"resp_p90_s":780},"type":"FeatureCollection"}