{
"type": "FeatureCollection",
"name": "hydrants",
"crs": { "type": "name", "properties": { "name": "urn:ogc:def:crs:OGC:1.3:CRS84" } },
"xy_coordinate_resolution": 1e-06,
"features": [
{ "type": "Feature", "properties": { "시설번호": "동부-대인-대인-7", "시설유형코드": "4 ", "소재지도로명주소": "광주광역시 동구 중앙로 261", "소재지지번주소": null, "상세위치": "계림슈퍼옆 호남슈퍼 앞", "설치연도": "1979", "보호틀유무": "N", "관할기관명": "동부소방서", "안전센터명": "대인119안전센터", "z": 9.1 }, "geometry": { "type": "Point", "coordinates": [ 126.920431, 35.155066 ] } },
{ "type": "Feature", "properties": { "시설번호": "동부-대인-대인-19", "시설유형코드": "1 ", "소재지도로명주소": "광주광역시 동구 중앙로 259", "소재지지번주소": null, "상세위치": "구.계림파출소(청옥한방의료기 앞)", "설치연도": "2002", "보호틀유무": "N", "관할기관명": "동부소방서", "안전센터명": "대인119안전센터", "z": 9.1 }, "geometry": { "type": "Point", "coordinates": [ 126.920464, 35.154975 ] } },
{ "type": "Feature", "properties": { "시설번호": "동부-대인-대인-21", "시설유형코드": "1 ", "소재지도로명주소": "광주광역시 동구 중앙로 269", "소재지지번주소": null, "상세위치": "탑수석갤러리앞", "설치연도": "2002", "보호틀유무": "N", "관할기관명": "동부소방서", "안전센터명": "대인119안전센터", "z": 9.0 }, "geometry": { "type": "Point", "coordinates": [ 126.920463, 35.155681 ] } },
{ "type": "Feature", "properties": { "시설번호": "동부-대인-대인-30", "시설유형코드": "2 ", "소재지도로명주소": "광주광역시 동구 구성로 225", "소재지지번주소": null, "상세위치": "광주대인교회 앞", "설치연도": "1971", "보호틀유무": "N", "관할기관명": "동부소방서", "안전센터명": "대인119안전센터", "z": 8.2 }, "geometry": { "type": "Point", "coordinates": [ 126.916347, 35.155248 ] } },
{ "type": "Feature", "properties": { "시설번호": "동부-대인-대인-31", "시설유형코드": "1 ", "소재지도로명주소": "광주광역시 동구 경양로 234", "소재지지번주소": null, "상세위치": "광주그랜드센트럴 115동 앞", "설치연도": "2002", "보호틀유무": "N", "관할기관명": "동부소방서", "안전센터명": "대인119안전센터", "z": 7.4 }, "geometry": { "type": "Point", "coordinates": [ 126.913705, 35.156756 ] } },
{ "type": "Feature", "properties": { "시설번호": "동부-대인-대인-33", "시설유형코드": "2 ", "소재지도로명주소": "광주광역시 동구 동계천로 37", "소재지지번주소": null, "상세위치": "대인시장입구코사마트앞", "설치연도": "1978", "보호틀유무": "N", "관할기관명": "동부소방서", "안전센터명": "대인119안전센터", "z": 8.2 }, "geometry": { "type": "Point", "coordinates": [ 126.916528, 35.155065 ] } },
{ "type": "Feature", "properties": { "시설번호": "동부-대인-대인-35", "시설유형코드": "1 ", "소재지도로명주소": "광주광역시 동구 경양로 234", "소재지지번주소": null, "상세위치": "그랜드센트럴 119동 상가 및 광주대인교회 사이", "설치연도": "2000", "보호틀유무": "N", "관할기관명": "동부소방서", "안전센터명": "대인119안전센터", "z": 8.1 }, "geometry": { "type": "Point", "coordinates": [ 126.915816, 35.155391 ] } },
{ "type": "Feature", "properties": { "시설번호": "동부-대인-대인-36", "시설유형코드": "1 ", "소재지도로명주소": "광주광역시 동구 구성로238번길 32-7", "소재지지번주소": null, "상세위치": "미즈프라자뒤광명전당포옆", "설치연도": "1981", "보호틀유무": "N", "관할기관명": "동부소방서", "안전센터명": "대인119안전센터", "z": 9.4 }, "geometry": { "type": "Point", "coordinates": [ 126.91926, 35.153863 ] } },
{ "type": "Feature", "properties": { "시설번호": "동부-대인-대인-609", "시설유형코드": "1 ", "소재지도로명주소": "광주광역시 동구 동계천로 67", "소재지지번주소": null, "상세위치": "동문마트 앞", "설치연도": "2019", "보호틀유무": "N", "관할기관명": "동부소방서", "안전센터명": "대인119안전센터", "z": 9.7 }, "geometry": { "type": "Point", "coordinates": [ 126.919068, 35.153447 ] } },
{ "type": "Feature", "properties": { "시설번호": "동부-대인-대인-1", "시설유형코드": "1 ", "소재지도로명주소": "광주광역시 동구 제봉로 207", "소재지지번주소": null, "상세위치": "상일빌딩 앞", "설치연도": "1960", "보호틀유무": "Y", "관할기관명": "동부소방서", "안전센터명": "대인119안전센터", "z": 8.2 }, "geometry": { "type": "Point", "coordinates": [ 126.914807, 35.153919 ] } },
{ "type": "Feature", "properties": { "시설번호": "동부-대인-대인-2", "시설유형코드": "1 ", "소재지도로명주소": "광주광역시 동구 제봉로222번길 2", "소재지지번주소": null, "상세위치": "일호사 앞", "설치연도": "2000", "보호틀유무": "Y", "관할기관명": "동부소방서", "안전센터명": "대인119안전센터", "z": 7.3 }, "geometry": { "type": "Point", "coordinates": [ 126.913875, 35.155035 ] } },
{ "type": "Feature", "properties": { "시설번호": "동부-대인-대인-5", "시설유형코드": "1 ", "소재지도로명주소": "광주광역시 동구 동계천로6번길 8", "소재지지번주소": null, "상세위치": "하루모텔 별관 앞", "설치연도": "1998", "보호틀유무": "Y", "관할기관명": "동부소방서", "안전센터명": "대인119안전센터", "z": 7.3 }, "geometry": { "type": "Point", "coordinates": [ 126.913492, 35.155923 ] } },
{ "type": "Feature", "properties": { "시설번호": "동부-대인-대인-6", "시설유형코드": "1 ", "소재지도로명주소": "광주광역시 동구 구성로 195-1", "소재지지번주소": null, "상세위치": "승전사 앞", "설치연도": "1998", "보호틀유무": "Y", "관할기관명": "동부소방서", "안전센터명": "대인119안전센터", "z": 7.8 }, "geometry": { "type": "Point", "coordinates": [ 126.914083, 35.153252 ] } },
{ "type": "Feature", "properties": { "시설번호": "동부-대인-대인-9", "시설유형코드": "1 ", "소재지도로명주소": "광주광역시 동구 제봉로 221", "소재지지번주소": null, "상세위치": "메가커피 앞", "설치연도": "1981", "보호틀유무": "N", "관할기관명": "동부소방서", "안전센터명": "대인119안전센터", "z": 7.0 }, "geometry": { "type": "Point", "coordinates": [ 126.913667, 35.154708 ] } },
{ "type": "Feature", "properties": { "시설번호": "동부-대인-대인-10", "시설유형코드": "1 ", "소재지도로명주소": "광주광역시 동구 독립로 264번길 15", "소재지지번주소": null, "상세위치": "한국금거래소 앞", "설치연도": "2013", "보호틀유무": "Y", "관할기관명": "동부소방서", "안전센터명": "대인119안전센터", "z": 6.3 }, "geometry": { "type": "Point", "coordinates": [ 126.912604, 35.153945 ] } },
{ "type": "Feature", "properties": { "시설번호": "동부-대인-대인-11", "시설유형코드": "1 ", "소재지도로명주소": "광주광역시 동구 동계천로 22", "소재지지번주소": null, "상세위치": "노벨병원 앞", "설치연도": "2015", "보호틀유무": "Y", "관할기관명": "동부소방서", "안전센터명": "대인119안전센터", "z": 7.5 }, "geometry": { "type": "Point", "coordinates": [ 126.914783, 35.155698 ] } },
{ "type": "Feature", "properties": { "시설번호": "동부-대인-대인-14", "시설유형코드": "1 ", "소재지도로명주소": "광주광역시 동구 구성로204번길 15-1", "소재지지번주소": null, "상세위치": "오시오편의점 앞", "설치연도": "1978", "보호틀유무": "Y", "관할기관명": "동부소방서", "안전센터명": "대인119안전센터", "z": 8.6 }, "geometry": { "type": "Point", "coordinates": [ 126.9159, 35.152663 ] } },
{ "type": "Feature", "properties": { "시설번호": "동부-대인-대인-15", "시설유형코드": "2 ", "소재지도로명주소": "광주광역시 동구 중앙로 223", "소재지지번주소": null, "상세위치": "한화생명 화단 앞", "설치연도": "1978", "보호틀유무": "N", "관할기관명": "동부소방서", "안전센터명": "대인119안전센터", "z": 9.0 }, "geometry": { "type": "Point", "coordinates": [ 126.918048, 35.152697 ] } },
{ "type": "Feature", "properties": { "시설번호": "동부-대인-대인-16", "시설유형코드": "1 ", "소재지도로명주소": "광주광역시 동구 제봉로 173", "소재지지번주소": null, "상세위치": "광주보청기난청센터 앞", "설치연도": "1981", "보호틀유무": "Y", "관할기관명": "동부소방서", "안전센터명": "대인119안전센터", "z": 9.2 }, "geometry": { "type": "Point", "coordinates": [ 126.917576, 35.152196 ] } },
{ "type": "Feature", "properties": { "시설번호": "동부-대인-대인-18", "시설유형코드": "1 ", "소재지도로명주소": "광주광역시 동구 제봉로 196", "소재지지번주소": null, "상세위치": "대인치과의원 앞", "설치연도": "1984", "보호틀유무": "Y", "관할기관명": "동부소방서", "안전센터명": "대인119안전센터", "z": 8.4 }, "geometry": { "type": "Point", "coordinates": [ 126.916155, 35.153548 ] } },
{ "type": "Feature", "properties": { "시설번호": "동부-대인-대인-286", "시설유형코드": "1 ", "소재지도로명주소": "광주광역시 동구 제봉로190번길 1-2", "소재지지번주소": null, "상세위치": "LA갈비유통 앞", "설치연도": "1992", "보호틀유무": "Y", "관할기관명": "동부소방서", "안전센터명": "대인119안전센터", "z": 8.7 }, "geometry": { "type": "Point", "coordinates": [ 126.916954, 35.153535 ] } },
{ "type": "Feature", "properties": { "시설번호": "동부-대인-대인-330", "시설유형코드": "2 ", "소재지도로명주소": "광주광역시 동구 제봉로 210", "소재지지번주소": null, "상세위치": "동부소방서 입구 앞", "설치연도": "1996", "보호틀유무": "N", "관할기관명": "동부소방서", "안전센터명": "대인119안전센터", "z": 8.2 }, "geometry": { "type": "Point", "coordinates": [ 126.914851, 35.154494 ] } },
{ "type": "Feature", "properties": { "시설번호": "동부-대인-대인-475", "시설유형코드": "2 ", "소재지도로명주소": "광주광역시 동구 동계천로53번길 2", "소재지지번주소": null, "상세위치": "별별상상정원 앞", "설치연도": "1996", "보호틀유무": "N", "관할기관명": "동부소방서", "안전센터명": "대인119안전센터", "z": 8.3 }, "geometry": { "type": "Point", "coordinates": [ 126.917992, 35.154216 ] } },
{ "type": "Feature", "properties": { "시설번호": "동부-대인-대인-550", "시설유형코드": "1 ", "소재지도로명주소": "광주광역시 동구 제봉로194번길 9", "소재지지번주소": null, "상세위치": "대인시장 공영주차장 앞", "설치연도": "2012", "보호틀유무": "N", "관할기관명": "동부소방서", "안전센터명": "대인119안전센터", "z": 8.6 }, "geometry": { "type": "Point", "coordinates": [ 126.91685, 35.154169 ] } },
{ "type": "Feature", "properties": { "시설번호": "동부-대인-대인-551", "시설유형코드": "1 ", "소재지도로명주소": "광주광역시 동구 제봉로190번길 5", "소재지지번주소": null, "상세위치": "순창상회(대인시장) 맞은편", "설치연도": "2012", "보호틀유무": "N", "관할기관명": "동부소방서", "안전센터명": "대인119안전센터", "z": 8.7 }, "geometry": { "type": "Point", "coordinates": [ 126.91722, 35.153845 ] } },
{ "type": "Feature", "properties": { "시설번호": "동부-대인-대인-571", "시설유형코드": "1 ", "소재지도로명주소": "광주광역시 동구 구성로194번길 15-2", "소재지지번주소": null, "상세위치": "백림제화 앞", "설치연도": "2016", "보호틀유무": "Y", "관할기관명": "동부소방서", "안전센터명": "대인119안전센터", "z": 8.5 }, "geometry": { "type": "Point", "coordinates": [ 126.915417, 35.152048 ] } },
{ "type": "Feature", "properties": { "시설번호": "동부-대인-대인-572", "시설유형코드": "1 ", "소재지도로명주소": "광주광역시 동구 구성로 221-1", "소재지지번주소": null, "상세위치": "세븐일레븐 앞", "설치연도": "2016", "보호틀유무": "Y", "관할기관명": "동부소방서", "안전센터명": "대인119안전센터", "z": 8.4 }, "geometry": { "type": "Point", "coordinates": [ 126.915984, 35.154926 ] } },
{ "type": "Feature", "properties": { "시설번호": "동부-대인-대인-573", "시설유형코드": "1 ", "소재지도로명주소": "광주광역시 동구 제봉로178번길 10", "소재지지번주소": null, "상세위치": "대인시장관리소 공중화장실 앞", "설치연도": "2016", "보호틀유무": "N", "관할기관명": "동부소방서", "안전센터명": "대인119안전센터", "z": 9.1 }, "geometry": { "type": "Point", "coordinates": [ 126.918342, 35.153012 ] } },
{ "type": "Feature", "properties": { "시설번호": "동부-대인-대인-581", "시설유형코드": "1 ", "소재지도로명주소": "광주광역시 동구 독립로 276", "소재지지번주소": null, "상세위치": "삼호회관 E안경 앞", "설치연도": "2018", "보호틀유무": "Y", "관할기관명": "동부소방서", "안전센터명": "대인119안전센터", "z": 6.2 }, "geometry": { "type": "Point", "coordinates": [ 126.912284, 35.155318 ] } },
{ "type": "Feature", "properties": { "시설번호": "동부-대인-대인-586", "시설유형코드": "1 ", "소재지도로명주소": "광주광역시 동구 구성로 217", "소재지지번주소": null, "상세위치": "이마트24, 다미정 앞", "설치연도": "2019", "보호틀유무": "Y", "관할기관명": "동부소방서", "안전센터명": "대인119안전센터", "z": 8.4 }, "geometry": { "type": "Point", "coordinates": [ 126.915583, 35.154643 ] } },
{ "type": "Feature", "properties": { "시설번호": "동부-대인-대인-610", "시설유형코드": "1 ", "소재지도로명주소": "광주광역시 동구 제봉로 178번길 11", "소재지지번주소": null, "상세위치": "대인시장 만선홍어 앞", "설치연도": "2020", "보호틀유무": "N", "관할기관명": "동부소방서", "안전센터명": "대인119안전센터", "z": 8.9 }, "geometry": { "type": "Point", "coordinates": [ 126.918319, 35.15342 ] } },
{ "type": "Feature", "properties": { "시설번호": "동부-대인-저수조1", "시설유형코드": "4 ", "소재지도로명주소": "광주광역시 동구 제봉로 207", "소재지지번주소": null, "상세위치": "동부소방서 사거리 횡단보도", "설치연도": "1960", "보호틀유무": "N", "관할기관명": "동부소방서", "안전센터명": "대인119안전센터", "z": 8.2 }, "geometry": { "type": "Point", "coordinates": [ 126.914807, 35.153919 ] } },
{ "type": "Feature", "properties": { "시설번호": "동부-대인-저수조2", "시설유형코드": "4 ", "소재지도로명주소": "광주광역시 동구 구성로 194", "소재지지번주소": null, "상세위치": "금영코리아 앞", "설치연도": "1960", "보호틀유무": "N", "관할기관명": "동부소방서", "안전센터명": "대인119안전센터", "z": 8.0 }, "geometry": { "type": "Point", "coordinates": [ 126.914102, 35.152949 ] } },
{ "type": "Feature", "properties": { "시설번호": "동부-대인-저수조3", "시설유형코드": "4 ", "소재지도로명주소": "광주광역시 동구 제봉로 185", "소재지지번주소": null, "상세위치": "김승완 외과 앞", "설치연도": "1960", "보호틀유무": "N", "관할기관명": "동부소방서", "안전센터명": "대인119안전센터", "z": 8.8 }, "geometry": { "type": "Point", "coordinates": [ 126.916743, 35.152711 ] } },
{ "type": "Feature", "properties": { "시설번호": "동부-대인-저수조4", "시설유형코드": "4 ", "소재지도로명주소": "광주광역시 동구 제봉로 173", "소재지지번주소": null, "상세위치": "한미쇼핑사거리 중앙초교 앞쪽", "설치연도": "1960", "보호틀유무": "N", "관할기관명": "동부소방서", "안전센터명": "대인119안전센터", "z": 9.2 }, "geometry": { "type": "Point", "coordinates": [ 126.917576, 35.152197 ] } },
{ "type": "Feature", "properties": { "시설번호": "동부-대인-동부-1", "시설유형코드": "3 ", "소재지도로명주소": "광주광역시 동구 제봉로 171", "소재지지번주소": "광주광역시 동구 궁동 1-1", "상세위치": "한미쇼핑 사거리 중앙구내이발 앞", "설치연도": "1978", "보호틀유무": "N", "관할기관명": "동부소방서", "안전센터명": "대인119안전센터", "z": 9.5 }, "geometry": { "type": "Point", "coordinates": [ 126.917999, 35.151948 ] } },
{ "type": "Feature", "properties": { "시설번호": "동부-대인-동부-6", "시설유형코드": "4 ", "소재지도로명주소": "광주광역시 동구 장동로 11", "소재지지번주소": "광주광역시 동구 장동 86-7", "상세위치": "새벽달 본점 사거리 앞", "설치연도": "1985", "보호틀유무": "N", "관할기관명": "동부소방서", "안전센터명": "대인119안전센터", "z": 15.8 }, "geometry": { "type": "Point", "coordinates": [ 126.92352, 35.148869 ] } },
{ "type": "Feature", "properties": { "시설번호": "동부-대인-동부-11", "시설유형코드": "4 ", "소재지도로명주소": "광주광역시 동구 필문대로206번길 12-1", "소재지지번주소": "광주광역시 동구 산수1동 558-51", "상세위치": "바로티나 미용실 앞", "설치연도": "1978", "보호틀유무": "N", "관할기관명": "동부소방서", "안전센터명": "대인119안전센터", "z": 19.6 }, "geometry": { "type": "Point", "coordinates": [ 126.929635, 35.15286 ] } },
{ "type": "Feature", "properties": { "시설번호": "동부-대인-동부-13", "시설유형코드": "4 ", "소재지도로명주소": "광주광역시 동구 경양로321번길 2-1", "소재지지번주소": "광주광역시 동구 산수1동 371-21", "상세위치": "산수실포 앞", "설치연도": "1978", "보호틀유무": "N", "관할기관명": "동부소방서", "안전센터명": "대인119안전센터", "z": 15.0 }, "geometry": { "type": "Point", "coordinates": [ 126.924322, 35.154154 ] } },
{ "type": "Feature", "properties": { "시설번호": "동부-대인-동부-54", "시설유형코드": "1 ", "소재지도로명주소": "광주광역시 동구 제봉로 122", "소재지지번주소": "광주광역시 동구 장동 91-3", "상세위치": "장동교차로 로타리 카페 앞", "설치연도": "1976", "보호틀유무": "Y", "관할기관명": "동부소방서", "안전센터명": "대인119안전센터", "z": 14.2 }, "geometry": { "type": "Point", "coordinates": [ 126.922278, 35.149176 ] } },
{ "type": "Feature", "properties": { "시설번호": "동부-대인-동부-55", "시설유형코드": "1 ", "소재지도로명주소": "광주광역시 동구 제봉로 170", "소재지지번주소": "광주광역시 동구 장동 11-6", "상세위치": "한미쇼핑 사거리 청자다방 앞", "설치연도": "1996", "보호틀유무": "Y", "관할기관명": "동부소방서", "안전센터명": "대인119안전센터", "z": 9.6 }, "geometry": { "type": "Point", "coordinates": [ 126.91832, 35.152103 ] } },
{ "type": "Feature", "properties": { "시설번호": "동부-대인-동부-56", "시설유형코드": "1 ", "소재지도로명주소": "광주광역시 동구 제봉로 157", "소재지지번주소": "광주광역시 동구 궁동 12", "상세위치": "KT 앞 육교 건너편", "설치연도": "1966", "보호틀유무": "N", "관할기관명": "동부소방서", "안전센터명": "대인119안전센터", "z": 10.6 }, "geometry": { "type": "Point", "coordinates": [ 126.919243, 35.151189 ] } },
{ "type": "Feature", "properties": { "시설번호": "동부-대인-동부-57", "시설유형코드": "2 ", "소재지도로명주소": "광주광역시 동구 중앙로 218-1", "소재지지번주소": "광주광역시 동구 궁동 1", "상세위치": "한미쇼핑 사거리 중앙구내이발 앞", "설치연도": "1960", "보호틀유무": "N", "관할기관명": "동부소방서", "안전센터명": "대인119안전센터", "z": 9.5 }, "geometry": { "type": "Point", "coordinates": [ 126.917865, 35.151962 ] } },
{ "type": "Feature", "properties": { "시설번호": "동부-대인-동부-59", "시설유형코드": "2 ", "소재지도로명주소": "광주광역시 동구 동계천로 118-1", "소재지지번주소": "광주광역시 동구 장동 139-7", "상세위치": "동명청과 앞", "설치연도": "1996", "보호틀유무": "N", "관할기관명": "동부소방서", "안전센터명": "대인119안전센터", "z": 15.4 }, "geometry": { "type": "Point", "coordinates": [ 126.922915, 35.150345 ] } },
{ "type": "Feature", "properties": { "시설번호": "동부-대인-동부-79", "시설유형코드": "2 ", "소재지도로명주소": "광주광역시 동구 계림로20번길 2", "소재지지번주소": "광주광역시 동구 산수1동 486-19", "상세위치": "머리하는 날 앞", "설치연도": "1994", "보호틀유무": "N", "관할기관명": "동부소방서", "안전센터명": "대인119안전센터", "z": 13.2 }, "geometry": { "type": "Point", "coordinates": [ 126.92247, 35.15554 ] } },
{ "type": "Feature", "properties": { "시설번호": "동부-대인-동부-80", "시설유형코드": "1 ", "소재지도로명주소": "광주광역시 동구 경양로321번길 6", "소재지지번주소": "광주광역시 동구 산수1동 371-26", "상세위치": "천대보살 앞(구, 위생마트건너)", "설치연도": "1994", "보호틀유무": "Y", "관할기관명": "동부소방서", "안전센터명": "대인119안전센터", "z": 14.7 }, "geometry": { "type": "Point", "coordinates": [ 126.92411, 35.154356 ] } },
{ "type": "Feature", "properties": { "시설번호": "동부-대인-동부-82", "시설유형코드": "2 ", "소재지도로명주소": "광주광역시 동구 경양로 306", "소재지지번주소": "광주광역시 동구 산수1동 495-28", "상세위치": "동명흑염소 앞, 신성하이슈퍼 옆", "설치연도": "1972", "보호틀유무": "N", "관할기관명": "동부소방서", "안전센터명": "대인119안전센터", "z": 12.1 }, "geometry": { "type": "Point", "coordinates": [ 126.922722, 35.154316 ] } },
{ "type": "Feature", "properties": { "시설번호": "동부-대인-동부-83", "시설유형코드": "2 ", "소재지도로명주소": "광주광역시 동구 동계로15번길 8", "소재지지번주소": "광주광역시 동구 산수1동 494-27", "상세위치": null, "설치연도": "1972", "보호틀유무": "N", "관할기관명": "동부소방서", "안전센터명": "대인119안전센터", "z": 12.8 }, "geometry": { "type": "Point", "coordinates": [ 126.924004, 35.153717 ] } },
{ "type": "Feature", "properties": { "시설번호": "동부-대인-동부-84", "시설유형코드": "1 ", "소재지도로명주소": "광주광역시 동구 경양로 322", "소재지지번주소": "광주광역시 동구 산수1동 494-12", "상세위치": "CU앞", "설치연도": "2000", "보호틀유무": "Y", "관할기관명": "동부소방서", "안전센터명": "대인119안전센터", "z": 14.1 }, "geometry": { "type": "Point", "coordinates": [ 126.924345, 35.153866 ] } },
{ "type": "Feature", "properties": { "시설번호": "동부-대인-동부-130", "시설유형코드": "1 ", "소재지도로명주소": "광주광역시 동구 제봉로158번길 13", "소재지지번주소": "광주광역시 동구 장동 39-22", "상세위치": "평장사 건너편", "설치연도": "1998", "보호틀유무": "Y", "관할기관명": "동부소방서", "안전센터명": "대인119안전센터", "z": 11.2 }, "geometry": { "type": "Point", "coordinates": [ 126.920275, 35.152375 ] } },
{ "type": "Feature", "properties": { "시설번호": "동부-대인-동부-148", "시설유형코드": "1 ", "소재지도로명주소": "광주광역시 동구 서석로85번길 12", "소재지지번주소": "광주광역시 동구 궁동 24-2", "상세위치": "자연생활 채식뷔페 앞", "설치연도": "2000", "보호틀유무": "Y", "관할기관명": "동부소방서", "안전센터명": "대인119안전센터", "z": 11.9 }, "geometry": { "type": "Point", "coordinates": [ 126.91989, 35.1503 ] } },
{ "type": "Feature", "properties": { "시설번호": "동부-대인-동부-149", "시설유형코드": "1 ", "소재지도로명주소": "광주광역시 동구 제봉로 140", "소재지지번주소": "광주광역시 동구 장동 53-3", "상세위치": "무등색소폰 앞", "설치연도": "2000", "보호틀유무": "Y", "관할기관명": "동부소방서", "안전센터명": "대인119안전센터", "z": 12.6 }, "geometry": { "type": "Point", "coordinates": [ 126.921151, 35.150449 ] } },
{ "type": "Feature", "properties": { "시설번호": "동부-대인-동부-262", "시설유형코드": "2 ", "소재지도로명주소": "광주광역시 동구 서석로 91", "소재지지번주소": "광주광역시 동구 대의동 40-2", "상세위치": "수도악기 코너 앞", "설치연도": "2007", "보호틀유무": "N", "관할기관명": "동부소방서", "안전센터명": "대인119안전센터", "z": 13.2 }, "geometry": { "type": "Point", "coordinates": [ 126.92129, 35.149846 ] } },
{ "type": "Feature", "properties": { "시설번호": "동부-대인-동부-332", "시설유형코드": "2 ", "소재지도로명주소": "광주광역시 동구 필문대로205번길 11-1", "소재지지번주소": "광주광역시 동구 산수1동 520-47", "상세위치": "청수건강원 앞", "설치연도": "1996", "보호틀유무": "N", "관할기관명": "동부소방서", "안전센터명": "대인119안전센터", "z": 24.9 }, "geometry": { "type": "Point", "coordinates": [ 126.932306, 35.152145 ] } },
{ "type": "Feature", "properties": { "시설번호": "동부-대인-동부-431", "시설유형코드": "2 ", "소재지도로명주소": "광주광역시 동구 동계로15번길 20-4", "소재지지번주소": "광주광역시 동구 산수1동 495-3", "상세위치": "일성철물 앞", "설치연도": "1998", "보호틀유무": "N", "관할기관명": "동부소방서", "안전센터명": "대인119안전센터", "z": 12.4 }, "geometry": { "type": "Point", "coordinates": [ 126.922868, 35.154381 ] } },
{ "type": "Feature", "properties": { "시설번호": "동부-대인-동부-432", "시설유형코드": "2 ", "소재지도로명주소": "광주광역시 동구 동명로67번길 38", "소재지지번주소": "광주광역시 동구 산수1동 366-10", "상세위치": "사운드플로우 앞", "설치연도": "1998", "보호틀유무": "N", "관할기관명": "동부소방서", "안전센터명": "대인119안전센터", "z": 15.5 }, "geometry": { "type": "Point", "coordinates": [ 126.925274, 35.153636 ] } },
{ "type": "Feature", "properties": { "시설번호": "동부-대인-동부-433", "시설유형코드": "2 ", "소재지도로명주소": "광주광역시 동구 제봉로138번길 1", "소재지지번주소": "광주광역시 동구 장동 53-7", "상세위치": "광주자수 우측 골목길", "설치연도": "1994", "보호틀유무": "N", "관할기관명": "동부소방서", "안전센터명": "대인119안전센터", "z": 12.8 }, "geometry": { "type": "Point", "coordinates": [ 126.921288, 35.150349 ] } },
{ "type": "Feature", "properties": { "시설번호": "동부-대인-동부-476", "시설유형코드": "2 ", "소재지도로명주소": "광주광역시 동구 필문대로192번길 28-1", "소재지지번주소": "광주광역시 동구 산수1동 559-35", "상세위치": "경도쥬얼리 우측", "설치연도": "2004", "보호틀유무": "N", "관할기관명": "동부소방서", "안전센터명": "대인119안전센터", "z": 18.9 }, "geometry": { "type": "Point", "coordinates": [ 126.928291, 35.1534 ] } },
{ "type": "Feature", "properties": { "시설번호": "동부-대인-동부-477", "시설유형코드": "2 ", "소재지도로명주소": "광주광역시 동구 경양로 303", "소재지지번주소": "광주광역시 동구 산수1동 495-12", "상세위치": "나무전거리 주변", "설치연도": "2004", "보호틀유무": "N", "관할기관명": "동부소방서", "안전센터명": "대인119안전센터", "z": 12.3 }, "geometry": { "type": "Point", "coordinates": [ 126.922599, 35.154612 ] } },
{ "type": "Feature", "properties": { "시설번호": "동부-대인-동부-493", "시설유형코드": "2 ", "소재지도로명주소": "광주광역시 동구 경양로305번길 4-3", "소재지지번주소": "광주광역시 동구 산수1동 490-15", "상세위치": null, "설치연도": "2006", "보호틀유무": "N", "관할기관명": "동부소방서", "안전센터명": "대인119안전센터", "z": 13.2 }, "geometry": { "type": "Point", "coordinates": [ 126.922907, 35.154988 ] } },
{ "type": "Feature", "properties": { "시설번호": "동부-대인-동부-508", "시설유형코드": "1 ", "소재지도로명주소": "광주광역시 동구 경양로 340", "소재지지번주소": "광주광역시 동구 산수1동 361-1", "상세위치": "산수골막걸리 앞", "설치연도": "2009", "보호틀유무": "N", "관할기관명": "동부소방서", "안전센터명": "대인119안전센터", "z": 17.8 }, "geometry": { "type": "Point", "coordinates": [ 126.926369, 35.153697 ] } },
{ "type": "Feature", "properties": { "시설번호": "동부-대인-동부-587", "시설유형코드": "1 ", "소재지도로명주소": "광주광역시 동구 필문대로192번길 24", "소재지지번주소": "광주광역시 동구 산수1동 559-71", "상세위치": "만년쌀상회 앞", "설치연도": "2018", "보호틀유무": "N", "관할기관명": "동부소방서", "안전센터명": "대인119안전센터", "z": 19.5 }, "geometry": { "type": "Point", "coordinates": [ 126.928833, 35.153517 ] } },
{ "type": "Feature", "properties": { "시설번호": "동부-대인-동부-588", "시설유형코드": "1 ", "소재지도로명주소": "광주광역시 동구 경양로 305", "소재지지번주소": "광주광역시 동구 산수1동 489-22", "상세위치": "광주창호 앞", "설치연도": "2018", "보호틀유무": "N", "관할기관명": "동부소방서", "안전센터명": "대인119안전센터", "z": 12.6 }, "geometry": { "type": "Point", "coordinates": [ 126.922836, 35.154612 ] } },
{ "type": "Feature", "properties": { "시설번호": "동부-대인-동부-595", "시설유형코드": "1 ", "소재지도로명주소": "광주광역시 동구 경양로 342", "소재지지번주소": "광주광역시 동구 산수1동 360-20", "상세위치": "남일카공업사 건녀편", "설치연도": "2019", "보호틀유무": "N", "관할기관명": "동부소방서", "안전센터명": "대인119안전센터", "z": 17.9 }, "geometry": { "type": "Point", "coordinates": [ 126.926422, 35.153708 ] } },
{ "type": "Feature", "properties": { "시설번호": "동부-대인-동부-596", "시설유형코드": "1 ", "소재지도로명주소": "광주광역시 동구 동명로67번길 32-9", "소재지지번주소": "광주광역시 동구 산수1동 361-3", "상세위치": "바바쥬얼리 앞", "설치연도": "2019", "보호틀유무": "N", "관할기관명": "동부소방서", "안전센터명": "대인119안전센터", "z": 17.3 }, "geometry": { "type": "Point", "coordinates": [ 126.925929, 35.153646 ] } },
{ "type": "Feature", "properties": { "시설번호": "동부-대인-동부-597", "시설유형코드": "1 ", "소재지도로명주소": "광주광역시 동구 경양로 342", "소재지지번주소": "광주광역시 동구 산수1동 376-18", "상세위치": "달밤 앞", "설치연도": "2019", "보호틀유무": "N", "관할기관명": "동부소방서", "안전센터명": "대인119안전센터", "z": 17.9 }, "geometry": { "type": "Point", "coordinates": [ 126.926428, 35.153708 ] } },
{ "type": "Feature", "properties": { "시설번호": "동부-대인-동부-599", "시설유형코드": "1 ", "소재지도로명주소": "광주광역시 동구 동계로 27", "소재지지번주소": "광주광역시 동구 산수1동 724", "상세위치": "꿀피부 앞", "설치연도": "2019", "보호틀유무": "N", "관할기관명": "동부소방서", "안전센터명": "대인119안전센터", "z": 15.6 }, "geometry": { "type": "Point", "coordinates": [ 126.924461, 35.154194 ] } },
{ "type": "Feature", "properties": { "시설번호": "동부-지산-동부-저-15", "시설유형코드": "4 ", "소재지도로명주소": "광주광역시 동구 동명로 20번길 9", "소재지지번주소": "광주광역시 동구 동명동 154-26", "상세위치": "노인복지회관", "설치연도": "1999", "보호틀유무": "N", "관할기관명": "동부소방서", "안전센터명": "지산119안전센터", "z": 18.3 }, "geometry": { "type": "Point", "coordinates": [ 126.924554, 35.150722 ] } },
{ "type": "Feature", "properties": { "시설번호": "동부-지산-동부-115", "시설유형코드": "1 ", "소재지도로명주소": "광주광역시 동구 동계천로 95번길 29", "소재지지번주소": "광주광역시 동구 동명동 250-27", "상세위치": "白 광고기획인 앞", "설치연도": "1972", "보호틀유무": "Y", "관할기관명": "동부소방서", "안전센터명": "지산119안전센터", "z": 10.5 }, "geometry": { "type": "Point", "coordinates": [ 126.921693, 35.153741 ] } },
{ "type": "Feature", "properties": { "시설번호": "동부-지산-동부-116", "시설유형코드": "1 ", "소재지도로명주소": "광주광역시 동구 동명로 14번길 1", "소재지지번주소": "광주광역시 동구 동명동 197-24", "상세위치": "광주축산농협앞", "설치연도": "2003", "보호틀유무": "Y", "관할기관명": "동부소방서", "안전센터명": "지산119안전센터", "z": 16.2 }, "geometry": { "type": "Point", "coordinates": [ 126.923336, 35.150349 ] } },
{ "type": "Feature", "properties": { "시설번호": "동부-지산-동부-117", "시설유형코드": "1 ", "소재지도로명주소": "광주광역시 동구 동계천로 135", "소재지지번주소": "광주광역시 동구 동명동 154-116", "상세위치": "한길학원 옆", "설치연도": "1998", "보호틀유무": "Y", "관할기관명": "동부소방서", "안전센터명": "지산119안전센터", "z": 17.7 }, "geometry": { "type": "Point", "coordinates": [ 126.924506, 35.149498 ] } },
{ "type": "Feature", "properties": { "시설번호": "동부-지산-동부-118", "시설유형코드": "1 ", "소재지도로명주소": "광주광역시 동구 동명로 24", "소재지지번주소": "광주광역시 동구 동명동 200-9", "상세위치": "별채 앞", "설치연도": "2003", "보호틀유무": "N", "관할기관명": "동부소방서", "안전센터명": "지산119안전센터", "z": 17.0 }, "geometry": { "type": "Point", "coordinates": [ 126.923832, 35.151188 ] } },
{ "type": "Feature", "properties": { "시설번호": "동부-지산-동부-119", "시설유형코드": "1 ", "소재지도로명주소": "광주광역시 동구 장동로 23-16", "소재지지번주소": "광주광역시 동구 동명동 143-14", "상세위치": "중앙도서관앞", "설치연도": "1998", "보호틀유무": "Y", "관할기관명": "동부소방서", "안전센터명": "지산119안전센터", "z": 18.3 }, "geometry": { "type": "Point", "coordinates": [ 126.925299, 35.148382 ] } },
{ "type": "Feature", "properties": { "시설번호": "동부-지산-동부-120", "시설유형코드": "2 ", "소재지도로명주소": "광주광역시 동구 동계천로 155", "소재지지번주소": "광주광역시 동구 동명동 72-8", "상세위치": "토메이 옆", "설치연도": "1995", "보호틀유무": "N", "관할기관명": "동부소방서", "안전센터명": "지산119안전센터", "z": 20.7 }, "geometry": { "type": "Point", "coordinates": [ 126.926251, 35.149172 ] } },
{ "type": "Feature", "properties": { "시설번호": "동부-지산-동부-121", "시설유형코드": "1 ", "소재지도로명주소": "광주광역시 동구 동명로 47", "소재지지번주소": "광주광역시 동구 동명동 176-11", "상세위치": "바버샵 앞", "설치연도": "2020", "보호틀유무": "Y", "관할기관명": "동부소방서", "안전센터명": "지산119안전센터", "z": 18.5 }, "geometry": { "type": "Point", "coordinates": [ 126.925785, 35.151662 ] } },
{ "type": "Feature", "properties": { "시설번호": "동부-지산-동부-122", "시설유형코드": "1 ", "소재지도로명주소": "광주광역시 동구 동명로14번길 11-6", "소재지지번주소": "광주광역시 동구 동명동 154-10", "상세위치": "노인복지회관 옆", "설치연도": "2014", "보호틀유무": "Y", "관할기관명": "동부소방서", "안전센터명": "지산119안전센터", "z": 19.0 }, "geometry": { "type": "Point", "coordinates": [ 126.924746, 35.15034 ] } },
{ "type": "Feature", "properties": { "시설번호": "동부-지산-동부-123", "시설유형코드": "1 ", "소재지도로명주소": "광주광역시 동구 동계천로 107", "소재지지번주소": "광주광역시 동구 동명동 200-12", "상세위치": "동명할인마트 옆", "설치연도": "2002", "보호틀유무": "Y", "관할기관명": "동부소방서", "안전센터명": "지산119안전센터", "z": 14.1 }, "geometry": { "type": "Point", "coordinates": [ 126.922385, 35.151169 ] } },
{ "type": "Feature", "properties": { "시설번호": "동부-지산-동부-124", "시설유형코드": "1 ", "소재지도로명주소": "광주광역시 동구 동명로 66", "소재지지번주소": "광주광역시 동구 동명동 167-7", "상세위치": "골든리버모텔 앞", "설치연도": "2003", "보호틀유무": "Y", "관할기관명": "동부소방서", "안전센터명": "지산119안전센터", "z": 23.9 }, "geometry": { "type": "Point", "coordinates": [ 126.927524, 35.1509 ] } },
{ "type": "Feature", "properties": { "시설번호": "동부-지산-동부-557", "시설유형코드": "1 ", "소재지도로명주소": "광주광역시 동구 동명로 31", "소재지지번주소": "광주광역시 동구 동명동 200-24", "상세위치": "한빛고시학원광고간판 앞", "설치연도": "2013", "보호틀유무": "N", "관할기관명": "동부소방서", "안전센터명": "지산119안전센터", "z": 16.1 }, "geometry": { "type": "Point", "coordinates": [ 126.923841, 35.151827 ] } },
{ "type": "Feature", "properties": { "시설번호": "동부-지산-동부-126", "시설유형코드": "1 ", "소재지도로명주소": "광주광역시 동구 백서로 218-1", "소재지지번주소": "광주광역시 동구 동명동 137-6", "상세위치": "지정빌라 앞", "설치연도": "1998", "보호틀유무": "N", "관할기관명": "동부소방서", "안전센터명": "지산119안전센터", "z": 19.6 }, "geometry": { "type": "Point", "coordinates": [ 126.926503, 35.14717 ] } },
{ "type": "Feature", "properties": { "시설번호": "동부-지산-동부-635", "시설유형코드": "1 ", "소재지도로명주소": "광주광역시 동구 동명로 20번길 31", "소재지지번주소": "광주광역시 동구 동명동 68-30", "상세위치": "동명교회 앞", "설치연도": "2023", "보호틀유무": "Y", "관할기관명": "동부소방서", "안전센터명": "지산119안전센터", "z": 22.7 }, "geometry": { "type": "Point", "coordinates": [ 126.926639, 35.150648 ] } },
{ "type": "Feature", "properties": { "시설번호": "동부-지산-동부-128", "시설유형코드": "1 ", "소재지도로명주소": "광주광역시 동구 필문대로 261", "소재지지번주소": "광주광역시 동구 동명동 126", "상세위치": "중고가구백화점 앞", "설치연도": "1998", "보호틀유무": "Y", "관할기관명": "동부소방서", "안전센터명": "지산119안전센터", "z": 22.9 }, "geometry": { "type": "Point", "coordinates": [ 126.928498, 35.147851 ] } },
{ "type": "Feature", "properties": { "시설번호": "동부-지산-동부-129", "시설유형코드": "1 ", "소재지도로명주소": "광주광역시 동구 동계천로 180", "소재지지번주소": "광주광역시 동구 동명동 97-1", "상세위치": "자전거 공원 앞", "설치연도": "1998", "보호틀유무": "Y", "관할기관명": "동부소방서", "안전센터명": "지산119안전센터", "z": 24.9 }, "geometry": { "type": "Point", "coordinates": [ 126.928811, 35.149213 ] } },
{ "type": "Feature", "properties": { "시설번호": "동부-지산-동부-131", "시설유형코드": "2 ", "소재지도로명주소": "광주광역시 동구 중앙로 258", "소재지지번주소": "광주광역시 동구 동명동 265-5", "상세위치": "한마음부동산 앞", "설치연도": "1960", "보호틀유무": "N", "관할기관명": "동부소방서", "안전센터명": "지산119안전센터", "z": 9.6 }, "geometry": { "type": "Point", "coordinates": [ 126.920878, 35.154636 ] } },
{ "type": "Feature", "properties": { "시설번호": "동부-지산-동부-615", "시설유형코드": "1 ", "소재지도로명주소": "광주광역시 동구 동계로 8-1", "소재지지번주소": "광주광역시 동구 동명동 207-83", "상세위치": "GS25 앞", "설치연도": "2022", "보호틀유무": "Y", "관할기관명": "동부소방서", "안전센터명": "지산119안전센터", "z": 13.9 }, "geometry": { "type": "Point", "coordinates": [ 126.924411, 35.152481 ] } },
{ "type": "Feature", "properties": { "시설번호": "동부-지산-동부-133", "시설유형코드": "1 ", "소재지도로명주소": "광주광역시 동구 경양로 288", "소재지지번주소": "광주광역시 동구 동명동 249-8", "상세위치": "계림동 새마을금고 앞", "설치연도": "2020", "보호틀유무": "Y", "관할기관명": "동부소방서", "안전센터명": "지산119안전센터", "z": 9.7 }, "geometry": { "type": "Point", "coordinates": [ 126.920767, 35.154254 ] } },
{ "type": "Feature", "properties": { "시설번호": "동부-지산-동부-134", "시설유형코드": "1 ", "소재지도로명주소": "광주광역시 동구 동계로 1번길 181-1", "소재지지번주소": "광주광역시 동구 동명동 226-29", "상세위치": "남도사무기기옆", "설치연도": "1997", "보호틀유무": "N", "관할기관명": "동부소방서", "안전센터명": "지산119안전센터", "z": 12.2 }, "geometry": { "type": "Point", "coordinates": [ 126.922211, 35.152449 ] } },
{ "type": "Feature", "properties": { "시설번호": "동부-지산-동부-253", "시설유형코드": "1 ", "소재지도로명주소": "광주광역시 동구 동계천로 157", "소재지지번주소": "광주광역시 동구 동명동 143-39", "상세위치": "외쿡포차 건너편", "설치연도": "2006", "보호틀유무": "N", "관할기관명": "동부소방서", "안전센터명": "지산119안전센터", "z": 20.9 }, "geometry": { "type": "Point", "coordinates": [ 126.926371, 35.149174 ] } },
{ "type": "Feature", "properties": { "시설번호": "동부-지산-동부-258", "시설유형코드": "1 ", "소재지도로명주소": "광주광역시 동구 동명로 14번길 19", "소재지지번주소": "광주광역시 동구 동명동 73-19", "상세위치": "코발트 옆", "설치연도": "2002", "보호틀유무": "N", "관할기관명": "동부소방서", "안전센터명": "지산119안전센터", "z": 20.5 }, "geometry": { "type": "Point", "coordinates": [ 126.925408, 35.15004 ] } },
{ "type": "Feature", "properties": { "시설번호": "동부-지산-동부-316", "시설유형코드": "2 ", "소재지도로명주소": "광주광역시 동구 계림로 8-2", "소재지지번주소": "광주광역시 동구 동명동 259-1", "상세위치": "월드컵보생대리점 건너편", "설치연도": "1995", "보호틀유무": "N", "관할기관명": "동부소방서", "안전센터명": "지산119안전센터", "z": 10.8 }, "geometry": { "type": "Point", "coordinates": [ 126.921652, 35.154889 ] } },
{ "type": "Feature", "properties": { "시설번호": "동부-지산-동부-326", "시설유형코드": "1 ", "소재지도로명주소": "광주광역시 동구 동명로 98번길 20-2", "소재지지번주소": "광주광역시 동구 동명동 287-23", "상세위치": "금광하이빌 앞", "설치연도": "2020", "보호틀유무": "Y", "관할기관명": "동부소방서", "안전센터명": "지산119안전센터", "z": 26.6 }, "geometry": { "type": "Point", "coordinates": [ 126.930499, 35.149311 ] } },
{ "type": "Feature", "properties": { "시설번호": "동부-지산-동부-403", "시설유형코드": "2 ", "소재지도로명주소": "광주광역시 동구 동계로 1번길 15", "소재지지번주소": "광주광역시 동구 동명동 200-113", "상세위치": null, "설치연도": "1997", "보호틀유무": "N", "관할기관명": "동부소방서", "안전센터명": "지산119안전센터", "z": 12.7 }, "geometry": { "type": "Point", "coordinates": [ 126.922286, 35.152151 ] } },
{ "type": "Feature", "properties": { "시설번호": "동부-지산-동부-421", "시설유형코드": "1 ", "소재지도로명주소": "광주광역시 동구 동명로 70번길 17", "소재지지번주소": "광주광역시 동구 동명동 10", "상세위치": "버거브릿지 옆 공원 나무 옆", "설치연도": "2020", "보호틀유무": "Y", "관할기관명": "동부소방서", "안전센터명": "지산119안전센터", "z": 24.9 }, "geometry": { "type": "Point", "coordinates": [ 126.928613, 35.149335 ] } },
{ "type": "Feature", "properties": { "시설번호": "동부-지산-동부-428", "시설유형코드": "2 ", "소재지도로명주소": "광주광역시 동구 지호로 4", "소재지지번주소": "광주광역시 동구 동명동 105-3", "상세위치": "3심리상담센터 앞", "설치연도": "1999", "보호틀유무": "N", "관할기관명": "동부소방서", "안전센터명": "지산119안전센터", "z": 25.3 }, "geometry": { "type": "Point", "coordinates": [ 126.929653, 35.148967 ] } },
{ "type": "Feature", "properties": { "시설번호": "동부-지산-동부-443", "시설유형코드": "2 ", "소재지도로명주소": "광주광역시 동구 필문대로 253번길 6-3", "소재지지번주소": "광주광역시 동구 동명동 113-18", "상세위치": "광진원고시원 옆", "설치연도": "1999", "보호틀유무": "N", "관할기관명": "동부소방서", "안전센터명": "지산119안전센터", "z": 24.7 }, "geometry": { "type": "Point", "coordinates": [ 126.929452, 35.14816 ] } },
{ "type": "Feature", "properties": { "시설번호": "동부-지산-동부-444", "시설유형코드": "2 ", "소재지도로명주소": "광주광역시 동구 필문대로 289번길 29", "소재지지번주소": "광주광역시 동구 동명동 116-3", "상세위치": "살레시오고 후문 앞", "설치연도": "1999", "보호틀유무": "N", "관할기관명": "동부소방서", "안전센터명": "지산119안전센터", "z": 25.8 }, "geometry": { "type": "Point", "coordinates": [ 126.929424, 35.147239 ] } },
{ "type": "Feature", "properties": { "시설번호": "동부-지산-동부-449", "시설유형코드": "1 ", "소재지도로명주소": "광주광역시 동구 동명로 20번길 43", "소재지지번주소": "광주광역시 동구 동명동 154-83", "상세위치": null, "설치연도": "2015", "보호틀유무": "N", "관할기관명": "동부소방서", "안전센터명": "지산119안전센터", "z": 26.7 }, "geometry": { "type": "Point", "coordinates": [ 126.928082, 35.150211 ] } },
{ "type": "Feature", "properties": { "시설번호": "동부-지산-동부-450", "시설유형코드": "1 ", "소재지도로명주소": "광주광역시 동구 필문대로 253번길 12", "소재지지번주소": "광주광역시 동구 동명동 112-5", "상세위치": "삼정센스빌 옆", "설치연도": "2000", "보호틀유무": "N", "관할기관명": "동부소방서", "안전센터명": "지산119안전센터", "z": 26.1 }, "geometry": { "type": "Point", "coordinates": [ 126.930016, 35.148051 ] } },
{ "type": "Feature", "properties": { "시설번호": "동부-지산-동부-478", "시설유형코드": "1 ", "소재지도로명주소": "광주광역시 동구 동명로 14번길 29-4", "소재지지번주소": "광주광역시 동구 동명동 68-52", "상세위치": "동명교회다목적관앞", "설치연도": "2005", "보호틀유무": "N", "관할기관명": "동부소방서", "안전센터명": "지산119안전센터", "z": 22.7 }, "geometry": { "type": "Point", "coordinates": [ 126.926406, 35.149943 ] } },
{ "type": "Feature", "properties": { "시설번호": "동부-지산-동부-479", "시설유형코드": "1 ", "소재지도로명주소": "광주광역시 동구 백서로 232", "소재지지번주소": "광주광역시 동구 동명동 80-1", "상세위치": "서석교회 정문", "설치연도": "2005", "보호틀유무": "N", "관할기관명": "동부소방서", "안전센터명": "지산119안전센터", "z": 20.7 }, "geometry": { "type": "Point", "coordinates": [ 126.927211, 35.148395 ] } },
{ "type": "Feature", "properties": { "시설번호": "동부-지산-동부-491", "시설유형코드": "1 ", "소재지도로명주소": "광주광역시 동구 동계천로 87", "소재지지번주소": "광주광역시 동구 동명동 230-1", "상세위치": "불교서원 옆", "설치연도": "2006", "보호틀유무": "Y", "관할기관명": "동부소방서", "안전센터명": "지산119안전센터", "z": 11.6 }, "geometry": { "type": "Point", "coordinates": [ 126.920715, 35.152296 ] } },
{ "type": "Feature", "properties": { "시설번호": "동부-지산-동부-496", "시설유형코드": "1 ", "소재지도로명주소": "광주광역시 동구 중앙로 252번길 9", "소재지지번주소": "광주광역시 동구 동명동 216", "상세위치": null, "설치연도": "2006", "보호틀유무": "N", "관할기관명": "동부소방서", "안전센터명": "지산119안전센터", "z": 10.1 }, "geometry": { "type": "Point", "coordinates": [ 126.921015, 35.153589 ] } },
{ "type": "Feature", "properties": { "시설번호": "동부-지산-동부-497", "시설유형코드": "2 ", "소재지도로명주소": "광주광역시 동구 동명로 14번길 45-2", "소재지지번주소": "광주광역시 동구 동명동 36-2", "상세위치": null, "설치연도": "2006", "보호틀유무": "N", "관할기관명": "동부소방서", "안전센터명": "지산119안전센터", "z": 25.8 }, "geometry": { "type": "Point", "coordinates": [ 126.928344, 35.149675 ] } },
{ "type": "Feature", "properties": { "시설번호": "동부-지산-동부-561", "시설유형코드": "1 ", "소재지도로명주소": "광주광역시 동구 동계천로95번길 18-17", "소재지지번주소": "광주광역시 동구 동명동 207-24", "상세위치": null, "설치연도": "2014", "보호틀유무": "Y", "관할기관명": "동부소방서", "안전센터명": "지산119안전센터", "z": 11.8 }, "geometry": { "type": "Point", "coordinates": [ 126.922419, 35.152987 ] } },
{ "type": "Feature", "properties": { "시설번호": "동부-지산-동부-577", "시설유형코드": "1 ", "소재지도로명주소": "광주광역시 동구 동명로 46", "소재지지번주소": "광주광역시 동구 동명동 157-17", "상세위치": "황소골 식당 앞", "설치연도": "2017", "보호틀유무": "Y", "관할기관명": "동부소방서", "안전센터명": "지산119안전센터", "z": 19.0 }, "geometry": { "type": "Point", "coordinates": [ 126.925451, 35.151435 ] } },
{ "type": "Feature", "properties": { "시설번호": "동부-지산-동부-590", "시설유형코드": "1 ", "소재지도로명주소": "광주광역시 동구 동계로 13번길 18-2", "소재지지번주소": "광주광역시 동구 동명동 209-53", "상세위치": null, "설치연도": "2019", "보호틀유무": "N", "관할기관명": "동부소방서", "안전센터명": "지산119안전센터", "z": 11.3 }, "geometry": { "type": "Point", "coordinates": [ 126.922578, 35.153463 ] } },
{ "type": "Feature", "properties": { "시설번호": "동부-지산-동부-97", "시설유형코드": "1 ", "소재지도로명주소": "광주광역시 동구 밤실로4번안길2", "소재지지번주소": "광주광역시 동구 지산2동 262-2", "상세위치": "영화어린이집 좌측", "설치연도": "2003", "보호틀유무": "Y", "관할기관명": "동부소방서", "안전센터명": "지산119안전센터", "z": 46.6 }, "geometry": { "type": "Point", "coordinates": [ 126.938058, 35.148658 ] } },
{ "type": "Feature", "properties": { "시설번호": "동부-지산-동부-102", "시설유형코드": "1 ", "소재지도로명주소": "광주광역시 동구 동명로114", "소재지지번주소": "광주광역시 동구 지산2동 715-1", "상세위치": "T 월드 앞", "설치연도": "2002", "보호틀유무": "N", "관할기관명": "동부소방서", "안전센터명": "지산119안전센터", "z": 33.8 }, "geometry": { "type": "Point", "coordinates": [ 126.932999, 35.150588 ] } },
{ "type": "Feature", "properties": { "시설번호": "동부-지산-동부-103", "시설유형코드": "2 ", "소재지도로명주소": "광주광역시 동구 지산로 38", "소재지지번주소": "광주광역시 동구 지산2동 697", "상세위치": "거성마트 앞", "설치연도": "2002", "보호틀유무": "N", "관할기관명": "동부소방서", "안전센터명": "지산119안전센터", "z": 30.1 }, "geometry": { "type": "Point", "coordinates": [ 126.93211, 35.147241 ] } },
{ "type": "Feature", "properties": { "시설번호": "동부-지산-동부-105", "시설유형코드": "1 ", "소재지도로명주소": "광주광역시 동구 동명로 71", "소재지지번주소": "광주광역시 동구 지산2동 722-55", "상세위치": "농장다리 부근", "설치연도": "2002", "보호틀유무": "Y", "관할기관명": "동부소방서", "안전센터명": "지산119안전센터", "z": 25.0 }, "geometry": { "type": "Point", "coordinates": [ 126.928357, 35.151136 ] } },
{ "type": "Feature", "properties": { "시설번호": "동부-지산-동부-106", "시설유형코드": "2 ", "소재지도로명주소": "광주광역시 동구 필문대로205번길 37-2", "소재지지번주소": "광주광역시 동구 지산2동 704-54", "상세위치": "컴퓨터 조립건물 앞", "설치연도": "2002", "보호틀유무": "N", "관할기관명": "동부소방서", "안전센터명": "지산119안전센터", "z": 28.5 }, "geometry": { "type": "Point", "coordinates": [ 126.935158, 35.152012 ] } },
{ "type": "Feature", "properties": { "시설번호": "동부-지산-동부-108", "시설유형코드": "1 ", "소재지도로명주소": "광주광역시 동구 밤실로 11-32", "소재지지번주소": "광주광역시 동구 지산2동 709-5", "상세위치": "위승환사무소 좌측", "설치연도": "1996", "보호틀유무": "N", "관할기관명": "동부소방서", "안전센터명": "지산119안전센터", "z": 43.2 }, "geometry": { "type": "Point", "coordinates": [ 126.93621, 35.149051 ] } },
{ "type": "Feature", "properties": { "시설번호": "동부-지산-동부-109", "시설유형코드": "1 ", "소재지도로명주소": "광주광역시 동구 지산로57번길 18-17", "소재지지번주소": "광주광역시 동구 지산2동 438-10", "상세위치": "지산교회 옆", "설치연도": "2017", "보호틀유무": "N", "관할기관명": "동부소방서", "안전센터명": "지산119안전센터", "z": 29.4 }, "geometry": { "type": "Point", "coordinates": [ 126.931677, 35.149298 ] } },
{ "type": "Feature", "properties": { "시설번호": "동부-지산-동부-111", "시설유형코드": "1 ", "소재지도로명주소": "광주광역시 동구 준법로 36", "소재지지번주소": "광주광역시 동구 지산2동 709-1", "상세위치": "청천공인중개자 좌측", "설치연도": "1996", "보호틀유무": "N", "관할기관명": "동부소방서", "안전센터명": "지산119안전센터", "z": 44.7 }, "geometry": { "type": "Point", "coordinates": [ 126.936796, 35.149126 ] } },
{ "type": "Feature", "properties": { "시설번호": "동부-지산-동부-112", "시설유형코드": "1 ", "소재지도로명주소": "광주광역시 동구 밤실로4번길 27-8", "소재지지번주소": "광주광역시 동구 지산2동 291-3", "상세위치": "해피빌라 옆 골목", "설치연도": "1999", "보호틀유무": "N", "관할기관명": "동부소방서", "안전센터명": "지산119안전센터", "z": 49.6 }, "geometry": { "type": "Point", "coordinates": [ 126.939231, 35.148645 ] } },
{ "type": "Feature", "properties": { "시설번호": "동부-지산-동부-163", "시설유형코드": "2 ", "소재지도로명주소": "광주광역시 동구 지호로 81-20", "소재지지번주소": "광주광역시 동구 지산2동 275", "상세위치": "오지호가 입구", "설치연도": "2002", "보호틀유무": "N", "관할기관명": "동부소방서", "안전센터명": "지산119안전센터", "z": 47.9 }, "geometry": { "type": "Point", "coordinates": [ 126.938649, 35.149012 ] } },
{ "type": "Feature", "properties": { "시설번호": "동부-지산-동부-281", "시설유형코드": "2 ", "소재지도로명주소": "광주광역시 동구 지호로 98", "소재지지번주소": "광주광역시 동구 지산2동 291-31", "상세위치": "단사공원 마트 우측", "설치연도": "2003", "보호틀유무": "N", "관할기관명": "동부소방서", "안전센터명": "지산119안전센터", "z": 47.8 }, "geometry": { "type": "Point", "coordinates": [ 126.939422, 35.147958 ] } },
{ "type": "Feature", "properties": { "시설번호": "동부-지산-동부-282", "시설유형코드": "1 ", "소재지도로명주소": "광주광역시 동구 밤실로 40-1", "소재지지번주소": "광주광역시 동구 지산2동 316-1", "상세위치": "동산아파트 앞", "설치연도": "2003", "보호틀유무": "N", "관할기관명": "동부소방서", "안전센터명": "지산119안전센터", "z": 36.4 }, "geometry": { "type": "Point", "coordinates": [ 126.937126, 35.15132 ] } },
{ "type": "Feature", "properties": { "시설번호": "동부-지산-동부-283", "시설유형코드": "1 ", "소재지도로명주소": "광주광역시 동구 지호로 20", "소재지지번주소": "광주광역시 동구 지산2동 407-28", "상세위치": "형제유통 우측", "설치연도": "2003", "보호틀유무": "N", "관할기관명": "동부소방서", "안전센터명": "지산119안전센터", "z": 26.2 }, "geometry": { "type": "Point", "coordinates": [ 126.931151, 35.148463 ] } },
{ "type": "Feature", "properties": { "시설번호": "동부-지산-동부-300", "시설유형코드": "1 ", "소재지도로명주소": "광주광역시 동구 밤실로 26-1", "소재지지번주소": "광주광역시 동구 지산2동 249-4", "상세위치": "미소필한의원 앞", "설치연도": "1993", "보호틀유무": "N", "관할기관명": "동부소방서", "안전센터명": "지산119안전센터", "z": 44.6 }, "geometry": { "type": "Point", "coordinates": [ 126.937107, 35.150025 ] } },
{ "type": "Feature", "properties": { "시설번호": "동부-지산-동부-313", "시설유형코드": "1 ", "소재지도로명주소": "광주광역시 동구 준법로 29", "소재지지번주소": "광주광역시 동구 지산2동 708-34", "상세위치": "조성주사무소 앞", "설치연도": "1993", "보호틀유무": "Y", "관할기관명": "동부소방서", "안전센터명": "지산119안전센터", "z": 43.7 }, "geometry": { "type": "Point", "coordinates": [ 126.936299, 35.149319 ] } },
{ "type": "Feature", "properties": { "시설번호": "동부-지산-동부-351", "시설유형코드": "1 ", "소재지도로명주소": "광주광역시 동구 밤실로39번길5", "소재지지번주소": "광주광역시 동구 지산2동 705-38", "상세위치": "밤실로39번길 5 건물 우측", "설치연도": "1994", "보호틀유무": "N", "관할기관명": "동부소방서", "안전센터명": "지산119안전센터", "z": 37.1 }, "geometry": { "type": "Point", "coordinates": [ 126.936144, 35.151093 ] } },
{ "type": "Feature", "properties": { "시설번호": "동부-지산-동부-364", "시설유형코드": "2 ", "소재지도로명주소": "광주광역시 동구 지산로74-4", "소재지지번주소": "광주광역시 동구 지산2동 379-14", "상세위치": "서승부사무소 앞", "설치연도": "1994", "보호틀유무": "N", "관할기관명": "동부소방서", "안전센터명": "지산119안전센터", "z": 36.0 }, "geometry": { "type": "Point", "coordinates": [ 126.933389, 35.150183 ] } },
{ "type": "Feature", "properties": { "시설번호": "동부-지산-동부-392", "시설유형코드": "1 ", "소재지도로명주소": "광주광역시 동구 밤실로33-1", "소재지지번주소": "광주광역시 동구 지산2동 706-5", "상세위치": "밤실로 33-1 건물 앞", "설치연도": "1997", "보호틀유무": "N", "관할기관명": "동부소방서", "안전센터명": "지산119안전센터", "z": 39.7 }, "geometry": { "type": "Point", "coordinates": [ 126.93686, 35.150712 ] } },
{ "type": "Feature", "properties": { "시설번호": "동부-지산-동부-393", "시설유형코드": "1 ", "소재지도로명주소": "광주광역시 동구 밤실로 53", "소재지지번주소": "광주광역시 동구 지산2동 703-28", "상세위치": "동구 밤실로 53 건물 앞", "설치연도": "1997", "보호틀유무": "N", "관할기관명": "동부소방서", "안전센터명": "지산119안전센터", "z": 31.0 }, "geometry": { "type": "Point", "coordinates": [ 126.936107, 35.152334 ] } },
{ "type": "Feature", "properties": { "시설번호": "동부-지산-동부-416", "시설유형코드": "2 ", "소재지도로명주소": "광주광역시 동구 필문대로289번길 8", "소재지지번주소": "광주광역시 동구 지산2동 515", "상세위치": "신북방앗간 앞", "설치연도": "1994", "보호틀유무": "N", "관할기관명": "동부소방서", "안전센터명": "지산119안전센터", "z": 22.1 }, "geometry": { "type": "Point", "coordinates": [ 126.927623, 35.146099 ] } },
{ "type": "Feature", "properties": { "시설번호": "동부-지산-동부-418", "시설유형코드": "2 ", "소재지도로명주소": "광주광역시 동구 밤실로23번길6", "소재지지번주소": "광주광역시 동구 지산2동 706-36", "상세위치": null, "설치연도": "1997", "보호틀유무": "N", "관할기관명": "동부소방서", "안전센터명": "지산119안전센터", "z": 43.8 }, "geometry": { "type": "Point", "coordinates": [ 126.936434, 35.149936 ] } },
{ "type": "Feature", "properties": { "시설번호": "동부-지산-동부-473", "시설유형코드": "2 ", "소재지도로명주소": "광주광역시 동구 밤실로4번안길27", "소재지지번주소": "광주광역시 동구 지산2동 309", "상세위치": null, "설치연도": "2004", "보호틀유무": "N", "관할기관명": "동부소방서", "안전센터명": "지산119안전센터", "z": 52.4 }, "geometry": { "type": "Point", "coordinates": [ 126.938994, 35.14991 ] } },
{ "type": "Feature", "properties": { "시설번호": "동부-지산-동부-480", "시설유형코드": "2 ", "소재지도로명주소": "광주광역시 동구 지산로89번길 1", "소재지지번주소": "광주광역시 동구 지산2동 713-7", "상세위치": null, "설치연도": "2004", "보호틀유무": "N", "관할기관명": "동부소방서", "안전센터명": "지산119안전센터", "z": 27.0 }, "geometry": { "type": "Point", "coordinates": [ 126.932991, 35.151669 ] } },
{ "type": "Feature", "properties": { "시설번호": "동부-지산-동부-486", "시설유형코드": "1 ", "소재지도로명주소": "광주광역시 동구 밤실로30번길 16", "소재지지번주소": "광주광역시 동구 지산2동 315-54", "상세위치": "지산센터 앞", "설치연도": "2005", "보호틀유무": "N", "관할기관명": "동부소방서", "안전센터명": "지산119안전센터", "z": 47.9 }, "geometry": { "type": "Point", "coordinates": [ 126.938587, 35.149959 ] } },
{ "type": "Feature", "properties": { "시설번호": "동부-지산-동부-508", "시설유형코드": "2 ", "소재지도로명주소": "광주광역시 동구 필문대로253번길11-14", "소재지지번주소": "광주광역시 동구 지산2동 409-1", "상세위치": null, "설치연도": "1999", "보호틀유무": "N", "관할기관명": "동부소방서", "안전센터명": "지산119안전센터", "z": 26.4 }, "geometry": { "type": "Point", "coordinates": [ 126.930342, 35.148587 ] } },
{ "type": "Feature", "properties": { "시설번호": "동부-지산-동부-517", "시설유형코드": "1 ", "소재지도로명주소": "광주광역시 동구 지산로 50", "소재지지번주소": "광주광역시 동구 지산2동 694-72", "상세위치": "레몬pc방 입구", "설치연도": "2010", "보호틀유무": "Y", "관할기관명": "동부소방서", "안전센터명": "지산119안전센터", "z": 30.9 }, "geometry": { "type": "Point", "coordinates": [ 126.932663, 35.148137 ] } },
{ "type": "Feature", "properties": { "시설번호": "동부-지산-동부-523", "시설유형코드": "1 ", "소재지도로명주소": "광주광역시 동구 지호로 73", "소재지지번주소": "광주광역시 동구 지산2동 193-1", "상세위치": "일맥원 옆", "설치연도": "2010", "보호틀유무": "N", "관할기관명": "동부소방서", "안전센터명": "지산119안전센터", "z": 41.3 }, "geometry": { "type": "Point", "coordinates": [ 126.937131, 35.147801 ] } },
{ "type": "Feature", "properties": { "시설번호": "동부-지산-동부-544", "시설유형코드": "1 ", "소재지도로명주소": "광주광역시 동구 동명로67번길 21", "소재지지번주소": "광주광역시 동구 지산2동 71", "상세위치": "DNA 디자인시튜디오 앞", "설치연도": "2012", "보호틀유무": "Y", "관할기관명": "동부소방서", "안전센터명": "지산119안전센터", "z": 15.3 }, "geometry": { "type": "Point", "coordinates": [ 126.926502, 35.152565 ] } },
{ "type": "Feature", "properties": { "시설번호": "동부-지산-동부-567", "시설유형코드": "1 ", "소재지도로명주소": "광주광역시 동구 필문대로 263번길 15", "소재지지번주소": "광주광역시 동구 지산2동 466-21", "상세위치": "살레시오여고 후문 비상소화전 내", "설치연도": "2015", "보호틀유무": "N", "관할기관명": "동부소방서", "안전센터명": "지산119안전센터", "z": 26.9 }, "geometry": { "type": "Point", "coordinates": [ 126.93002, 35.147515 ] } },
{ "type": "Feature", "properties": { "시설번호": "동부-지산-동부-575", "시설유형코드": "1 ", "소재지도로명주소": "광주광역시 동구 준법로 5", "소재지지번주소": "광주광역시 동구 지산2동 342-25", "상세위치": "정흔연사무소 앞", "설치연도": "2017", "보호틀유무": "Y", "관할기관명": "동부소방서", "안전센터명": "지산119안전센터", "z": 36.3 }, "geometry": { "type": "Point", "coordinates": [ 126.933686, 35.14959 ] } },
{ "type": "Feature", "properties": { "시설번호": "동부-지산-동부-616", "시설유형코드": "1 ", "소재지도로명주소": "광주광역시 동구 동명로 92", "소재지지번주소": "광주광역시 동구 지산2동 718-26", "상세위치": "지산주유소 건너편", "설치연도": "2022", "보호틀유무": "Y", "관할기관명": "동부소방서", "안전센터명": "지산119안전센터", "z": 28.6 }, "geometry": { "type": "Point", "coordinates": [ 126.93053, 35.150661 ] } },
{ "type": "Feature", "properties": { "시설번호": "동부-지산-동부-저-34", "시설유형코드": "4 ", "소재지도로명주소": "광주광역시 동구 준법로 25", "소재지지번주소": "광주광역시 동구 지산2동 708-33", "상세위치": "로컴 옆", "설치연도": "1991", "보호틀유무": "N", "관할기관명": "동부소방서", "안전센터명": "지산119안전센터", "z": 43.1 }, "geometry": { "type": "Point", "coordinates": [ 126.935903, 35.149463 ] } },
{ "type": "Feature", "properties": { "시설번호": "동부-지산-동부-139", "시설유형코드": "1 ", "소재지도로명주소": "광주광역시 동구 제봉로82번길 26", "소재지지번주소": "광주광역시 동구 서석동 14-1", "상세위치": "서석초등학교 앞", "설치연도": "2004", "보호틀유무": "N", "관할기관명": "동부소방서", "안전센터명": "지산119안전센터", "z": 17.7 }, "geometry": { "type": "Point", "coordinates": [ 126.92556, 35.147553 ] } },
{ "type": "Feature", "properties": { "시설번호": "동부-지산-동부-426", "시설유형코드": "2 ", "소재지도로명주소": "광주광역시 동구 필문대로287번길 8", "소재지지번주소": "광주광역시 동구 서석동 425-2", "상세위치": "밥사랑술사랑 앞", "설치연도": "1999", "보호틀유무": "N", "관할기관명": "동부소방서", "안전센터명": "지산119안전센터", "z": 22.1 }, "geometry": { "type": "Point", "coordinates": [ 126.927781, 35.145488 ] } },
{ "type": "Feature", "properties": { "시설번호": "동부-지산-동부-634", "시설유형코드": "1 ", "소재지도로명주소": "광주광역시 동구 백서로198번길 7", "소재지지번주소": "광주광역시 동구 서석동 7-5", "상세위치": "동구장애인복지관 앞", "설치연도": "2023", "보호틀유무": "Y", "관할기관명": "동부소방서", "안전센터명": "지산119안전센터", "z": 18.1 }, "geometry": { "type": "Point", "coordinates": [ 126.926248, 35.145793 ] } },
{ "type": "Feature", "properties": { "시설번호": "북부-임동-북부-9", "시설유형코드": "1 ", "소재지도로명주소": "광주광역시 북구 금재로 78", "소재지지번주소": "광주광역시 북구 북동 24", "상세위치": "고기백화점 앞", "설치연도": "1969", "보호틀유무": "N", "관할기관명": "북부소방서", "안전센터명": "임동119안전센터", "z": 6.1 }, "geometry": { "type": "Point", "coordinates": [ 126.911829, 35.155649 ] } },
{ "type": "Feature", "properties": { "시설번호": "동부-대인-대인-비상1호", "시설유형코드": "6 ", "소재지도로명주소": "광주광역시 동구 제봉로178번길 10", "소재지지번주소": "광주광역시 동구 대인동 190-16", "상세위치": "대인시장관리소 공중화장실 앞", "설치연도": "2016", "보호틀유무": "N", "관할기관명": "동부소방서", "안전센터명": "대인119안전센터", "z": 9.1 }, "geometry": { "type": "Point", "coordinates": [ 126.918342, 35.153012 ] } },
{ "type": "Feature", "properties": { "시설번호": "동부-대인-대인-비상2호", "시설유형코드": "6 ", "소재지도로명주소": "광주광역시 동구 제봉로190번길 1-5", "소재지지번주소": "광주광역시 동구 대인동 313-3", "상세위치": "LA갈비유통 맞은편", "설치연도": "1976", "보호틀유무": "N", "관할기관명": "동부소방서", "안전센터명": "대인119안전센터", "z": 8.7 }, "geometry": { "type": "Point", "coordinates": [ 126.916786, 35.153569 ] } },
{ "type": "Feature", "properties": { "시설번호": "동부-대인-대인-비상3호", "시설유형코드": "6 ", "소재지도로명주소": "광주광역시 동구 제봉로190번길 9-3", "소재지지번주소": "광주광역시 동구 대인동 309-15", "상세위치": "별별상상정원 맞은편", "설치연도": "1976", "보호틀유무": "N", "관할기관명": "동부소방서", "안전센터명": "대인119안전센터", "z": 8.5 }, "geometry": { "type": "Point", "coordinates": [ 126.91754, 35.154104 ] } },
{ "type": "Feature", "properties": { "시설번호": "동부-대인-대인-비상12호", "시설유형코드": "6 ", "소재지도로명주소": "광주광역시 동구 제봉로194번길 9", "소재지지번주소": "광주광역시 동구 대인동 310-9", "상세위치": "대인시장 공영주차장 앞", "설치연도": "2017", "보호틀유무": "N", "관할기관명": "동부소방서", "안전센터명": "대인119안전센터", "z": 8.6 }, "geometry": { "type": "Point", "coordinates": [ 126.91685, 35.154169 ] } },
{ "type": "Feature", "properties": { "시설번호": "동부-대인-대인-비상13호", "시설유형코드": "6 ", "소재지도로명주소": "광주광역시 동구 제봉로190번길 7-1", "소재지지번주소": "광주광역시 동구 대인동 309-12", "상세위치": "순창상회(대인시장) 맞은편", "설치연도": "2012", "보호틀유무": "N", "관할기관명": "동부소방서", "안전센터명": "대인119안전센터", "z": 8.5 }, "geometry": { "type": "Point", "coordinates": [ 126.917481, 35.154027 ] } },
{ "type": "Feature", "properties": { "시설번호": "동부-대인-대인-비상26호", "시설유형코드": "6 ", "소재지도로명주소": "광주광역시 동구 제봉로 178번길 11", "소재지지번주소": "광주광역시 동구 대인동 190-1", "상세위치": "대인시장 만선홍어 앞", "설치연도": "2020", "보호틀유무": "N", "관할기관명": "동부소방서", "안전센터명": "대인119안전센터", "z": 8.9 }, "geometry": { "type": "Point", "coordinates": [ 126.918319, 35.15342 ] } },
{ "type": "Feature", "properties": { "시설번호": "동부-대인-동부-22", "시설유형코드": "6 ", "소재지도로명주소": "광주광역시 동구 필문대로192번길 24", "소재지지번주소": "광주광역시 동구 산수동 559-71", "상세위치": "만년쌀상회 앞", "설치연도": "2018", "보호틀유무": "N", "관할기관명": "동부소방서", "안전센터명": "대인119안전센터", "z": 19.5 }, "geometry": { "type": "Point", "coordinates": [ 126.928861, 35.153517 ] } },
{ "type": "Feature", "properties": { "시설번호": "동부-대인-동부-23", "시설유형코드": "6 ", "소재지도로명주소": "광주광역시 동구 경양로 305", "소재지지번주소": "광주광역시 동구 산수동 489-22", "상세위치": "광주창호 옆", "설치연도": "2018", "보호틀유무": "N", "관할기관명": "동부소방서", "안전센터명": "대인119안전센터", "z": 12.6 }, "geometry": { "type": "Point", "coordinates": [ 126.922819, 35.154612 ] } },
{ "type": "Feature", "properties": { "시설번호": "동부-지산-동부-25", "시설유형코드": "6 ", "소재지도로명주소": "광주광역시 동구 동계로 13번길 18-2", "소재지지번주소": "광주광역시 동구 동명동 209-53", "상세위치": null, "설치연도": "2019", "보호틀유무": "N", "관할기관명": "동부소방서", "안전센터명": "지산110안전센터", "z": 11.2 }, "geometry": { "type": "Point", "coordinates": [ 126.922547, 35.153442 ] } },
{ "type": "Feature", "properties": { "시설번호": "동부-지산-동부-20", "시설유형코드": "6 ", "소재지도로명주소": "광주광역시 동구 필문대로 263번길 15", "소재지지번주소": "광주광역시 동구 지산동 466-21", "상세위치": "살레시오여고 후문", "설치연도": "2015", "보호틀유무": "N", "관할기관명": "동부소방서", "안전센터명": "지산119안전센터", "z": 26.9 }, "geometry": { "type": "Point", "coordinates": [ 126.93002, 35.147515 ] } },
{ "type": "Feature", "properties": { "시설번호": "동부-지산-동부-31", "시설유형코드": "6 ", "소재지도로명주소": "광주광역시 동구 밤실로39번길 5", "소재지지번주소": "광주광역시 동구 지산동 705-38", "상세위치": "밤실로39번길 5 건물 우측", "설치연도": "2022", "보호틀유무": "N", "관할기관명": "동부소방서", "안전센터명": "지산119안전센터", "z": 37.1 }, "geometry": { "type": "Point", "coordinates": [ 126.936173, 35.151093 ] } }
]
}
