{
"type": "FeatureCollection",
"name": "lightpoles",
"crs": { "type": "name", "properties": { "name": "urn:ogc:def:crs:OGC:1.3:CRS84" } },
"xy_coordinate_resolution": 1e-06,
"features": [
{ "type": "Feature", "properties": { "pole_kind": "보안(방범)등" }, "geometry": { "type": "Point", "coordinates": [ 126.928078, 35.146897 ] } },
{ "type": "Feature", "properties": { "pole_kind": "가로등" }, "geometry": { "type": "Point", "coordinates": [ 126.927709, 35.147415 ] } },
{ "type": "Feature", "properties": { "pole_kind": "보안(방범)등" }, "geometry": { "type": "Point", "coordinates": [ 126.926965, 35.145271 ] } },
{ "type": "Feature", "properties": { "pole_kind": "보안(방범)등" }, "geometry": { "type": "Point", "coordinates": [ 126.927154, 35.145266 ] } },
{ "type": "Feature", "properties": { "pole_kind": "보안(방범)등" }, "geometry": { "type": "Point", "coordinates": [ 126.927345, 35.1453 ] } },
{ "type": "Feature", "properties": { "pole_kind": "보안(방범)등" }, "geometry": { "type": "Point", "coordinates": [ 126.926753, 35.146397 ] } },
{ "type": "Feature", "properties": { "pole_kind": "보안(방범)등" }, "geometry": { "type": "Point", "coordinates": [ 126.929324, 35.14823 ] } },
{ "type": "Feature", "properties": { "pole_kind": "가로등" }, "geometry": { "type": "Point", "coordinates": [ 126.928979, 35.149257 ] } },
{ "type": "Feature", "properties": { "pole_kind": "보안(방범)등" }, "geometry": { "type": "Point", "coordinates": [ 126.928585, 35.14879 ] } },
{ "type": "Feature", "properties": { "pole_kind": "보안(방범)등" }, "geometry": { "type": "Point", "coordinates": [ 126.928426, 35.148874 ] } },
{ "type": "Feature", "properties": { "pole_kind": "가로등" }, "geometry": { "type": "Point", "coordinates": [ 126.929108, 35.149423 ] } },
{ "type": "Feature", "properties": { "pole_kind": "보안(방범)등" }, "geometry": { "type": "Point", "coordinates": [ 126.928798, 35.14936 ] } },
{ "type": "Feature", "properties": { "pole_kind": "보안(방범)등" }, "geometry": { "type": "Point", "coordinates": [ 126.925751, 35.147767 ] } },
{ "type": "Feature", "properties": { "pole_kind": "가로등" }, "geometry": { "type": "Point", "coordinates": [ 126.926059, 35.148872 ] } },
{ "type": "Feature", "properties": { "pole_kind": "가로등" }, "geometry": { "type": "Point", "coordinates": [ 126.926787, 35.149088 ] } },
{ "type": "Feature", "properties": { "pole_kind": "가로등" }, "geometry": { "type": "Point", "coordinates": [ 126.929203, 35.149541 ] } },
{ "type": "Feature", "properties": { "pole_kind": "보안(방범)등" }, "geometry": { "type": "Point", "coordinates": [ 126.92841, 35.148601 ] } },
{ "type": "Feature", "properties": { "pole_kind": "보안(방범)등" }, "geometry": { "type": "Point", "coordinates": [ 126.928827, 35.149608 ] } },
{ "type": "Feature", "properties": { "pole_kind": "보안(방범)등" }, "geometry": { "type": "Point", "coordinates": [ 126.925898, 35.147617 ] } },
{ "type": "Feature", "properties": { "pole_kind": "보안(방범)등" }, "geometry": { "type": "Point", "coordinates": [ 126.92749, 35.148778 ] } },
{ "type": "Feature", "properties": { "pole_kind": "보안(방범)등" }, "geometry": { "type": "Point", "coordinates": [ 126.927471, 35.147284 ] } },
{ "type": "Feature", "properties": { "pole_kind": "보안(방범)등" }, "geometry": { "type": "Point", "coordinates": [ 126.929015, 35.147695 ] } },
{ "type": "Feature", "properties": { "pole_kind": "보안(방범)등" }, "geometry": { "type": "Point", "coordinates": [ 126.928489, 35.146812 ] } },
{ "type": "Feature", "properties": { "pole_kind": "보안(방범)등" }, "geometry": { "type": "Point", "coordinates": [ 126.928676, 35.146966 ] } },
{ "type": "Feature", "properties": { "pole_kind": "보안(방범)등" }, "geometry": { "type": "Point", "coordinates": [ 126.928719, 35.147196 ] } },
{ "type": "Feature", "properties": { "pole_kind": "보안(방범)등" }, "geometry": { "type": "Point", "coordinates": [ 126.928836, 35.147387 ] } },
{ "type": "Feature", "properties": { "pole_kind": "보안(방범)등" }, "geometry": { "type": "Point", "coordinates": [ 126.929172, 35.149702 ] } },
{ "type": "Feature", "properties": { "pole_kind": "보안(방범)등" }, "geometry": { "type": "Point", "coordinates": [ 126.928452, 35.148937 ] } },
{ "type": "Feature", "properties": { "pole_kind": "보안(방범)등" }, "geometry": { "type": "Point", "coordinates": [ 126.928358, 35.149418 ] } },
{ "type": "Feature", "properties": { "pole_kind": "보안(방범)등" }, "geometry": { "type": "Point", "coordinates": [ 126.92532, 35.148172 ] } },
{ "type": "Feature", "properties": { "pole_kind": "보안(방범)등" }, "geometry": { "type": "Point", "coordinates": [ 126.925459, 35.148072 ] } },
{ "type": "Feature", "properties": { "pole_kind": "보안(방범)등" }, "geometry": { "type": "Point", "coordinates": [ 126.925309, 35.147986 ] } },
{ "type": "Feature", "properties": { "pole_kind": "보안(방범)등" }, "geometry": { "type": "Point", "coordinates": [ 126.925503, 35.147883 ] } },
{ "type": "Feature", "properties": { "pole_kind": "보안(방범)등" }, "geometry": { "type": "Point", "coordinates": [ 126.926365, 35.147578 ] } },
{ "type": "Feature", "properties": { "pole_kind": "보안(방범)등" }, "geometry": { "type": "Point", "coordinates": [ 126.925986, 35.148825 ] } },
{ "type": "Feature", "properties": { "pole_kind": "보안(방범)등" }, "geometry": { "type": "Point", "coordinates": [ 126.925808, 35.148748 ] } },
{ "type": "Feature", "properties": { "pole_kind": "보안(방범)등" }, "geometry": { "type": "Point", "coordinates": [ 126.925798, 35.148567 ] } },
{ "type": "Feature", "properties": { "pole_kind": "보안(방범)등" }, "geometry": { "type": "Point", "coordinates": [ 126.92569, 35.148478 ] } },
{ "type": "Feature", "properties": { "pole_kind": "보안(방범)등" }, "geometry": { "type": "Point", "coordinates": [ 126.925574, 35.148384 ] } },
{ "type": "Feature", "properties": { "pole_kind": "보안(방범)등" }, "geometry": { "type": "Point", "coordinates": [ 126.925442, 35.148288 ] } },
{ "type": "Feature", "properties": { "pole_kind": "가로등" }, "geometry": { "type": "Point", "coordinates": [ 126.92781, 35.148985 ] } },
{ "type": "Feature", "properties": { "pole_kind": "가로등" }, "geometry": { "type": "Point", "coordinates": [ 126.926744, 35.145855 ] } },
{ "type": "Feature", "properties": { "pole_kind": "가로등" }, "geometry": { "type": "Point", "coordinates": [ 126.926893, 35.146083 ] } },
{ "type": "Feature", "properties": { "pole_kind": "가로등" }, "geometry": { "type": "Point", "coordinates": [ 126.927023, 35.146283 ] } },
{ "type": "Feature", "properties": { "pole_kind": "가로등" }, "geometry": { "type": "Point", "coordinates": [ 126.927419, 35.146356 ] } },
{ "type": "Feature", "properties": { "pole_kind": "가로등" }, "geometry": { "type": "Point", "coordinates": [ 126.927304, 35.146722 ] } },
{ "type": "Feature", "properties": { "pole_kind": "가로등" }, "geometry": { "type": "Point", "coordinates": [ 126.927162, 35.1465 ] } },
{ "type": "Feature", "properties": { "pole_kind": "가로등" }, "geometry": { "type": "Point", "coordinates": [ 126.927424, 35.146911 ] } },
{ "type": "Feature", "properties": { "pole_kind": "가로등" }, "geometry": { "type": "Point", "coordinates": [ 126.927622, 35.147214 ] } },
{ "type": "Feature", "properties": { "pole_kind": "가로등" }, "geometry": { "type": "Point", "coordinates": [ 126.927803, 35.146948 ] } },
{ "type": "Feature", "properties": { "pole_kind": "가로등" }, "geometry": { "type": "Point", "coordinates": [ 126.928044, 35.147323 ] } },
{ "type": "Feature", "properties": { "pole_kind": "가로등" }, "geometry": { "type": "Point", "coordinates": [ 126.928054, 35.147882 ] } },
{ "type": "Feature", "properties": { "pole_kind": "가로등" }, "geometry": { "type": "Point", "coordinates": [ 126.928183, 35.148079 ] } },
{ "type": "Feature", "properties": { "pole_kind": "가로등" }, "geometry": { "type": "Point", "coordinates": [ 126.929519, 35.149985 ] } },
{ "type": "Feature", "properties": { "pole_kind": "가로등" }, "geometry": { "type": "Point", "coordinates": [ 126.92981, 35.149867 ] } },
{ "type": "Feature", "properties": { "pole_kind": "가로등" }, "geometry": { "type": "Point", "coordinates": [ 126.925468, 35.1487 ] } },
{ "type": "Feature", "properties": { "pole_kind": "가로등" }, "geometry": { "type": "Point", "coordinates": [ 126.926481, 35.147291 ] } },
{ "type": "Feature", "properties": { "pole_kind": "가로등" }, "geometry": { "type": "Point", "coordinates": [ 126.926388, 35.147159 ] } },
{ "type": "Feature", "properties": { "pole_kind": "가로등" }, "geometry": { "type": "Point", "coordinates": [ 126.92676, 35.145333 ] } },
{ "type": "Feature", "properties": { "pole_kind": "가로등" }, "geometry": { "type": "Point", "coordinates": [ 126.926918, 35.145585 ] } },
{ "type": "Feature", "properties": { "pole_kind": "가로등" }, "geometry": { "type": "Point", "coordinates": [ 126.926196, 35.146883 ] } },
{ "type": "Feature", "properties": { "pole_kind": "가로등" }, "geometry": { "type": "Point", "coordinates": [ 126.926069, 35.146696 ] } },
{ "type": "Feature", "properties": { "pole_kind": "가로등" }, "geometry": { "type": "Point", "coordinates": [ 126.927905, 35.147122 ] } },
{ "type": "Feature", "properties": { "pole_kind": "가로등" }, "geometry": { "type": "Point", "coordinates": [ 126.927178, 35.145983 ] } },
{ "type": "Feature", "properties": { "pole_kind": "가로등" }, "geometry": { "type": "Point", "coordinates": [ 126.9273, 35.146175 ] } },
{ "type": "Feature", "properties": { "pole_kind": "가로등" }, "geometry": { "type": "Point", "coordinates": [ 126.927554, 35.146571 ] } },
{ "type": "Feature", "properties": { "pole_kind": "가로등" }, "geometry": { "type": "Point", "coordinates": [ 126.927659, 35.146736 ] } },
{ "type": "Feature", "properties": { "pole_kind": "가로등" }, "geometry": { "type": "Point", "coordinates": [ 126.928293, 35.148244 ] } },
{ "type": "Feature", "properties": { "pole_kind": "가로등" }, "geometry": { "type": "Point", "coordinates": [ 126.928186, 35.147552 ] } },
{ "type": "Feature", "properties": { "pole_kind": "가로등" }, "geometry": { "type": "Point", "coordinates": [ 126.929555, 35.149509 ] } },
{ "type": "Feature", "properties": { "pole_kind": "가로등" }, "geometry": { "type": "Point", "coordinates": [ 126.929277, 35.149127 ] } },
{ "type": "Feature", "properties": { "pole_kind": "가로등" }, "geometry": { "type": "Point", "coordinates": [ 126.929127, 35.148925 ] } },
{ "type": "Feature", "properties": { "pole_kind": "가로등" }, "geometry": { "type": "Point", "coordinates": [ 126.929, 35.148747 ] } },
{ "type": "Feature", "properties": { "pole_kind": "가로등" }, "geometry": { "type": "Point", "coordinates": [ 126.928881, 35.148562 ] } },
{ "type": "Feature", "properties": { "pole_kind": "가로등" }, "geometry": { "type": "Point", "coordinates": [ 126.928712, 35.148319 ] } },
{ "type": "Feature", "properties": { "pole_kind": "가로등" }, "geometry": { "type": "Point", "coordinates": [ 126.928563, 35.148109 ] } },
{ "type": "Feature", "properties": { "pole_kind": "가로등" }, "geometry": { "type": "Point", "coordinates": [ 126.928423, 35.14791 ] } },
{ "type": "Feature", "properties": { "pole_kind": "가로등" }, "geometry": { "type": "Point", "coordinates": [ 126.928558, 35.14863 ] } },
{ "type": "Feature", "properties": { "pole_kind": "가로등" }, "geometry": { "type": "Point", "coordinates": [ 126.928441, 35.148457 ] } },
{ "type": "Feature", "properties": { "pole_kind": "가로등" }, "geometry": { "type": "Point", "coordinates": [ 126.928694, 35.148828 ] } },
{ "type": "Feature", "properties": { "pole_kind": "가로등" }, "geometry": { "type": "Point", "coordinates": [ 126.928831, 35.149025 ] } },
{ "type": "Feature", "properties": { "pole_kind": "가로등" }, "geometry": { "type": "Point", "coordinates": [ 126.929282, 35.149651 ] } },
{ "type": "Feature", "properties": { "pole_kind": "가로등" }, "geometry": { "type": "Point", "coordinates": [ 126.929741, 35.149777 ] } },
{ "type": "Feature", "properties": { "pole_kind": "가로등" }, "geometry": { "type": "Point", "coordinates": [ 126.929394, 35.149804 ] } },
{ "type": "Feature", "properties": { "pole_kind": "가로등" }, "geometry": { "type": "Point", "coordinates": [ 126.925937, 35.146505 ] } },
{ "type": "Feature", "properties": { "pole_kind": "보안(방범)등" }, "geometry": { "type": "Point", "coordinates": [ 126.925181, 35.148038 ] } },
{ "type": "Feature", "properties": { "pole_kind": "보안(방범)등" }, "geometry": { "type": "Point", "coordinates": [ 126.925849, 35.14712 ] } },
{ "type": "Feature", "properties": { "pole_kind": "보안(방범)등" }, "geometry": { "type": "Point", "coordinates": [ 126.928973, 35.149932 ] } },
{ "type": "Feature", "properties": { "pole_kind": "보안(방범)등" }, "geometry": { "type": "Point", "coordinates": [ 126.929346, 35.1499 ] } },
{ "type": "Feature", "properties": { "pole_kind": "가로등" }, "geometry": { "type": "Point", "coordinates": [ 126.929406, 35.149287 ] } },
{ "type": "Feature", "properties": { "pole_kind": "가로등" }, "geometry": { "type": "Point", "coordinates": [ 126.927034, 35.145764 ] } },
{ "type": "Feature", "properties": { "pole_kind": "보안(방범)등" }, "geometry": { "type": "Point", "coordinates": [ 126.925382, 35.149166 ] } },
{ "type": "Feature", "properties": { "pole_kind": "가로등" }, "geometry": { "type": "Point", "coordinates": [ 126.928298, 35.147723 ] } },
{ "type": "Feature", "properties": { "pole_kind": "가로등" }, "geometry": { "type": "Point", "coordinates": [ 126.928163, 35.149039 ] } },
{ "type": "Feature", "properties": { "pole_kind": "가로등" }, "geometry": { "type": "Point", "coordinates": [ 126.925884, 35.148803 ] } },
{ "type": "Feature", "properties": { "pole_kind": "보안(방범)등" }, "geometry": { "type": "Point", "coordinates": [ 126.926438, 35.149026 ] } },
{ "type": "Feature", "properties": { "pole_kind": "가로등" }, "geometry": { "type": "Point", "coordinates": [ 126.927467, 35.149032 ] } },
{ "type": "Feature", "properties": { "pole_kind": "가로등" }, "geometry": { "type": "Point", "coordinates": [ 126.927099, 35.149109 ] } },
{ "type": "Feature", "properties": { "pole_kind": "가로등" }, "geometry": { "type": "Point", "coordinates": [ 126.926581, 35.145598 ] } },
{ "type": "Feature", "properties": { "pole_kind": "보안(방범)등" }, "geometry": { "type": "Point", "coordinates": [ 126.927041, 35.149538 ] } },
{ "type": "Feature", "properties": { "pole_kind": "보안(방범)등" }, "geometry": { "type": "Point", "coordinates": [ 126.9276, 35.149276 ] } },
{ "type": "Feature", "properties": { "pole_kind": "보안(방범)등" }, "geometry": { "type": "Point", "coordinates": [ 126.926973, 35.147375 ] } },
{ "type": "Feature", "properties": { "pole_kind": "가로등" }, "geometry": { "type": "Point", "coordinates": [ 126.929759, 35.149104 ] } },
{ "type": "Feature", "properties": { "pole_kind": "보안(방범)등" }, "geometry": { "type": "Point", "coordinates": [ 126.929054, 35.146689 ] } },
{ "type": "Feature", "properties": { "pole_kind": "보안(방범)등" }, "geometry": { "type": "Point", "coordinates": [ 126.929434, 35.148686 ] } },
{ "type": "Feature", "properties": { "pole_kind": "조명등" }, "geometry": { "type": "Point", "coordinates": [ 126.925549, 35.147294 ] } },
{ "type": "Feature", "properties": { "pole_kind": "조명등" }, "geometry": { "type": "Point", "coordinates": [ 126.925587, 35.146989 ] } },
{ "type": "Feature", "properties": { "pole_kind": "조명등" }, "geometry": { "type": "Point", "coordinates": [ 126.925405, 35.14682 ] } },
{ "type": "Feature", "properties": { "pole_kind": "조명등" }, "geometry": { "type": "Point", "coordinates": [ 126.925352, 35.147443 ] } },
{ "type": "Feature", "properties": { "pole_kind": "보안(방범)등" }, "geometry": { "type": "Point", "coordinates": [ 126.926557, 35.145728 ] } },
{ "type": "Feature", "properties": { "pole_kind": "보안(방범)등" }, "geometry": { "type": "Point", "coordinates": [ 126.926432, 35.14553 ] } },
{ "type": "Feature", "properties": { "pole_kind": "보안(방범)등" }, "geometry": { "type": "Point", "coordinates": [ 126.926719, 35.145978 ] } },
{ "type": "Feature", "properties": { "pole_kind": "보안(방범)등" }, "geometry": { "type": "Point", "coordinates": [ 126.926875, 35.147745 ] } },
{ "type": "Feature", "properties": { "pole_kind": "보안(방범)등" }, "geometry": { "type": "Point", "coordinates": [ 126.926863, 35.146203 ] } },
{ "type": "Feature", "properties": { "pole_kind": "보안(방범)등" }, "geometry": { "type": "Point", "coordinates": [ 126.927222, 35.147826 ] } },
{ "type": "Feature", "properties": { "pole_kind": "보안(방범)등" }, "geometry": { "type": "Point", "coordinates": [ 126.927503, 35.147885 ] } },
{ "type": "Feature", "properties": { "pole_kind": "보안(방범)등" }, "geometry": { "type": "Point", "coordinates": [ 126.927782, 35.147931 ] } },
{ "type": "Feature", "properties": { "pole_kind": "보안(방범)등" }, "geometry": { "type": "Point", "coordinates": [ 126.927329, 35.147478 ] } },
{ "type": "Feature", "properties": { "pole_kind": "보안(방범)등" }, "geometry": { "type": "Point", "coordinates": [ 126.927429, 35.147112 ] } },
{ "type": "Feature", "properties": { "pole_kind": "보안(방범)등" }, "geometry": { "type": "Point", "coordinates": [ 126.927234, 35.146739 ] } },
{ "type": "Feature", "properties": { "pole_kind": "보안(방범)등" }, "geometry": { "type": "Point", "coordinates": [ 126.927117, 35.146605 ] } },
{ "type": "Feature", "properties": { "pole_kind": "보안(방범)등" }, "geometry": { "type": "Point", "coordinates": [ 126.926984, 35.1464 ] } },
{ "type": "Feature", "properties": { "pole_kind": "보안(방범)등" }, "geometry": { "type": "Point", "coordinates": [ 126.927231, 35.146827 ] } },
{ "type": "Feature", "properties": { "pole_kind": "보안(방범)등" }, "geometry": { "type": "Point", "coordinates": [ 126.927611, 35.145664 ] } },
{ "type": "Feature", "properties": { "pole_kind": "보안(방범)등" }, "geometry": { "type": "Point", "coordinates": [ 126.927763, 35.147621 ] } },
{ "type": "Feature", "properties": { "pole_kind": "보안(방범)등" }, "geometry": { "type": "Point", "coordinates": [ 126.927654, 35.147485 ] } },
{ "type": "Feature", "properties": { "pole_kind": "보안(방범)등" }, "geometry": { "type": "Point", "coordinates": [ 126.927524, 35.14728 ] } },
{ "type": "Feature", "properties": { "pole_kind": "보안(방범)등" }, "geometry": { "type": "Point", "coordinates": [ 126.928328, 35.148953 ] } },
{ "type": "Feature", "properties": { "pole_kind": "보안(방범)등" }, "geometry": { "type": "Point", "coordinates": [ 126.928278, 35.148754 ] } },
{ "type": "Feature", "properties": { "pole_kind": "보안(방범)등" }, "geometry": { "type": "Point", "coordinates": [ 126.928225, 35.148574 ] } },
{ "type": "Feature", "properties": { "pole_kind": "보안(방범)등" }, "geometry": { "type": "Point", "coordinates": [ 126.928158, 35.148384 ] } },
{ "type": "Feature", "properties": { "pole_kind": "보안(방범)등" }, "geometry": { "type": "Point", "coordinates": [ 126.928067, 35.148164 ] } },
{ "type": "Feature", "properties": { "pole_kind": "보안(방범)등" }, "geometry": { "type": "Point", "coordinates": [ 126.927975, 35.147989 ] } },
{ "type": "Feature", "properties": { "pole_kind": "보안(방범)등" }, "geometry": { "type": "Point", "coordinates": [ 126.927879, 35.147808 ] } },
{ "type": "Feature", "properties": { "pole_kind": "보안(방범)등" }, "geometry": { "type": "Point", "coordinates": [ 126.927331, 35.146886 ] } },
{ "type": "Feature", "properties": { "pole_kind": "보안(방범)등" }, "geometry": { "type": "Point", "coordinates": [ 126.928352, 35.149129 ] } },
{ "type": "Feature", "properties": { "pole_kind": "보안(방범)등" }, "geometry": { "type": "Point", "coordinates": [ 126.928365, 35.149818 ] } },
{ "type": "Feature", "properties": { "pole_kind": "보안(방범)등" }, "geometry": { "type": "Point", "coordinates": [ 126.928385, 35.149604 ] } },
{ "type": "Feature", "properties": { "pole_kind": "보안(방범)등" }, "geometry": { "type": "Point", "coordinates": [ 126.929927, 35.148601 ] } },
{ "type": "Feature", "properties": { "pole_kind": "보안(방범)등" }, "geometry": { "type": "Point", "coordinates": [ 126.929869, 35.148383 ] } },
{ "type": "Feature", "properties": { "pole_kind": "보안(방범)등" }, "geometry": { "type": "Point", "coordinates": [ 126.932498, 35.147391 ] } },
{ "type": "Feature", "properties": { "pole_kind": "보안(방범)등" }, "geometry": { "type": "Point", "coordinates": [ 126.932634, 35.147706 ] } },
{ "type": "Feature", "properties": { "pole_kind": "가로등" }, "geometry": { "type": "Point", "coordinates": [ 126.934539, 35.149336 ] } },
{ "type": "Feature", "properties": { "pole_kind": "보안(방범)등" }, "geometry": { "type": "Point", "coordinates": [ 126.931316, 35.148074 ] } },
{ "type": "Feature", "properties": { "pole_kind": "가로등" }, "geometry": { "type": "Point", "coordinates": [ 126.93154, 35.148427 ] } },
{ "type": "Feature", "properties": { "pole_kind": "보안(방범)등" }, "geometry": { "type": "Point", "coordinates": [ 126.931934, 35.149422 ] } },
{ "type": "Feature", "properties": { "pole_kind": "보안(방범)등" }, "geometry": { "type": "Point", "coordinates": [ 126.931171, 35.149864 ] } },
{ "type": "Feature", "properties": { "pole_kind": "보안(방범)등" }, "geometry": { "type": "Point", "coordinates": [ 126.93105, 35.149429 ] } },
{ "type": "Feature", "properties": { "pole_kind": "보안(방범)등" }, "geometry": { "type": "Point", "coordinates": [ 126.930971, 35.148856 ] } },
{ "type": "Feature", "properties": { "pole_kind": "보안(방범)등" }, "geometry": { "type": "Point", "coordinates": [ 126.931045, 35.14773 ] } },
{ "type": "Feature", "properties": { "pole_kind": "보안(방범)등" }, "geometry": { "type": "Point", "coordinates": [ 126.931367, 35.147379 ] } },
{ "type": "Feature", "properties": { "pole_kind": "보안(방범)등" }, "geometry": { "type": "Point", "coordinates": [ 126.930134, 35.14959 ] } },
{ "type": "Feature", "properties": { "pole_kind": "보안(방범)등" }, "geometry": { "type": "Point", "coordinates": [ 126.931955, 35.147921 ] } },
{ "type": "Feature", "properties": { "pole_kind": "가로등" }, "geometry": { "type": "Point", "coordinates": [ 126.931921, 35.148284 ] } },
{ "type": "Feature", "properties": { "pole_kind": "보안(방범)등" }, "geometry": { "type": "Point", "coordinates": [ 126.931106, 35.148227 ] } },
{ "type": "Feature", "properties": { "pole_kind": "보안(방범)등" }, "geometry": { "type": "Point", "coordinates": [ 126.932412, 35.149245 ] } },
{ "type": "Feature", "properties": { "pole_kind": "보안(방범)등" }, "geometry": { "type": "Point", "coordinates": [ 126.930421, 35.14945 ] } },
{ "type": "Feature", "properties": { "pole_kind": "보안(방범)등" }, "geometry": { "type": "Point", "coordinates": [ 126.932551, 35.148817 ] } },
{ "type": "Feature", "properties": { "pole_kind": "보안(방범)등" }, "geometry": { "type": "Point", "coordinates": [ 126.932181, 35.14692 ] } },
{ "type": "Feature", "properties": { "pole_kind": "보안(방범)등" }, "geometry": { "type": "Point", "coordinates": [ 126.932037, 35.146982 ] } },
{ "type": "Feature", "properties": { "pole_kind": "보안(방범)등" }, "geometry": { "type": "Point", "coordinates": [ 126.933959, 35.148906 ] } },
{ "type": "Feature", "properties": { "pole_kind": "가로등" }, "geometry": { "type": "Point", "coordinates": [ 126.930152, 35.14895 ] } },
{ "type": "Feature", "properties": { "pole_kind": "가로등" }, "geometry": { "type": "Point", "coordinates": [ 126.930795, 35.148712 ] } },
{ "type": "Feature", "properties": { "pole_kind": "보안(방범)등" }, "geometry": { "type": "Point", "coordinates": [ 126.930484, 35.149794 ] } },
{ "type": "Feature", "properties": { "pole_kind": "가로등" }, "geometry": { "type": "Point", "coordinates": [ 126.932932, 35.147934 ] } },
{ "type": "Feature", "properties": { "pole_kind": "가로등" }, "geometry": { "type": "Point", "coordinates": [ 126.933215, 35.148889 ] } },
{ "type": "Feature", "properties": { "pole_kind": "보안(방범)등" }, "geometry": { "type": "Point", "coordinates": [ 126.933718, 35.149202 ] } },
{ "type": "Feature", "properties": { "pole_kind": "가로등" }, "geometry": { "type": "Point", "coordinates": [ 126.933492, 35.149398 ] } },
{ "type": "Feature", "properties": { "pole_kind": "가로등" }, "geometry": { "type": "Point", "coordinates": [ 126.933994, 35.149365 ] } },
{ "type": "Feature", "properties": { "pole_kind": "가로등" }, "geometry": { "type": "Point", "coordinates": [ 126.933723, 35.149509 ] } },
{ "type": "Feature", "properties": { "pole_kind": "가로등" }, "geometry": { "type": "Point", "coordinates": [ 126.934121, 35.149491 ] } },
{ "type": "Feature", "properties": { "pole_kind": "가로등" }, "geometry": { "type": "Point", "coordinates": [ 126.934968, 35.149439 ] } },
{ "type": "Feature", "properties": { "pole_kind": "가로등" }, "geometry": { "type": "Point", "coordinates": [ 126.932613, 35.148089 ] } },
{ "type": "Feature", "properties": { "pole_kind": "가로등" }, "geometry": { "type": "Point", "coordinates": [ 126.933271, 35.149535 ] } },
{ "type": "Feature", "properties": { "pole_kind": "보안(방범)등" }, "geometry": { "type": "Point", "coordinates": [ 126.931219, 35.148559 ] } },
{ "type": "Feature", "properties": { "pole_kind": "가로등" }, "geometry": { "type": "Point", "coordinates": [ 126.932309, 35.148144 ] } },
{ "type": "Feature", "properties": { "pole_kind": "보안(방범)등" }, "geometry": { "type": "Point", "coordinates": [ 126.933361, 35.149241 ] } },
{ "type": "Feature", "properties": { "pole_kind": "보안(방범)등" }, "geometry": { "type": "Point", "coordinates": [ 126.930993, 35.148283 ] } },
{ "type": "Feature", "properties": { "pole_kind": "조명등" }, "geometry": { "type": "Point", "coordinates": [ 126.932424, 35.147097 ] } },
{ "type": "Feature", "properties": { "pole_kind": "가로등" }, "geometry": { "type": "Point", "coordinates": [ 126.934538, 35.149464 ] } },
{ "type": "Feature", "properties": { "pole_kind": "보안(방범)등" }, "geometry": { "type": "Point", "coordinates": [ 126.939453, 35.148311 ] } },
{ "type": "Feature", "properties": { "pole_kind": "보안(방범)등" }, "geometry": { "type": "Point", "coordinates": [ 126.939632, 35.148347 ] } },
{ "type": "Feature", "properties": { "pole_kind": "보안(방범)등" }, "geometry": { "type": "Point", "coordinates": [ 126.939514, 35.14839 ] } },
{ "type": "Feature", "properties": { "pole_kind": "보안(방범)등" }, "geometry": { "type": "Point", "coordinates": [ 126.939261, 35.148297 ] } },
{ "type": "Feature", "properties": { "pole_kind": "보안(방범)등" }, "geometry": { "type": "Point", "coordinates": [ 126.937671, 35.149357 ] } },
{ "type": "Feature", "properties": { "pole_kind": "가로등" }, "geometry": { "type": "Point", "coordinates": [ 126.936611, 35.147868 ] } },
{ "type": "Feature", "properties": { "pole_kind": "보안(방범)등" }, "geometry": { "type": "Point", "coordinates": [ 126.936453, 35.14802 ] } },
{ "type": "Feature", "properties": { "pole_kind": "보안(방범)등" }, "geometry": { "type": "Point", "coordinates": [ 126.936562, 35.148335 ] } },
{ "type": "Feature", "properties": { "pole_kind": "보안(방범)등" }, "geometry": { "type": "Point", "coordinates": [ 126.935856, 35.14959 ] } },
{ "type": "Feature", "properties": { "pole_kind": "보안(방범)등" }, "geometry": { "type": "Point", "coordinates": [ 126.938595, 35.147983 ] } },
{ "type": "Feature", "properties": { "pole_kind": "보안(방범)등" }, "geometry": { "type": "Point", "coordinates": [ 126.938997, 35.148212 ] } },
{ "type": "Feature", "properties": { "pole_kind": "보안(방범)등" }, "geometry": { "type": "Point", "coordinates": [ 126.938802, 35.148273 ] } },
{ "type": "Feature", "properties": { "pole_kind": "보안(방범)등" }, "geometry": { "type": "Point", "coordinates": [ 126.937918, 35.149283 ] } },
{ "type": "Feature", "properties": { "pole_kind": "보안(방범)등" }, "geometry": { "type": "Point", "coordinates": [ 126.938868, 35.149667 ] } },
{ "type": "Feature", "properties": { "pole_kind": "보안(방범)등" }, "geometry": { "type": "Point", "coordinates": [ 126.93636, 35.147964 ] } },
{ "type": "Feature", "properties": { "pole_kind": "보안(방범)등" }, "geometry": { "type": "Point", "coordinates": [ 126.936528, 35.147947 ] } },
{ "type": "Feature", "properties": { "pole_kind": "보안(방범)등" }, "geometry": { "type": "Point", "coordinates": [ 126.937913, 35.148327 ] } },
{ "type": "Feature", "properties": { "pole_kind": "가로등" }, "geometry": { "type": "Point", "coordinates": [ 126.939699, 35.149605 ] } },
{ "type": "Feature", "properties": { "pole_kind": "가로등" }, "geometry": { "type": "Point", "coordinates": [ 126.939763, 35.148673 ] } },
{ "type": "Feature", "properties": { "pole_kind": "가로등" }, "geometry": { "type": "Point", "coordinates": [ 126.939723, 35.149306 ] } },
{ "type": "Feature", "properties": { "pole_kind": "가로등" }, "geometry": { "type": "Point", "coordinates": [ 126.939745, 35.149003 ] } },
{ "type": "Feature", "properties": { "pole_kind": "가로등" }, "geometry": { "type": "Point", "coordinates": [ 126.939775, 35.148374 ] } },
{ "type": "Feature", "properties": { "pole_kind": "가로등" }, "geometry": { "type": "Point", "coordinates": [ 126.939778, 35.148079 ] } },
{ "type": "Feature", "properties": { "pole_kind": "가로등" }, "geometry": { "type": "Point", "coordinates": [ 126.939778, 35.147782 ] } },
{ "type": "Feature", "properties": { "pole_kind": "가로등" }, "geometry": { "type": "Point", "coordinates": [ 126.93977, 35.147464 ] } },
{ "type": "Feature", "properties": { "pole_kind": "가로등" }, "geometry": { "type": "Point", "coordinates": [ 126.939185, 35.148093 ] } },
{ "type": "Feature", "properties": { "pole_kind": "가로등" }, "geometry": { "type": "Point", "coordinates": [ 126.939517, 35.148161 ] } },
{ "type": "Feature", "properties": { "pole_kind": "가로등" }, "geometry": { "type": "Point", "coordinates": [ 126.938094, 35.147892 ] } },
{ "type": "Feature", "properties": { "pole_kind": "가로등" }, "geometry": { "type": "Point", "coordinates": [ 126.937015, 35.149166 ] } },
{ "type": "Feature", "properties": { "pole_kind": "가로등" }, "geometry": { "type": "Point", "coordinates": [ 126.936931, 35.149598 ] } },
{ "type": "Feature", "properties": { "pole_kind": "가로등" }, "geometry": { "type": "Point", "coordinates": [ 126.936953, 35.149913 ] } },
{ "type": "Feature", "properties": { "pole_kind": "가로등" }, "geometry": { "type": "Point", "coordinates": [ 126.936984, 35.148831 ] } },
{ "type": "Feature", "properties": { "pole_kind": "가로등" }, "geometry": { "type": "Point", "coordinates": [ 126.936958, 35.148548 ] } },
{ "type": "Feature", "properties": { "pole_kind": "가로등" }, "geometry": { "type": "Point", "coordinates": [ 126.937751, 35.147833 ] } },
{ "type": "Feature", "properties": { "pole_kind": "가로등" }, "geometry": { "type": "Point", "coordinates": [ 126.935894, 35.14938 ] } },
{ "type": "Feature", "properties": { "pole_kind": "가로등" }, "geometry": { "type": "Point", "coordinates": [ 126.936114, 35.149237 ] } },
{ "type": "Feature", "properties": { "pole_kind": "가로등" }, "geometry": { "type": "Point", "coordinates": [ 126.93736, 35.147757 ] } },
{ "type": "Feature", "properties": { "pole_kind": "가로등" }, "geometry": { "type": "Point", "coordinates": [ 126.936935, 35.148302 ] } },
{ "type": "Feature", "properties": { "pole_kind": "가로등" }, "geometry": { "type": "Point", "coordinates": [ 126.936883, 35.147787 ] } },
{ "type": "Feature", "properties": { "pole_kind": "가로등" }, "geometry": { "type": "Point", "coordinates": [ 126.935457, 35.14941 ] } },
{ "type": "Feature", "properties": { "pole_kind": "가로등" }, "geometry": { "type": "Point", "coordinates": [ 126.935646, 35.149265 ] } },
{ "type": "Feature", "properties": { "pole_kind": "가로등" }, "geometry": { "type": "Point", "coordinates": [ 126.935099, 35.149301 ] } },
{ "type": "Feature", "properties": { "pole_kind": "가로등" }, "geometry": { "type": "Point", "coordinates": [ 126.936902, 35.147981 ] } },
{ "type": "Feature", "properties": { "pole_kind": "보안(방범)등" }, "geometry": { "type": "Point", "coordinates": [ 126.939378, 35.147879 ] } },
{ "type": "Feature", "properties": { "pole_kind": "보안(방범)등" }, "geometry": { "type": "Point", "coordinates": [ 126.937217, 35.148448 ] } },
{ "type": "Feature", "properties": { "pole_kind": "가로등" }, "geometry": { "type": "Point", "coordinates": [ 126.937015, 35.147694 ] } },
{ "type": "Feature", "properties": { "pole_kind": "보안(방범)등" }, "geometry": { "type": "Point", "coordinates": [ 126.937642, 35.147541 ] } },
{ "type": "Feature", "properties": { "pole_kind": "보안(방범)등" }, "geometry": { "type": "Point", "coordinates": [ 126.93918, 35.14865 ] } },
{ "type": "Feature", "properties": { "pole_kind": "가로등" }, "geometry": { "type": "Point", "coordinates": [ 126.936674, 35.149201 ] } },
{ "type": "Feature", "properties": { "pole_kind": "가로등" }, "geometry": { "type": "Point", "coordinates": [ 126.936878, 35.149358 ] } },
{ "type": "Feature", "properties": { "pole_kind": "보안(방범)등" }, "geometry": { "type": "Point", "coordinates": [ 126.938293, 35.148979 ] } },
{ "type": "Feature", "properties": { "pole_kind": "가로등" }, "geometry": { "type": "Point", "coordinates": [ 126.938454, 35.147961 ] } },
{ "type": "Feature", "properties": { "pole_kind": "가로등" }, "geometry": { "type": "Point", "coordinates": [ 126.938811, 35.148025 ] } },
{ "type": "Feature", "properties": { "pole_kind": "가로등" }, "geometry": { "type": "Point", "coordinates": [ 126.936421, 35.149346 ] } },
{ "type": "Feature", "properties": { "pole_kind": "보안(방범)등" }, "geometry": { "type": "Point", "coordinates": [ 126.937659, 35.148902 ] } },
{ "type": "Feature", "properties": { "pole_kind": "보안(방범)등" }, "geometry": { "type": "Point", "coordinates": [ 126.938249, 35.147627 ] } },
{ "type": "Feature", "properties": { "pole_kind": "보안(방범)등" }, "geometry": { "type": "Point", "coordinates": [ 126.938734, 35.147796 ] } },
{ "type": "Feature", "properties": { "pole_kind": "보안(방범)등" }, "geometry": { "type": "Point", "coordinates": [ 126.939379, 35.149212 ] } },
{ "type": "Feature", "properties": { "pole_kind": "보안(방범)등" }, "geometry": { "type": "Point", "coordinates": [ 126.938833, 35.149239 ] } },
{ "type": "Feature", "properties": { "pole_kind": "보안(방범)등" }, "geometry": { "type": "Point", "coordinates": [ 126.939767, 35.14841 ] } },
{ "type": "Feature", "properties": { "pole_kind": "보안(방범)등" }, "geometry": { "type": "Point", "coordinates": [ 126.939682, 35.148916 ] } },
{ "type": "Feature", "properties": { "pole_kind": "보안(방범)등" }, "geometry": { "type": "Point", "coordinates": [ 126.937291, 35.148354 ] } },
{ "type": "Feature", "properties": { "pole_kind": "보안(방범)등" }, "geometry": { "type": "Point", "coordinates": [ 126.938681, 35.148491 ] } },
{ "type": "Feature", "properties": { "pole_kind": "보안(방범)등" }, "geometry": { "type": "Point", "coordinates": [ 126.937158, 35.148966 ] } },
{ "type": "Feature", "properties": { "pole_kind": "보안(방범)등" }, "geometry": { "type": "Point", "coordinates": [ 126.938192, 35.149263 ] } },
{ "type": "Feature", "properties": { "pole_kind": "보안(방범)등" }, "geometry": { "type": "Point", "coordinates": [ 126.937613, 35.149587 ] } },
{ "type": "Feature", "properties": { "pole_kind": "보안(방범)등" }, "geometry": { "type": "Point", "coordinates": [ 126.938702, 35.147408 ] } },
{ "type": "Feature", "properties": { "pole_kind": "보안(방범)등" }, "geometry": { "type": "Point", "coordinates": [ 126.938035, 35.149957 ] } },
{ "type": "Feature", "properties": { "pole_kind": "보안(방범)등" }, "geometry": { "type": "Point", "coordinates": [ 126.9384, 35.14938 ] } },
{ "type": "Feature", "properties": { "pole_kind": "보안(방범)등" }, "geometry": { "type": "Point", "coordinates": [ 126.939038, 35.149733 ] } },
{ "type": "Feature", "properties": { "pole_kind": "보안(방범)등" }, "geometry": { "type": "Point", "coordinates": [ 126.938897, 35.149982 ] } },
{ "type": "Feature", "properties": { "pole_kind": "보안(방범)등" }, "geometry": { "type": "Point", "coordinates": [ 126.935954, 35.148473 ] } },
{ "type": "Feature", "properties": { "pole_kind": "보안(방범)등" }, "geometry": { "type": "Point", "coordinates": [ 126.93628, 35.148354 ] } },
{ "type": "Feature", "properties": { "pole_kind": "보안(방범)등" }, "geometry": { "type": "Point", "coordinates": [ 126.937928, 35.148521 ] } },
{ "type": "Feature", "properties": { "pole_kind": "보안(방범)등" }, "geometry": { "type": "Point", "coordinates": [ 126.939408, 35.148844 ] } },
{ "type": "Feature", "properties": { "pole_kind": "보안(방범)등" }, "geometry": { "type": "Point", "coordinates": [ 126.941742, 35.149419 ] } },
{ "type": "Feature", "properties": { "pole_kind": "보안(방범)등" }, "geometry": { "type": "Point", "coordinates": [ 126.940684, 35.148508 ] } },
{ "type": "Feature", "properties": { "pole_kind": "보안(방범)등" }, "geometry": { "type": "Point", "coordinates": [ 126.940823, 35.148581 ] } },
{ "type": "Feature", "properties": { "pole_kind": "가로등" }, "geometry": { "type": "Point", "coordinates": [ 126.940279, 35.149033 ] } },
{ "type": "Feature", "properties": { "pole_kind": "가로등" }, "geometry": { "type": "Point", "coordinates": [ 126.940305, 35.148385 ] } },
{ "type": "Feature", "properties": { "pole_kind": "가로등" }, "geometry": { "type": "Point", "coordinates": [ 126.940307, 35.148087 ] } },
{ "type": "Feature", "properties": { "pole_kind": "가로등" }, "geometry": { "type": "Point", "coordinates": [ 126.940295, 35.148686 ] } },
{ "type": "Feature", "properties": { "pole_kind": "가로등" }, "geometry": { "type": "Point", "coordinates": [ 126.940308, 35.14779 ] } },
{ "type": "Feature", "properties": { "pole_kind": "보안(방범)등" }, "geometry": { "type": "Point", "coordinates": [ 126.940611, 35.148959 ] } },
{ "type": "Feature", "properties": { "pole_kind": "가로등" }, "geometry": { "type": "Point", "coordinates": [ 126.941311, 35.148941 ] } },
{ "type": "Feature", "properties": { "pole_kind": "보안(방범)등" }, "geometry": { "type": "Point", "coordinates": [ 126.94055, 35.148897 ] } },
{ "type": "Feature", "properties": { "pole_kind": "가로등" }, "geometry": { "type": "Point", "coordinates": [ 126.940919, 35.148764 ] } },
{ "type": "Feature", "properties": { "pole_kind": "보안(방범)등" }, "geometry": { "type": "Point", "coordinates": [ 126.940957, 35.148602 ] } },
{ "type": "Feature", "properties": { "pole_kind": "가로등" }, "geometry": { "type": "Point", "coordinates": [ 126.941605, 35.149076 ] } },
{ "type": "Feature", "properties": { "pole_kind": "가로등" }, "geometry": { "type": "Point", "coordinates": [ 126.940496, 35.148568 ] } },
{ "type": "Feature", "properties": { "pole_kind": "가로등" }, "geometry": { "type": "Point", "coordinates": [ 126.940524, 35.148618 ] } },
{ "type": "Feature", "properties": { "pole_kind": "가로등" }, "geometry": { "type": "Point", "coordinates": [ 126.940728, 35.148755 ] } },
{ "type": "Feature", "properties": { "pole_kind": "가로등" }, "geometry": { "type": "Point", "coordinates": [ 126.940054, 35.148383 ] } },
{ "type": "Feature", "properties": { "pole_kind": "가로등" }, "geometry": { "type": "Point", "coordinates": [ 126.940224, 35.148442 ] } },
{ "type": "Feature", "properties": { "pole_kind": "가로등" }, "geometry": { "type": "Point", "coordinates": [ 126.940299, 35.148513 ] } }
]
}
