{
"type": "FeatureCollection",
"name": "mask",
"crs": { "type": "name", "properties": { "name": "urn:ogc:def:crs:OGC:1.3:CRS84" } },
"xy_coordinate_resolution": 1e-06,
"features": [
{ "type": "Feature", "properties": { }, "geometry": { "type": "Polygon", "coordinates": [ [ [ -180.0, -85.0 ], [ -180.0, 85.0 ], [ 180.0, 85.0 ], [ 180.0, -85.0 ], [ -180.0, -85.0 ] ], [ [ 126.917225, 35.151902 ], [ 126.91736, 35.151827 ], [ 126.917457, 35.151767 ], [ 126.917502, 35.151738 ], [ 126.917502, 35.151738 ], [ 126.918025, 35.151391 ], [ 126.918032, 35.151386 ], [ 126.918035, 35.151384 ], [ 126.918035, 35.151384 ], [ 126.918079, 35.151356 ], [ 126.918827, 35.150872 ], [ 126.918827, 35.150872 ], [ 126.918827, 35.150872 ], [ 126.918827, 35.150872 ], [ 126.918827, 35.150872 ], [ 126.918827, 35.150872 ], [ 126.918827, 35.150872 ], [ 126.918827, 35.150872 ], [ 126.919183, 35.150642 ], [ 126.919183, 35.150642 ], [ 126.919197, 35.150633 ], [ 126.919197, 35.150633 ], [ 126.919198, 35.150633 ], [ 126.919198, 35.150633 ], [ 126.919198, 35.150633 ], [ 126.919213, 35.150623 ], [ 126.919215, 35.150622 ], [ 126.919569, 35.150392 ], [ 126.919569, 35.150392 ], [ 126.920339, 35.149893 ], [ 126.920339, 35.149893 ], [ 126.92034, 35.149892 ], [ 126.920341, 35.149892 ], [ 126.920453, 35.149819 ], [ 126.92046, 35.149814 ], [ 126.920463, 35.149813 ], [ 126.92052, 35.149776 ], [ 126.92052, 35.149776 ], [ 126.92052, 35.149776 ], [ 126.920608, 35.149721 ], [ 126.920608, 35.149721 ], [ 126.920608, 35.149721 ], [ 126.920608, 35.149721 ], [ 126.921165, 35.149369 ], [ 126.921165, 35.149369 ], [ 126.921165, 35.149369 ], [ 126.921165, 35.149369 ], [ 126.921165, 35.149369 ], [ 126.921165, 35.149369 ], [ 126.921165, 35.149369 ], [ 126.921296, 35.149277 ], [ 126.921414, 35.149174 ], [ 126.921513, 35.149068 ], [ 126.921519, 35.149059 ], [ 126.921529, 35.14905 ], [ 126.921537, 35.14904 ], [ 126.921552, 35.149026 ], [ 126.921566, 35.149011 ], [ 126.921576, 35.149002 ], [ 126.921586, 35.148993 ], [ 126.921602, 35.14898 ], [ 126.921618, 35.148966 ], [ 126.921629, 35.148958 ], [ 126.92164, 35.14895 ], [ 126.921658, 35.148938 ], [ 126.921675, 35.148926 ], [ 126.921687, 35.148919 ], [ 126.921699, 35.148911 ], [ 126.921718, 35.148901 ], [ 126.921737, 35.14889 ], [ 126.92175, 35.148884 ], [ 126.921753, 35.148883 ], [ 126.92176, 35.148879 ], [ 126.921761, 35.148878 ], [ 126.921762, 35.148878 ], [ 126.921769, 35.148874 ], [ 126.922109, 35.148713 ], [ 126.922109, 35.148713 ], [ 126.922109, 35.148713 ], [ 126.922109, 35.148713 ], [ 126.922109, 35.148713 ], [ 126.922109, 35.148713 ], [ 126.922109, 35.148713 ], [ 126.92218, 35.148679 ], [ 126.92218, 35.148679 ], [ 126.92218, 35.148679 ], [ 126.92218, 35.148679 ], [ 126.92218, 35.148679 ], [ 126.92218, 35.148679 ], [ 126.922319, 35.148614 ], [ 126.922319, 35.148614 ], [ 126.922392, 35.148579 ], [ 126.922426, 35.148563 ], [ 126.922532, 35.148513 ], [ 126.922563, 35.148498 ], [ 126.922563, 35.148498 ], [ 126.922701, 35.148429 ], [ 126.922701, 35.148429 ], [ 126.922719, 35.14842 ], [ 126.922838, 35.148355 ], [ 126.92295, 35.148281 ], [ 126.923028, 35.148224 ], [ 126.923044, 35.148213 ], [ 126.923077, 35.148188 ], [ 126.923078, 35.148188 ], [ 126.923078, 35.148188 ], [ 126.923078, 35.148188 ], [ 126.923221, 35.148082 ], [ 126.923221, 35.148082 ], [ 126.923221, 35.148082 ], [ 126.923494, 35.147881 ], [ 126.923494, 35.147881 ], [ 126.923495, 35.14788 ], [ 126.923499, 35.147877 ], [ 126.9235, 35.147877 ], [ 126.923506, 35.147873 ], [ 126.923518, 35.147863 ], [ 126.923525, 35.147858 ], [ 126.923532, 35.147854 ], [ 126.923695, 35.147743 ], [ 126.92376, 35.147699 ], [ 126.923831, 35.147651 ], [ 126.923845, 35.147641 ], [ 126.92386, 35.147632 ], [ 126.923867, 35.147628 ], [ 126.92387, 35.147626 ], [ 126.923871, 35.147625 ], [ 126.923901, 35.147607 ], [ 126.923959, 35.147577 ], [ 126.924021, 35.147551 ], [ 126.924056, 35.14754 ], [ 126.924067, 35.147536 ], [ 126.924086, 35.14753 ], [ 126.924092, 35.147529 ], [ 126.92411, 35.147524 ], [ 126.924123, 35.147521 ], [ 126.924159, 35.147513 ], [ 126.924196, 35.147507 ], [ 126.924204, 35.147505 ], [ 126.924355, 35.147469 ], [ 126.924501, 35.14742 ], [ 126.924641, 35.147361 ], [ 126.924773, 35.147291 ], [ 126.924897, 35.147211 ], [ 126.92501, 35.147121 ], [ 126.925035, 35.1471 ], [ 126.925039, 35.147096 ], [ 126.925048, 35.147089 ], [ 126.925178, 35.14698 ], [ 126.925182, 35.146976 ], [ 126.925188, 35.146972 ], [ 126.925236, 35.146933 ], [ 126.925432, 35.146773 ], [ 126.925555, 35.146672 ], [ 126.925569, 35.146661 ], [ 126.925583, 35.146651 ], [ 126.925598, 35.146639 ], [ 126.925614, 35.146627 ], [ 126.925623, 35.146622 ], [ 126.925628, 35.146619 ], [ 126.925649, 35.146604 ], [ 126.925648, 35.146603 ], [ 126.925744, 35.146534 ], [ 126.925858, 35.146435 ], [ 126.925958, 35.146326 ], [ 126.926045, 35.14621 ], [ 126.926117, 35.146087 ], [ 126.926173, 35.145959 ], [ 126.926209, 35.145841 ], [ 126.92621, 35.145837 ], [ 126.926213, 35.14582 ], [ 126.926217, 35.145807 ], [ 126.92622, 35.145794 ], [ 126.926226, 35.145777 ], [ 126.926231, 35.14576 ], [ 126.926237, 35.145747 ], [ 126.926242, 35.145734 ], [ 126.92625, 35.145718 ], [ 126.926257, 35.145702 ], [ 126.926264, 35.145689 ], [ 126.92627, 35.145677 ], [ 126.92628, 35.145661 ], [ 126.926289, 35.145646 ], [ 126.926297, 35.145634 ], [ 126.926305, 35.145622 ], [ 126.926317, 35.145608 ], [ 126.926328, 35.145593 ], [ 126.926337, 35.145582 ], [ 126.926346, 35.14557 ], [ 126.92636, 35.145557 ], [ 126.926372, 35.145543 ], [ 126.926383, 35.145533 ], [ 126.926394, 35.145522 ], [ 126.926409, 35.14551 ], [ 126.926423, 35.145497 ], [ 126.926435, 35.145488 ], [ 126.926447, 35.145478 ], [ 126.926463, 35.145467 ], [ 126.926479, 35.145455 ], [ 126.926492, 35.145447 ], [ 126.926505, 35.145439 ], [ 126.926522, 35.145429 ], [ 126.926539, 35.145418 ], [ 126.926554, 35.145411 ], [ 126.926567, 35.145404 ], [ 126.926586, 35.145395 ], [ 126.926604, 35.145387 ], [ 126.926619, 35.145381 ], [ 126.926633, 35.145374 ], [ 126.926652, 35.145367 ], [ 126.926772, 35.145319 ], [ 126.926848, 35.145289 ], [ 126.926872, 35.14528 ], [ 126.926889, 35.145273 ], [ 126.926907, 35.145267 ], [ 126.926919, 35.145263 ], [ 126.926954, 35.14525 ], [ 126.927022, 35.145233 ], [ 126.927059, 35.145226 ], [ 126.927072, 35.145224 ], [ 126.927091, 35.14522 ], [ 126.927113, 35.145217 ], [ 126.927131, 35.145214 ], [ 126.927305, 35.145178 ], [ 126.927473, 35.145126 ], [ 126.927502, 35.145116 ], [ 126.927538, 35.145103 ], [ 126.927608, 35.145084 ], [ 126.92768, 35.145071 ], [ 126.927754, 35.145064 ], [ 126.927827, 35.145062 ], [ 126.927901, 35.145066 ], [ 126.927974, 35.145076 ], [ 126.928045, 35.145092 ], [ 126.928114, 35.145113 ], [ 126.928181, 35.14514 ], [ 126.928244, 35.145172 ], [ 126.928302, 35.145208 ], [ 126.928357, 35.145249 ], [ 126.928406, 35.145294 ], [ 126.92845, 35.145343 ], [ 126.92847, 35.145371 ], [ 126.928474, 35.145375 ], [ 126.928475, 35.145377 ], [ 126.928476, 35.145379 ], [ 126.928488, 35.145395 ], [ 126.928496, 35.145406 ], [ 126.928503, 35.145418 ], [ 126.928579, 35.145534 ], [ 126.928659, 35.145656 ], [ 126.928659, 35.145657 ], [ 126.928725, 35.145759 ], [ 126.928731, 35.145768 ], [ 126.928734, 35.145772 ], [ 126.92874, 35.145782 ], [ 126.928743, 35.145787 ], [ 126.928744, 35.145788 ], [ 126.928753, 35.145803 ], [ 126.928762, 35.145818 ], [ 126.928763, 35.14582 ], [ 126.928835, 35.145936 ], [ 126.928921, 35.146046 ], [ 126.929019, 35.146149 ], [ 126.929129, 35.146243 ], [ 126.92925, 35.146328 ], [ 126.929379, 35.146403 ], [ 126.929517, 35.146468 ], [ 126.929662, 35.146521 ], [ 126.929813, 35.146563 ], [ 126.929968, 35.146592 ], [ 126.930125, 35.146609 ], [ 126.930284, 35.146614 ], [ 126.930443, 35.146606 ], [ 126.9306, 35.146585 ], [ 126.930688, 35.14657 ], [ 126.930698, 35.146568 ], [ 126.930707, 35.146567 ], [ 126.930724, 35.146564 ], [ 126.930733, 35.146563 ], [ 126.930743, 35.146562 ], [ 126.930755, 35.14656 ], [ 126.930759, 35.14656 ], [ 126.930826, 35.146551 ], [ 126.930833, 35.14655 ], [ 126.930835, 35.14655 ], [ 126.93084, 35.146549 ], [ 126.930852, 35.146548 ], [ 126.930858, 35.146547 ], [ 126.930859, 35.146547 ], [ 126.930866, 35.146546 ], [ 126.931021, 35.14653 ], [ 126.931027, 35.146529 ], [ 126.931032, 35.146529 ], [ 126.931042, 35.146528 ], [ 126.931047, 35.146527 ], [ 126.931053, 35.146527 ], [ 126.931144, 35.14652 ], [ 126.931181, 35.146517 ], [ 126.931199, 35.146515 ], [ 126.931205, 35.146515 ], [ 126.931211, 35.146514 ], [ 126.931215, 35.146514 ], [ 126.931218, 35.146514 ], [ 126.931221, 35.146514 ], [ 126.931228, 35.146513 ], [ 126.931231, 35.146513 ], [ 126.931236, 35.146513 ], [ 126.93136, 35.146506 ], [ 126.931368, 35.146505 ], [ 126.931377, 35.146505 ], [ 126.931392, 35.146504 ], [ 126.931401, 35.146504 ], [ 126.93151, 35.146501 ], [ 126.93152, 35.146501 ], [ 126.931524, 35.146501 ], [ 126.931568, 35.146501 ], [ 126.931676, 35.1465 ], [ 126.931694, 35.146499 ], [ 126.931712, 35.1465 ], [ 126.931742, 35.146501 ], [ 126.93176, 35.146501 ], [ 126.931778, 35.146502 ], [ 126.931867, 35.146507 ], [ 126.931876, 35.146508 ], [ 126.931886, 35.146509 ], [ 126.931902, 35.14651 ], [ 126.931912, 35.146511 ], [ 126.932032, 35.146523 ], [ 126.932036, 35.146523 ], [ 126.932039, 35.146523 ], [ 126.932061, 35.146526 ], [ 126.932063, 35.146527 ], [ 126.932065, 35.146527 ], [ 126.932066, 35.146527 ], [ 126.93208, 35.146529 ], [ 126.932083, 35.14653 ], [ 126.932107, 35.146533 ], [ 126.93211, 35.146534 ], [ 126.932113, 35.146534 ], [ 126.932134, 35.146539 ], [ 126.932139, 35.14654 ], [ 126.932153, 35.146543 ], [ 126.932157, 35.146544 ], [ 126.932179, 35.146549 ], [ 126.932183, 35.14655 ], [ 126.932186, 35.146551 ], [ 126.932206, 35.146557 ], [ 126.932211, 35.146559 ], [ 126.932224, 35.146563 ], [ 126.932224, 35.146563 ], [ 126.932224, 35.146563 ], [ 126.932228, 35.146564 ], [ 126.93225, 35.146571 ], [ 126.932253, 35.146572 ], [ 126.932256, 35.146573 ], [ 126.932276, 35.146582 ], [ 126.93228, 35.146584 ], [ 126.932293, 35.146589 ], [ 126.932296, 35.14659 ], [ 126.932317, 35.146599 ], [ 126.93232, 35.1466 ], [ 126.932323, 35.146602 ], [ 126.932342, 35.146611 ], [ 126.932346, 35.146614 ], [ 126.932358, 35.14662 ], [ 126.932361, 35.146622 ], [ 126.932381, 35.146632 ], [ 126.932384, 35.146633 ], [ 126.932387, 35.146635 ], [ 126.932404, 35.146646 ], [ 126.932408, 35.146649 ], [ 126.932419, 35.146656 ], [ 126.93242, 35.146657 ], [ 126.932421, 35.146657 ], [ 126.932422, 35.146658 ], [ 126.932441, 35.14667 ], [ 126.932443, 35.146672 ], [ 126.932446, 35.146673 ], [ 126.932462, 35.146686 ], [ 126.932465, 35.146689 ], [ 126.932476, 35.146697 ], [ 126.932478, 35.146699 ], [ 126.932496, 35.146712 ], [ 126.932498, 35.146714 ], [ 126.9325, 35.146716 ], [ 126.932514, 35.14673 ], [ 126.932515, 35.146731 ], [ 126.932516, 35.146732 ], [ 126.932518, 35.146733 ], [ 126.932527, 35.146742 ], [ 126.93253, 35.146744 ], [ 126.932545, 35.146759 ], [ 126.932547, 35.146761 ], [ 126.932549, 35.146763 ], [ 126.932562, 35.146778 ], [ 126.932565, 35.146782 ], [ 126.932573, 35.146791 ], [ 126.932575, 35.146794 ], [ 126.932589, 35.146809 ], [ 126.93259, 35.146812 ], [ 126.932592, 35.146814 ], [ 126.932603, 35.14683 ], [ 126.932606, 35.146834 ], [ 126.932613, 35.146844 ], [ 126.932613, 35.146845 ], [ 126.932626, 35.146863 ], [ 126.932627, 35.146866 ], [ 126.932629, 35.146868 ], [ 126.93263, 35.146869 ], [ 126.932651, 35.146904 ], [ 126.932651, 35.146904 ], [ 126.932651, 35.146904 ], [ 126.932651, 35.146904 ], [ 126.932651, 35.146904 ], [ 126.932844, 35.147223 ], [ 126.932844, 35.147223 ], [ 126.932844, 35.147223 ], [ 126.933194, 35.147802 ], [ 126.933194, 35.147802 ], [ 126.933197, 35.147807 ], [ 126.933207, 35.147822 ], [ 126.933217, 35.147843 ], [ 126.93322, 35.147848 ], [ 126.933222, 35.147854 ], [ 126.933233, 35.147874 ], [ 126.933302, 35.147993 ], [ 126.933385, 35.148107 ], [ 126.933481, 35.148213 ], [ 126.93359, 35.148311 ], [ 126.933709, 35.1484 ], [ 126.933839, 35.148479 ], [ 126.933978, 35.148547 ], [ 126.934124, 35.148604 ], [ 126.934276, 35.148648 ], [ 126.934432, 35.148681 ], [ 126.934592, 35.1487 ], [ 126.934753, 35.148706 ], [ 126.934914, 35.1487 ], [ 126.935074, 35.14868 ], [ 126.93523, 35.148648 ], [ 126.935382, 35.148604 ], [ 126.935528, 35.148547 ], [ 126.935667, 35.148479 ], [ 126.935796, 35.1484 ], [ 126.935916, 35.148311 ], [ 126.935987, 35.148246 ], [ 126.935988, 35.148247 ], [ 126.936178, 35.148075 ], [ 126.936205, 35.14805 ], [ 126.936235, 35.148028 ], [ 126.936415, 35.147894 ], [ 126.936445, 35.147872 ], [ 126.936477, 35.147852 ], [ 126.936672, 35.147734 ], [ 126.936704, 35.147714 ], [ 126.936739, 35.147697 ], [ 126.936812, 35.147661 ], [ 126.936903, 35.147616 ], [ 126.936947, 35.147595 ], [ 126.936981, 35.147578 ], [ 126.937018, 35.147564 ], [ 126.937237, 35.147479 ], [ 126.937274, 35.147465 ], [ 126.937312, 35.147453 ], [ 126.93737, 35.147436 ], [ 126.937453, 35.147412 ], [ 126.93754, 35.147386 ], [ 126.937578, 35.147375 ], [ 126.937617, 35.147367 ], [ 126.937852, 35.147319 ], [ 126.937891, 35.147311 ], [ 126.937931, 35.147306 ], [ 126.938171, 35.147277 ], [ 126.938211, 35.147272 ], [ 126.938251, 35.147271 ], [ 126.938493, 35.147261 ], [ 126.938534, 35.147259 ], [ 126.938574, 35.147261 ], [ 126.938816, 35.147271 ], [ 126.938856, 35.147273 ], [ 126.938896, 35.147277 ], [ 126.939136, 35.147307 ], [ 126.939176, 35.147312 ], [ 126.939215, 35.14732 ], [ 126.93945, 35.147368 ], [ 126.939489, 35.147376 ], [ 126.939527, 35.147387 ], [ 126.939614, 35.147413 ], [ 126.939697, 35.147437 ], [ 126.939755, 35.147455 ], [ 126.939793, 35.147466 ], [ 126.93983, 35.14748 ], [ 126.940049, 35.147565 ], [ 126.940085, 35.147579 ], [ 126.94012, 35.147596 ], [ 126.940163, 35.147618 ], [ 126.940255, 35.147663 ], [ 126.940328, 35.147699 ], [ 126.940362, 35.147716 ], [ 126.940395, 35.147736 ], [ 126.940589, 35.147854 ], [ 126.940622, 35.147874 ], [ 126.940652, 35.147896 ], [ 126.940831, 35.14803 ], [ 126.940861, 35.148052 ], [ 126.940888, 35.148077 ], [ 126.940906, 35.148093 ], [ 126.940932, 35.148117 ], [ 126.941051, 35.148225 ], [ 126.941078, 35.148249 ], [ 126.941102, 35.148276 ], [ 126.941246, 35.148436 ], [ 126.94127, 35.148462 ], [ 126.941291, 35.148491 ], [ 126.941415, 35.148662 ], [ 126.941436, 35.14869 ], [ 126.941453, 35.14872 ], [ 126.941458, 35.148728 ], [ 126.941505, 35.14881 ], [ 126.941557, 35.1489 ], [ 126.941574, 35.14893 ], [ 126.941588, 35.148961 ], [ 126.941592, 35.148973 ], [ 126.941602, 35.148995 ], [ 126.941669, 35.149149 ], [ 126.941683, 35.14918 ], [ 126.941692, 35.149212 ], [ 126.941693, 35.149215 ], [ 126.941732, 35.149343 ], [ 126.941751, 35.149405 ], [ 126.941761, 35.149437 ], [ 126.941767, 35.14947 ], [ 126.941795, 35.149627 ], [ 126.941801, 35.149658 ], [ 126.941802, 35.149667 ], [ 126.941808, 35.1497 ], [ 126.94181, 35.149733 ], [ 126.941822, 35.149932 ], [ 126.941824, 35.149965 ], [ 126.941822, 35.149998 ], [ 126.94181, 35.150197 ], [ 126.941808, 35.15023 ], [ 126.941802, 35.150263 ], [ 126.9418, 35.150272 ], [ 126.941795, 35.150303 ], [ 126.941766, 35.15046 ], [ 126.94176, 35.150493 ], [ 126.94175, 35.150525 ], [ 126.941731, 35.150587 ], [ 126.941692, 35.150715 ], [ 126.941691, 35.150718 ], [ 126.941681, 35.15075 ], [ 126.941668, 35.150781 ], [ 126.941601, 35.150935 ], [ 126.941591, 35.150957 ], [ 126.941586, 35.150968 ], [ 126.941572, 35.151 ], [ 126.941555, 35.15103 ], [ 126.941503, 35.15112 ], [ 126.941456, 35.151201 ], [ 126.941451, 35.15121 ], [ 126.941434, 35.15124 ], [ 126.941413, 35.151268 ], [ 126.941289, 35.151439 ], [ 126.941268, 35.151467 ], [ 126.941244, 35.151494 ], [ 126.941099, 35.151653 ], [ 126.941075, 35.15168 ], [ 126.941048, 35.151705 ], [ 126.940929, 35.151812 ], [ 126.940903, 35.151836 ], [ 126.940885, 35.151852 ], [ 126.940858, 35.151877 ], [ 126.940828, 35.151899 ], [ 126.940649, 35.152032 ], [ 126.940619, 35.152055 ], [ 126.940586, 35.152074 ], [ 126.940391, 35.152193 ], [ 126.940359, 35.152213 ], [ 126.940324, 35.15223 ], [ 126.940252, 35.152266 ], [ 126.94016, 35.152311 ], [ 126.940116, 35.152332 ], [ 126.940082, 35.152349 ], [ 126.940045, 35.152363 ], [ 126.939826, 35.152448 ], [ 126.93979, 35.152462 ], [ 126.939752, 35.152473 ], [ 126.939693, 35.152491 ], [ 126.93961, 35.152515 ], [ 126.939523, 35.15254 ], [ 126.939485, 35.152552 ], [ 126.939446, 35.15256 ], [ 126.939211, 35.152608 ], [ 126.939172, 35.152616 ], [ 126.939132, 35.152621 ], [ 126.938892, 35.15265 ], [ 126.938852, 35.152655 ], [ 126.938812, 35.152656 ], [ 126.93857, 35.152666 ], [ 126.938529, 35.152667 ], [ 126.938489, 35.152666 ], [ 126.938247, 35.152656 ], [ 126.938207, 35.152654 ], [ 126.938167, 35.152649 ], [ 126.937927, 35.15262 ], [ 126.937887, 35.152615 ], [ 126.937848, 35.152607 ], [ 126.937613, 35.152559 ], [ 126.937574, 35.152551 ], [ 126.937536, 35.152539 ], [ 126.937497, 35.15253 ], [ 126.937497, 35.15253 ], [ 126.937406, 35.152507 ], [ 126.937257, 35.152482 ], [ 126.937106, 35.152468 ], [ 126.936954, 35.152465 ], [ 126.936802, 35.152474 ], [ 126.936694, 35.152489 ], [ 126.936693, 35.152488 ], [ 126.936671, 35.152491 ], [ 126.936648, 35.152495 ], [ 126.936645, 35.152495 ], [ 126.936643, 35.152496 ], [ 126.936621, 35.152498 ], [ 126.936614, 35.152498 ], [ 126.936602, 35.152499 ], [ 126.936597, 35.1525 ], [ 126.936573, 35.152502 ], [ 126.93657, 35.152502 ], [ 126.936568, 35.152502 ], [ 126.935742, 35.15254 ], [ 126.935741, 35.15254 ], [ 126.93574, 35.15254 ], [ 126.935735, 35.152541 ], [ 126.93573, 35.152541 ], [ 126.93573, 35.152541 ], [ 126.935729, 35.152541 ], [ 126.935721, 35.152541 ], [ 126.935716, 35.152541 ], [ 126.93539, 35.152549 ], [ 126.93539, 35.152549 ], [ 126.93539, 35.152549 ], [ 126.935389, 35.152549 ], [ 126.935067, 35.152557 ], [ 126.935067, 35.152557 ], [ 126.935067, 35.152557 ], [ 126.935066, 35.152557 ], [ 126.93473, 35.152565 ], [ 126.93473, 35.152565 ], [ 126.93473, 35.152565 ], [ 126.93473, 35.152565 ], [ 126.934721, 35.152566 ], [ 126.934721, 35.152566 ], [ 126.934721, 35.152566 ], [ 126.934406, 35.152573 ], [ 126.934406, 35.152573 ], [ 126.934406, 35.152573 ], [ 126.934406, 35.152573 ], [ 126.934406, 35.152573 ], [ 126.934406, 35.152573 ], [ 126.934406, 35.152573 ], [ 126.934096, 35.152581 ], [ 126.934094, 35.152581 ], [ 126.934093, 35.152581 ], [ 126.934093, 35.152581 ], [ 126.934048, 35.152582 ], [ 126.934028, 35.152582 ], [ 126.934007, 35.152583 ], [ 126.933911, 35.152588 ], [ 126.933911, 35.152588 ], [ 126.933831, 35.152593 ], [ 126.93383, 35.152593 ], [ 126.93383, 35.152593 ], [ 126.933828, 35.152594 ], [ 126.933821, 35.152594 ], [ 126.933809, 35.152595 ], [ 126.933802, 35.152595 ], [ 126.933794, 35.152595 ], [ 126.933561, 35.152606 ], [ 126.933558, 35.152606 ], [ 126.933558, 35.152606 ], [ 126.933558, 35.152606 ], [ 126.933558, 35.152606 ], [ 126.933479, 35.152609 ], [ 126.933479, 35.152609 ], [ 126.933312, 35.152616 ], [ 126.933107, 35.152636 ], [ 126.932508, 35.152724 ], [ 126.932489, 35.152727 ], [ 126.932489, 35.152727 ], [ 126.932028, 35.152795 ], [ 126.931906, 35.152817 ], [ 126.931786, 35.152847 ], [ 126.931786, 35.152847 ], [ 126.931669, 35.152879 ], [ 126.931669, 35.152879 ], [ 126.931669, 35.152879 ], [ 126.931669, 35.152879 ], [ 126.931668, 35.15288 ], [ 126.931319, 35.152978 ], [ 126.931251, 35.152998 ], [ 126.931249, 35.152999 ], [ 126.93123, 35.153005 ], [ 126.93121, 35.153011 ], [ 126.93119, 35.153017 ], [ 126.931174, 35.153021 ], [ 126.931158, 35.153025 ], [ 126.931147, 35.153027 ], [ 126.93114, 35.153029 ], [ 126.931128, 35.153032 ], [ 126.93097, 35.153083 ], [ 126.930819, 35.153146 ], [ 126.930677, 35.153222 ], [ 126.930545, 35.15331 ], [ 126.930424, 35.153409 ], [ 126.930317, 35.153517 ], [ 126.930224, 35.153634 ], [ 126.930146, 35.153756 ], [ 126.930139, 35.153772 ], [ 126.930135, 35.153778 ], [ 126.930132, 35.153784 ], [ 126.930117, 35.153805 ], [ 126.930103, 35.153827 ], [ 126.930099, 35.153832 ], [ 126.930095, 35.153838 ], [ 126.930078, 35.153858 ], [ 126.930062, 35.153878 ], [ 126.930057, 35.153883 ], [ 126.930052, 35.153889 ], [ 126.930033, 35.153907 ], [ 126.930014, 35.153926 ], [ 126.930008, 35.153931 ], [ 126.930003, 35.153936 ], [ 126.929982, 35.153953 ], [ 126.929961, 35.15397 ], [ 126.929955, 35.153974 ], [ 126.929949, 35.153979 ], [ 126.929926, 35.153994 ], [ 126.929903, 35.154009 ], [ 126.929896, 35.154013 ], [ 126.92989, 35.154017 ], [ 126.929865, 35.15403 ], [ 126.92984, 35.154044 ], [ 126.929833, 35.154047 ], [ 126.929826, 35.154051 ], [ 126.9298, 35.154062 ], [ 126.929774, 35.154073 ], [ 126.929766, 35.154076 ], [ 126.929759, 35.154079 ], [ 126.929732, 35.154088 ], [ 126.929704, 35.154097 ], [ 126.929697, 35.154099 ], [ 126.929689, 35.154102 ], [ 126.929661, 35.154108 ], [ 126.929632, 35.154115 ], [ 126.929624, 35.154117 ], [ 126.929617, 35.154119 ], [ 126.929587, 35.154123 ], [ 126.929558, 35.154128 ], [ 126.92955, 35.154128 ], [ 126.929543, 35.15413 ], [ 126.929513, 35.154131 ], [ 126.929483, 35.154134 ], [ 126.929475, 35.154134 ], [ 126.929467, 35.154135 ], [ 126.929438, 35.154134 ], [ 126.929408, 35.154134 ], [ 126.9294, 35.154134 ], [ 126.929392, 35.154133 ], [ 126.929362, 35.154131 ], [ 126.929337, 35.154129 ], [ 126.929182, 35.154119 ], [ 126.929014, 35.154123 ], [ 126.928848, 35.154141 ], [ 126.928684, 35.154173 ], [ 126.928526, 35.154218 ], [ 126.928374, 35.154276 ], [ 126.92823, 35.154346 ], [ 126.928218, 35.154353 ], [ 126.928214, 35.154355 ], [ 126.928214, 35.154355 ], [ 126.928196, 35.154365 ], [ 126.928179, 35.154376 ], [ 126.928165, 35.154383 ], [ 126.928165, 35.154383 ], [ 126.928165, 35.154383 ], [ 126.928152, 35.154391 ], [ 126.928133, 35.154399 ], [ 126.928115, 35.154408 ], [ 126.9281, 35.154414 ], [ 126.9281, 35.154414 ], [ 126.9281, 35.154414 ], [ 126.928086, 35.154421 ], [ 126.928066, 35.154428 ], [ 126.928047, 35.154435 ], [ 126.928032, 35.15444 ], [ 126.928032, 35.15444 ], [ 126.928032, 35.15444 ], [ 126.928017, 35.154445 ], [ 126.927996, 35.154451 ], [ 126.927976, 35.154457 ], [ 126.927961, 35.15446 ], [ 126.92796, 35.15446 ], [ 126.92796, 35.15446 ], [ 126.927945, 35.154464 ], [ 126.927924, 35.154468 ], [ 126.927903, 35.154472 ], [ 126.927887, 35.154474 ], [ 126.927887, 35.154474 ], [ 126.927887, 35.154474 ], [ 126.927871, 35.154477 ], [ 126.92785, 35.154479 ], [ 126.927829, 35.154482 ], [ 126.927813, 35.154483 ], [ 126.927813, 35.154483 ], [ 126.927812, 35.154483 ], [ 126.927796, 35.154484 ], [ 126.927775, 35.154485 ], [ 126.927754, 35.154486 ], [ 126.927737, 35.154485 ], [ 126.927737, 35.154485 ], [ 126.927737, 35.154485 ], [ 126.927721, 35.154485 ], [ 126.9277, 35.154484 ], [ 126.927678, 35.154483 ], [ 126.927662, 35.154481 ], [ 126.927662, 35.154481 ], [ 126.927662, 35.154481 ], [ 126.927646, 35.15448 ], [ 126.927629, 35.154478 ], [ 126.927625, 35.154477 ], [ 126.927625, 35.154477 ], [ 126.92762, 35.154477 ], [ 126.927604, 35.154475 ], [ 126.927593, 35.154473 ], [ 126.927588, 35.154472 ], [ 126.927496, 35.154459 ], [ 126.927328, 35.154442 ], [ 126.927157, 35.154438 ], [ 126.927112, 35.15444 ], [ 126.927083, 35.15444 ], [ 126.927054, 35.154439 ], [ 126.926734, 35.154429 ], [ 126.926561, 35.154423 ], [ 126.92654, 35.154422 ], [ 126.926365, 35.154418 ], [ 126.926207, 35.154415 ], [ 126.926202, 35.154414 ], [ 126.926197, 35.154414 ], [ 126.926196, 35.154414 ], [ 126.926194, 35.154414 ], [ 126.926188, 35.154414 ], [ 126.926183, 35.154414 ], [ 126.926177, 35.154414 ], [ 126.926075, 35.154409 ], [ 126.925711, 35.154393 ], [ 126.925451, 35.154382 ], [ 126.925298, 35.154382 ], [ 126.925146, 35.154392 ], [ 126.924996, 35.154415 ], [ 126.924848, 35.154449 ], [ 126.924706, 35.154494 ], [ 126.924569, 35.154549 ], [ 126.9244, 35.154626 ], [ 126.924392, 35.15463 ], [ 126.924384, 35.154633 ], [ 126.92437, 35.154639 ], [ 126.924362, 35.154642 ], [ 126.924354, 35.154646 ], [ 126.924275, 35.154678 ], [ 126.924172, 35.15472 ], [ 126.924002, 35.154789 ], [ 126.923985, 35.154796 ], [ 126.923967, 35.154803 ], [ 126.923954, 35.154807 ], [ 126.923946, 35.154811 ], [ 126.923936, 35.154814 ], [ 126.923918, 35.15482 ], [ 126.9239, 35.154826 ], [ 126.923693, 35.154892 ], [ 126.923683, 35.154895 ], [ 126.923673, 35.154898 ], [ 126.923655, 35.154903 ], [ 126.923645, 35.154906 ], [ 126.923635, 35.154908 ], [ 126.923513, 35.154941 ], [ 126.923513, 35.154941 ], [ 126.923488, 35.154948 ], [ 126.923488, 35.154948 ], [ 126.92347, 35.154953 ], [ 126.923309, 35.155003 ], [ 126.923156, 35.155068 ], [ 126.923012, 35.155145 ], [ 126.922926, 35.155202 ], [ 126.922926, 35.155201 ], [ 126.922864, 35.155243 ], [ 126.922864, 35.155243 ], [ 126.922756, 35.155316 ], [ 126.922626, 35.155426 ], [ 126.922515, 35.155544 ], [ 126.922508, 35.155554 ], [ 126.9225, 35.155562 ], [ 126.922494, 35.15557 ], [ 126.922477, 35.155586 ], [ 126.922461, 35.155603 ], [ 126.922453, 35.15561 ], [ 126.922445, 35.155617 ], [ 126.922427, 35.155632 ], [ 126.922409, 35.155648 ], [ 126.9224, 35.155654 ], [ 126.922392, 35.155661 ], [ 126.922372, 35.155674 ], [ 126.922352, 35.155688 ], [ 126.922342, 35.155694 ], [ 126.922333, 35.1557 ], [ 126.922311, 35.155711 ], [ 126.92229, 35.155723 ], [ 126.92228, 35.155728 ], [ 126.92227, 35.155734 ], [ 126.922247, 35.155743 ], [ 126.922225, 35.155754 ], [ 126.922214, 35.155758 ], [ 126.922203, 35.155762 ], [ 126.922179, 35.15577 ], [ 126.922156, 35.155779 ], [ 126.922144, 35.155782 ], [ 126.922133, 35.155786 ], [ 126.922108, 35.155792 ], [ 126.922084, 35.155798 ], [ 126.922072, 35.1558 ], [ 126.92207, 35.155801 ], [ 126.922026, 35.155813 ], [ 126.922003, 35.155818 ], [ 126.921965, 35.155829 ], [ 126.921904, 35.155842 ], [ 126.921842, 35.155849 ], [ 126.921779, 35.155852 ], [ 126.92174, 35.155851 ], [ 126.921736, 35.155851 ], [ 126.921716, 35.15585 ], [ 126.921691, 35.155848 ], [ 126.921674, 35.155846 ], [ 126.921671, 35.155846 ], [ 126.921636, 35.155842 ], [ 126.921582, 35.155832 ], [ 126.921549, 35.155824 ], [ 126.921536, 35.155821 ], [ 126.921369, 35.155792 ], [ 126.921199, 35.155778 ], [ 126.921028, 35.155778 ], [ 126.92093, 35.155786 ], [ 126.92093, 35.155785 ], [ 126.920897, 35.155788 ], [ 126.920859, 35.155791 ], [ 126.920821, 35.155792 ], [ 126.920807, 35.155792 ], [ 126.920788, 35.155792 ], [ 126.920769, 35.155792 ], [ 126.920729, 35.155791 ], [ 126.920714, 35.155791 ], [ 126.920661, 35.155789 ], [ 126.920641, 35.155789 ], [ 126.920621, 35.155788 ], [ 126.92062, 35.155788 ], [ 126.920607, 35.155787 ], [ 126.920604, 35.155787 ], [ 126.920578, 35.155785 ], [ 126.920572, 35.155785 ], [ 126.920566, 35.155784 ], [ 126.920543, 35.155781 ], [ 126.920541, 35.155781 ], [ 126.920532, 35.155779 ], [ 126.92053, 35.155779 ], [ 126.920504, 35.155776 ], [ 126.920498, 35.155774 ], [ 126.920492, 35.155773 ], [ 126.920469, 35.155768 ], [ 126.920467, 35.155768 ], [ 126.920459, 35.155766 ], [ 126.920456, 35.155765 ], [ 126.920431, 35.15576 ], [ 126.920425, 35.155758 ], [ 126.920419, 35.155757 ], [ 126.920397, 35.15575 ], [ 126.920396, 35.155749 ], [ 126.920387, 35.155747 ], [ 126.920385, 35.155746 ], [ 126.92036, 35.155738 ], [ 126.920355, 35.155736 ], [ 126.920349, 35.155734 ], [ 126.920328, 35.155726 ], [ 126.920326, 35.155725 ], [ 126.920318, 35.155722 ], [ 126.920316, 35.155721 ], [ 126.920292, 35.155711 ], [ 126.920287, 35.155709 ], [ 126.920282, 35.155706 ], [ 126.920262, 35.155696 ], [ 126.92026, 35.155695 ], [ 126.920253, 35.155691 ], [ 126.92025, 35.15569 ], [ 126.920228, 35.155679 ], [ 126.920223, 35.155676 ], [ 126.920218, 35.155673 ], [ 126.9202, 35.155661 ], [ 126.920198, 35.15566 ], [ 126.920191, 35.155656 ], [ 126.920189, 35.155654 ], [ 126.920168, 35.155641 ], [ 126.920164, 35.155638 ], [ 126.920159, 35.155635 ], [ 126.920142, 35.155621 ], [ 126.920135, 35.155616 ], [ 126.92001, 35.155532 ], [ 126.919876, 35.155459 ], [ 126.919733, 35.155396 ], [ 126.919584, 35.155346 ], [ 126.91943, 35.155307 ], [ 126.919271, 35.155281 ], [ 126.919111, 35.155268 ], [ 126.918949, 35.155268 ], [ 126.918789, 35.155281 ], [ 126.918631, 35.155307 ], [ 126.918476, 35.155346 ], [ 126.918327, 35.155396 ], [ 126.918185, 35.155459 ], [ 126.91805, 35.155533 ], [ 126.917926, 35.155617 ], [ 126.917811, 35.15571 ], [ 126.917709, 35.155813 ], [ 126.917619, 35.155923 ], [ 126.917522, 35.156055 ], [ 126.917501, 35.156084 ], [ 126.917477, 35.15611 ], [ 126.917333, 35.15627 ], [ 126.917309, 35.156297 ], [ 126.917282, 35.156321 ], [ 126.917163, 35.156429 ], [ 126.917137, 35.156452 ], [ 126.917119, 35.156469 ], [ 126.917092, 35.156493 ], [ 126.917062, 35.156515 ], [ 126.916882, 35.156649 ], [ 126.916852, 35.156671 ], [ 126.91682, 35.156691 ], [ 126.916625, 35.156809 ], [ 126.916592, 35.156829 ], [ 126.916558, 35.156846 ], [ 126.916485, 35.156882 ], [ 126.916393, 35.156927 ], [ 126.91635, 35.156948 ], [ 126.916315, 35.156965 ], [ 126.916278, 35.156979 ], [ 126.916059, 35.157064 ], [ 126.916023, 35.157079 ], [ 126.915985, 35.15709 ], [ 126.915926, 35.157107 ], [ 126.915843, 35.157131 ], [ 126.915757, 35.157157 ], [ 126.915718, 35.157168 ], [ 126.915679, 35.157176 ], [ 126.915444, 35.157224 ], [ 126.915405, 35.157232 ], [ 126.915365, 35.157237 ], [ 126.915125, 35.157266 ], [ 126.915085, 35.157271 ], [ 126.915045, 35.157272 ], [ 126.914803, 35.157282 ], [ 126.914763, 35.157283 ], [ 126.914722, 35.157282 ], [ 126.91448, 35.157272 ], [ 126.91444, 35.15727 ], [ 126.9144, 35.157265 ], [ 126.91416, 35.157236 ], [ 126.91412, 35.157231 ], [ 126.914081, 35.157223 ], [ 126.913846, 35.157174 ], [ 126.913807, 35.157166 ], [ 126.913769, 35.157155 ], [ 126.913682, 35.15713 ], [ 126.913599, 35.157105 ], [ 126.913541, 35.157088 ], [ 126.913503, 35.157077 ], [ 126.913466, 35.157063 ], [ 126.913247, 35.156977 ], [ 126.913211, 35.156963 ], [ 126.913176, 35.156946 ], [ 126.913133, 35.156925 ], [ 126.913041, 35.156879 ], [ 126.912968, 35.156844 ], [ 126.912934, 35.156826 ], [ 126.912901, 35.156807 ], [ 126.912707, 35.156688 ], [ 126.912674, 35.156668 ], [ 126.912645, 35.156646 ], [ 126.912465, 35.156512 ], [ 126.912435, 35.15649 ], [ 126.912408, 35.156465 ], [ 126.91239, 35.156449 ], [ 126.912364, 35.156425 ], [ 126.912246, 35.156318 ], [ 126.912218, 35.156293 ], [ 126.912194, 35.156266 ], [ 126.91205, 35.156106 ], [ 126.912026, 35.15608 ], [ 126.912005, 35.156051 ], [ 126.911881, 35.15588 ], [ 126.91186, 35.155852 ], [ 126.911843, 35.155822 ], [ 126.911838, 35.155814 ], [ 126.911791, 35.155732 ], [ 126.91174, 35.155642 ], [ 126.911722, 35.155612 ], [ 126.911709, 35.155581 ], [ 126.911704, 35.15557 ], [ 126.911694, 35.155547 ], [ 126.911627, 35.155393 ], [ 126.911614, 35.155362 ], [ 126.911604, 35.15533 ], [ 126.911603, 35.155327 ], [ 126.911564, 35.155199 ], [ 126.911545, 35.155137 ], [ 126.911536, 35.155105 ], [ 126.91153, 35.155072 ], [ 126.911501, 35.154915 ], [ 126.911496, 35.154884 ], [ 126.911494, 35.154875 ], [ 126.911488, 35.154842 ], [ 126.911487, 35.154809 ], [ 126.911475, 35.15461 ], [ 126.911473, 35.154577 ], [ 126.911475, 35.154544 ], [ 126.911487, 35.154345 ], [ 126.911489, 35.154312 ], [ 126.911495, 35.154279 ], [ 126.911497, 35.15427 ], [ 126.911502, 35.154239 ], [ 126.911531, 35.154082 ], [ 126.911537, 35.15405 ], [ 126.911547, 35.154017 ], [ 126.911566, 35.153955 ], [ 126.911605, 35.153827 ], [ 126.911606, 35.153824 ], [ 126.911616, 35.153792 ], [ 126.911629, 35.153761 ], [ 126.911696, 35.153607 ], [ 126.911706, 35.153585 ], [ 126.911711, 35.153574 ], [ 126.911725, 35.153542 ], [ 126.911742, 35.153512 ], [ 126.911747, 35.153504 ], [ 126.911794, 35.153423 ], [ 126.911846, 35.153333 ], [ 126.911863, 35.153303 ], [ 126.911884, 35.153274 ], [ 126.912009, 35.153104 ], [ 126.912029, 35.153075 ], [ 126.912054, 35.153048 ], [ 126.912198, 35.152889 ], [ 126.912222, 35.152862 ], [ 126.912249, 35.152838 ], [ 126.912368, 35.15273 ], [ 126.912394, 35.152707 ], [ 126.912412, 35.15269 ], [ 126.912439, 35.152666 ], [ 126.912469, 35.152643 ], [ 126.912649, 35.15251 ], [ 126.912679, 35.152488 ], [ 126.912711, 35.152468 ], [ 126.912906, 35.152349 ], [ 126.912939, 35.15233 ], [ 126.912973, 35.152313 ], [ 126.913046, 35.152277 ], [ 126.913138, 35.152232 ], [ 126.913181, 35.152211 ], [ 126.913216, 35.152194 ], [ 126.913252, 35.152179 ], [ 126.913472, 35.152094 ], [ 126.913508, 35.15208 ], [ 126.913546, 35.152069 ], [ 126.913605, 35.152052 ], [ 126.913688, 35.152028 ], [ 126.913774, 35.152002 ], [ 126.913812, 35.151991 ], [ 126.913852, 35.151983 ], [ 126.914087, 35.151935 ], [ 126.914126, 35.151927 ], [ 126.914166, 35.151922 ], [ 126.914406, 35.151893 ], [ 126.914445, 35.151888 ], [ 126.914486, 35.151887 ], [ 126.914728, 35.151877 ], [ 126.914768, 35.151875 ], [ 126.914809, 35.151877 ], [ 126.915051, 35.151887 ], [ 126.915091, 35.151889 ], [ 126.915131, 35.151893 ], [ 126.915371, 35.151923 ], [ 126.91541, 35.151928 ], [ 126.91545, 35.151936 ], [ 126.915685, 35.151984 ], [ 126.915724, 35.151992 ], [ 126.915762, 35.152004 ], [ 126.915815, 35.152019 ], [ 126.91597, 35.152058 ], [ 126.91613, 35.152084 ], [ 126.916292, 35.152097 ], [ 126.916455, 35.152097 ], [ 126.916617, 35.152083 ], [ 126.916776, 35.152057 ], [ 126.916932, 35.152018 ], [ 126.917082, 35.151966 ], [ 126.917225, 35.151902 ] ] ] } }
]
}
