{
"type": "FeatureCollection",
"name": "scope",
"crs": { "type": "name", "properties": { "name": "urn:ogc:def:crs:OGC:1.3:CRS84" } },
"xy_coordinate_resolution": 1e-06,
"features": [
{ "type": "Feature", "properties": { }, "geometry": { "type": "MultiPolygon", "coordinates": [ [ [ [ 126.919336, 35.154039 ], [ 126.919346, 35.15405 ], [ 126.91964, 35.154399 ], [ 126.919671, 35.154433 ], [ 126.919707, 35.154466 ], [ 126.919716, 35.154474 ], [ 126.919768, 35.154547 ], [ 126.919816, 35.154614 ], [ 126.919869, 35.154711 ], [ 126.919896, 35.154755 ], [ 126.919929, 35.154798 ], [ 126.919966, 35.154838 ], [ 126.920008, 35.154874 ], [ 126.920026, 35.154889 ], [ 126.920066, 35.154919 ], [ 126.920109, 35.154946 ], [ 126.920143, 35.154966 ], [ 126.920174, 35.154983 ], [ 126.920248, 35.15502 ], [ 126.920301, 35.155045 ], [ 126.920335, 35.155059 ], [ 126.920351, 35.15508 ], [ 126.920368, 35.155102 ], [ 126.920377, 35.155113 ], [ 126.920429, 35.155168 ], [ 126.920431, 35.15517 ], [ 126.920475, 35.155207 ], [ 126.920522, 35.15524 ], [ 126.920573, 35.155269 ], [ 126.920627, 35.155294 ], [ 126.920684, 35.155315 ], [ 126.920743, 35.155332 ], [ 126.920749, 35.155333 ], [ 126.920756, 35.155335 ], [ 126.920768, 35.155338 ], [ 126.920816, 35.15535 ], [ 126.92082, 35.155353 ], [ 126.920821, 35.155354 ], [ 126.920872, 35.155394 ], [ 126.920922, 35.155429 ], [ 126.920936, 35.155437 ], [ 126.920948, 35.155453 ], [ 126.920954, 35.155459 ], [ 126.920979, 35.155489 ], [ 126.920991, 35.155502 ], [ 126.921005, 35.155518 ], [ 126.92103, 35.155545 ], [ 126.92104, 35.155555 ], [ 126.921066, 35.155579 ], [ 126.921078, 35.15559 ], [ 126.921081, 35.155593 ], [ 126.921092, 35.155602 ], [ 126.921144, 35.155643 ], [ 126.92116, 35.155655 ], [ 126.921231, 35.155698 ], [ 126.921234, 35.1557 ], [ 126.921263, 35.155714 ], [ 126.921344, 35.155753 ], [ 126.921429, 35.155786 ], [ 126.921473, 35.155801 ], [ 126.921491, 35.155807 ], [ 126.921522, 35.155817 ], [ 126.921529, 35.155819 ], [ 126.921582, 35.155832 ], [ 126.921636, 35.155842 ], [ 126.921691, 35.155848 ], [ 126.921716, 35.15585 ], [ 126.921779, 35.155852 ], [ 126.921842, 35.155849 ], [ 126.921904, 35.155842 ], [ 126.921965, 35.155829 ], [ 126.922025, 35.155812 ], [ 126.922082, 35.15579 ], [ 126.922136, 35.155764 ], [ 126.922187, 35.155733 ], [ 126.922235, 35.155699 ], [ 126.922278, 35.155661 ], [ 126.922316, 35.15562 ], [ 126.922349, 35.155576 ], [ 126.922368, 35.15555 ], [ 126.92237, 35.155547 ], [ 126.922469, 35.155399 ], [ 126.922496, 35.155364 ], [ 126.922515, 35.155337 ], [ 126.922566, 35.155263 ], [ 126.922571, 35.155258 ], [ 126.922597, 35.155249 ], [ 126.922654, 35.155229 ], [ 126.922707, 35.155204 ], [ 126.922758, 35.155175 ], [ 126.922805, 35.155142 ], [ 126.922848, 35.155106 ], [ 126.922923, 35.155037 ], [ 126.922958, 35.155002 ], [ 126.922989, 35.154965 ], [ 126.923036, 35.154903 ], [ 126.923065, 35.154862 ], [ 126.923117, 35.154778 ], [ 126.923138, 35.15474 ], [ 126.923156, 35.154701 ], [ 126.923206, 35.154577 ], [ 126.923206, 35.154577 ], [ 126.923347, 35.154489 ], [ 126.923409, 35.154452 ], [ 126.923412, 35.15445 ], [ 126.923422, 35.154443 ], [ 126.923457, 35.154422 ], [ 126.92348, 35.154407 ], [ 126.923567, 35.154349 ], [ 126.923612, 35.154333 ], [ 126.923675, 35.154306 ], [ 126.923736, 35.154277 ], [ 126.92376, 35.154263 ], [ 126.923816, 35.15423 ], [ 126.923921, 35.154159 ], [ 126.924007, 35.154101 ], [ 126.924012, 35.154097 ], [ 126.924211, 35.153961 ], [ 126.924221, 35.153954 ], [ 126.924419, 35.153812 ], [ 126.924468, 35.153773 ], [ 126.924492, 35.153751 ], [ 126.9245, 35.153744 ], [ 126.924519, 35.153727 ], [ 126.924524, 35.153723 ], [ 126.924529, 35.153721 ], [ 126.924552, 35.153713 ], [ 126.92461, 35.153693 ], [ 126.924834, 35.153683 ], [ 126.924905, 35.153677 ], [ 126.924975, 35.153665 ], [ 126.925043, 35.153646 ], [ 126.925194, 35.153598 ], [ 126.925256, 35.153574 ], [ 126.925264, 35.153571 ], [ 126.925285, 35.153561 ], [ 126.925293, 35.153558 ], [ 126.925324, 35.153543 ], [ 126.925481, 35.15346 ], [ 126.92551, 35.153443 ], [ 126.925591, 35.153396 ], [ 126.92563, 35.15337 ], [ 126.925667, 35.153343 ], [ 126.925684, 35.153329 ], [ 126.925722, 35.153329 ], [ 126.925775, 35.153328 ], [ 126.925794, 35.153327 ], [ 126.925858, 35.15332 ], [ 126.925922, 35.153308 ], [ 126.925984, 35.153292 ], [ 126.926166, 35.153234 ], [ 126.926207, 35.153219 ], [ 126.926257, 35.1532 ], [ 126.926307, 35.153192 ], [ 126.926368, 35.153177 ], [ 126.926427, 35.153156 ], [ 126.926484, 35.153132 ], [ 126.926537, 35.153103 ], [ 126.926587, 35.153069 ], [ 126.926632, 35.153032 ], [ 126.926673, 35.152992 ], [ 126.926709, 35.152948 ], [ 126.926739, 35.152902 ], [ 126.926764, 35.152853 ], [ 126.926784, 35.152803 ], [ 126.926787, 35.152791 ], [ 126.926793, 35.15279 ], [ 126.926854, 35.152768 ], [ 126.926912, 35.152742 ], [ 126.926967, 35.152711 ], [ 126.927018, 35.152675 ], [ 126.927064, 35.152635 ], [ 126.927105, 35.152592 ], [ 126.92714, 35.152546 ], [ 126.927184, 35.152481 ], [ 126.927288, 35.152357 ], [ 126.927293, 35.152351 ], [ 126.9273, 35.152346 ], [ 126.927324, 35.152331 ], [ 126.927334, 35.152324 ], [ 126.927388, 35.152331 ], [ 126.927454, 35.152335 ], [ 126.92752, 35.152335 ], [ 126.927585, 35.152329 ], [ 126.92765, 35.152318 ], [ 126.927713, 35.152301 ], [ 126.927773, 35.15228 ], [ 126.927831, 35.152253 ], [ 126.927885, 35.152222 ], [ 126.927935, 35.152187 ], [ 126.92798, 35.152148 ], [ 126.928021, 35.152105 ], [ 126.928056, 35.152059 ], [ 126.928085, 35.15201 ], [ 126.928106, 35.151971 ], [ 126.928133, 35.151909 ], [ 126.928151, 35.151846 ], [ 126.928154, 35.15183 ], [ 126.928161, 35.151781 ], [ 126.928181, 35.151576 ], [ 126.928182, 35.15151 ], [ 126.928181, 35.151485 ], [ 126.928181, 35.151465 ], [ 126.928216, 35.151441 ], [ 126.928222, 35.151437 ], [ 126.928252, 35.151428 ], [ 126.928264, 35.151427 ], [ 126.928331, 35.151417 ], [ 126.928396, 35.151401 ], [ 126.928459, 35.15138 ], [ 126.928464, 35.151378 ], [ 126.928501, 35.15138 ], [ 126.928575, 35.151379 ], [ 126.928649, 35.151372 ], [ 126.928721, 35.151357 ], [ 126.928829, 35.151331 ], [ 126.928905, 35.15133 ], [ 126.928966, 35.15133 ], [ 126.929101, 35.151335 ], [ 126.929191, 35.151339 ], [ 126.929198, 35.151339 ], [ 126.929199, 35.151339 ], [ 126.9293, 35.151358 ], [ 126.929362, 35.151367 ], [ 126.929387, 35.15137 ], [ 126.929452, 35.151374 ], [ 126.929518, 35.151373 ], [ 126.929582, 35.151367 ], [ 126.929646, 35.151355 ], [ 126.929708, 35.151338 ], [ 126.929715, 35.151336 ], [ 126.929723, 35.151334 ], [ 126.929781, 35.151315 ], [ 126.929838, 35.151291 ], [ 126.929891, 35.151263 ], [ 126.92994, 35.15123 ], [ 126.929986, 35.151194 ], [ 126.930027, 35.151155 ], [ 126.930064, 35.151112 ], [ 126.930095, 35.151067 ], [ 126.930121, 35.151019 ], [ 126.930125, 35.151008 ], [ 126.930284, 35.15095 ], [ 126.93034, 35.150926 ], [ 126.930393, 35.150899 ], [ 126.930443, 35.150867 ], [ 126.930489, 35.150831 ], [ 126.93053, 35.150792 ], [ 126.930567, 35.15075 ], [ 126.930599, 35.150706 ], [ 126.930615, 35.150676 ], [ 126.930621, 35.150676 ], [ 126.930627, 35.150675 ], [ 126.930676, 35.150667 ], [ 126.930724, 35.150655 ], [ 126.930742, 35.150651 ], [ 126.930791, 35.150638 ], [ 126.930805, 35.150634 ], [ 126.930914, 35.150603 ], [ 126.930958, 35.150592 ], [ 126.931008, 35.150579 ], [ 126.931042, 35.150569 ], [ 126.931087, 35.150553 ], [ 126.931131, 35.150534 ], [ 126.931176, 35.150514 ], [ 126.931209, 35.150497 ], [ 126.93124, 35.150481 ], [ 126.931242, 35.15048 ], [ 126.931255, 35.150473 ], [ 126.931269, 35.150468 ], [ 126.931286, 35.15046 ], [ 126.931344, 35.150431 ], [ 126.931397, 35.150397 ], [ 126.931446, 35.15036 ], [ 126.931491, 35.150318 ], [ 126.931529, 35.150273 ], [ 126.931562, 35.150225 ], [ 126.931589, 35.150174 ], [ 126.931609, 35.150121 ], [ 126.931623, 35.150067 ], [ 126.93163, 35.150012 ], [ 126.93163, 35.149957 ], [ 126.931629, 35.149943 ], [ 126.931629, 35.149941 ], [ 126.931625, 35.149888 ], [ 126.931624, 35.149877 ], [ 126.931617, 35.149798 ], [ 126.931615, 35.149779 ], [ 126.931591, 35.149604 ], [ 126.931582, 35.149554 ], [ 126.931566, 35.149505 ], [ 126.931545, 35.149458 ], [ 126.931519, 35.149412 ], [ 126.931488, 35.149369 ], [ 126.931421, 35.149284 ], [ 126.931366, 35.149202 ], [ 126.931324, 35.149146 ], [ 126.931311, 35.149133 ], [ 126.931306, 35.149105 ], [ 126.931292, 35.149057 ], [ 126.931272, 35.14901 ], [ 126.931248, 35.148965 ], [ 126.931232, 35.148939 ], [ 126.931231, 35.148937 ], [ 126.93121, 35.148904 ], [ 126.931183, 35.148859 ], [ 126.931168, 35.148835 ], [ 126.931158, 35.148821 ], [ 126.931137, 35.148768 ], [ 126.931136, 35.148765 ], [ 126.931114, 35.148715 ], [ 126.931085, 35.148666 ], [ 126.931051, 35.14862 ], [ 126.931011, 35.148577 ], [ 126.930966, 35.148538 ], [ 126.930917, 35.148502 ], [ 126.93087, 35.148475 ], [ 126.930857, 35.148414 ], [ 126.930834, 35.148303 ], [ 126.930834, 35.148281 ], [ 126.930832, 35.14824 ], [ 126.930827, 35.148198 ], [ 126.930805, 35.148072 ], [ 126.93079, 35.147985 ], [ 126.930779, 35.147923 ], [ 126.93077, 35.147883 ], [ 126.930748, 35.147799 ], [ 126.930736, 35.14776 ], [ 126.930712, 35.147695 ], [ 126.93069, 35.147644 ], [ 126.930662, 35.147595 ], [ 126.930573, 35.147457 ], [ 126.93054, 35.147412 ], [ 126.930533, 35.147404 ], [ 126.930529, 35.147387 ], [ 126.930518, 35.147352 ], [ 126.930515, 35.147343 ], [ 126.930509, 35.147328 ], [ 126.930494, 35.14729 ], [ 126.930478, 35.147252 ], [ 126.930458, 35.147216 ], [ 126.930435, 35.147179 ], [ 126.930427, 35.147166 ], [ 126.930423, 35.14716 ], [ 126.930413, 35.147135 ], [ 126.930386, 35.147088 ], [ 126.930355, 35.147044 ], [ 126.930318, 35.147002 ], [ 126.930277, 35.146964 ], [ 126.930231, 35.146928 ], [ 126.930182, 35.146897 ], [ 126.930129, 35.146869 ], [ 126.930036, 35.146826 ], [ 126.92993, 35.146772 ], [ 126.929853, 35.146739 ], [ 126.92977, 35.146708 ], [ 126.929721, 35.146686 ], [ 126.92969, 35.146673 ], [ 126.929425, 35.14657 ], [ 126.929363, 35.146549 ], [ 126.929346, 35.146545 ], [ 126.92934, 35.146538 ], [ 126.929297, 35.146502 ], [ 126.92925, 35.146468 ], [ 126.929196, 35.146434 ], [ 126.929156, 35.14641 ], [ 126.929115, 35.146389 ], [ 126.92889, 35.146285 ], [ 126.928808, 35.146253 ], [ 126.928794, 35.146248 ], [ 126.928721, 35.1462 ], [ 126.928717, 35.146198 ], [ 126.928634, 35.146143 ], [ 126.928565, 35.146103 ], [ 126.92842, 35.146031 ], [ 126.928356, 35.145995 ], [ 126.928333, 35.145978 ], [ 126.92827, 35.145924 ], [ 126.928231, 35.145892 ], [ 126.928188, 35.145863 ], [ 126.928107, 35.145813 ], [ 126.928077, 35.145776 ], [ 126.928054, 35.145746 ], [ 126.928018, 35.145705 ], [ 126.927978, 35.145667 ], [ 126.927938, 35.145632 ], [ 126.927933, 35.145627 ], [ 126.92789, 35.145588 ], [ 126.927843, 35.145553 ], [ 126.927792, 35.145521 ], [ 126.927738, 35.145494 ], [ 126.92768, 35.145471 ], [ 126.927621, 35.145453 ], [ 126.927559, 35.14544 ], [ 126.927496, 35.145432 ], [ 126.927433, 35.145428 ], [ 126.927369, 35.14543 ], [ 126.927306, 35.145437 ], [ 126.927244, 35.145449 ], [ 126.927184, 35.145465 ], [ 126.927126, 35.145487 ], [ 126.92707, 35.145513 ], [ 126.927018, 35.145543 ], [ 126.92697, 35.145577 ], [ 126.926926, 35.145614 ], [ 126.926887, 35.145656 ], [ 126.926811, 35.145743 ], [ 126.926794, 35.145761 ], [ 126.926555, 35.145967 ], [ 126.926497, 35.146015 ], [ 126.926482, 35.146028 ], [ 126.926396, 35.146094 ], [ 126.926395, 35.146095 ], [ 126.92638, 35.146107 ], [ 126.926325, 35.146139 ], [ 126.92625, 35.146189 ], [ 126.926171, 35.146241 ], [ 126.926118, 35.14628 ], [ 126.92607, 35.146324 ], [ 126.926034, 35.146362 ], [ 126.925971, 35.146401 ], [ 126.92597, 35.146402 ], [ 126.925837, 35.146486 ], [ 126.92577, 35.146528 ], [ 126.925746, 35.146544 ], [ 126.925711, 35.146568 ], [ 126.925707, 35.146571 ], [ 126.925702, 35.146574 ], [ 126.925676, 35.146589 ], [ 126.925675, 35.14659 ], [ 126.925664, 35.146596 ], [ 126.925623, 35.146622 ], [ 126.925614, 35.146627 ], [ 126.925569, 35.146661 ], [ 126.925182, 35.146976 ], [ 126.925178, 35.14698 ], [ 126.925048, 35.147089 ], [ 126.925039, 35.147096 ], [ 126.924865, 35.147247 ], [ 126.92486, 35.147251 ], [ 126.924818, 35.147279 ], [ 126.924759, 35.147322 ], [ 126.924742, 35.147336 ], [ 126.924702, 35.147372 ], [ 126.924666, 35.147412 ], [ 126.924649, 35.147432 ], [ 126.924612, 35.147483 ], [ 126.924599, 35.147503 ], [ 126.924568, 35.147504 ], [ 126.924523, 35.147508 ], [ 126.924521, 35.147508 ], [ 126.924467, 35.147511 ], [ 126.924396, 35.14752 ], [ 126.924326, 35.147534 ], [ 126.924259, 35.147555 ], [ 126.924178, 35.147584 ], [ 126.924166, 35.147589 ], [ 126.924108, 35.147612 ], [ 126.924093, 35.147619 ], [ 126.924087, 35.147621 ], [ 126.924085, 35.147622 ], [ 126.92403, 35.14765 ], [ 126.923979, 35.147683 ], [ 126.923932, 35.147719 ], [ 126.923889, 35.147759 ], [ 126.923852, 35.147803 ], [ 126.923819, 35.147849 ], [ 126.923793, 35.147897 ], [ 126.923772, 35.147947 ], [ 126.923758, 35.147999 ], [ 126.92375, 35.148052 ], [ 126.923748, 35.148105 ], [ 126.923752, 35.148158 ], [ 126.923763, 35.14821 ], [ 126.92378, 35.148261 ], [ 126.923803, 35.148311 ], [ 126.923832, 35.148359 ], [ 126.923866, 35.148404 ], [ 126.923905, 35.148446 ], [ 126.923939, 35.148475 ], [ 126.924017, 35.148554 ], [ 126.924093, 35.148631 ], [ 126.924095, 35.148633 ], [ 126.924101, 35.148639 ], [ 126.92417, 35.148709 ], [ 126.924194, 35.148734 ], [ 126.924157, 35.148757 ], [ 126.924105, 35.148797 ], [ 126.923965, 35.14892 ], [ 126.923884, 35.148972 ], [ 126.923845, 35.148999 ], [ 126.923809, 35.149029 ], [ 126.923747, 35.149084 ], [ 126.92368, 35.149142 ], [ 126.923675, 35.149147 ], [ 126.923583, 35.149228 ], [ 126.923516, 35.149286 ], [ 126.923504, 35.149296 ], [ 126.923329, 35.149396 ], [ 126.923325, 35.149398 ], [ 126.923186, 35.149478 ], [ 126.923035, 35.149564 ], [ 126.923034, 35.149564 ], [ 126.922941, 35.149617 ], [ 126.922884, 35.149653 ], [ 126.922833, 35.149694 ], [ 126.922787, 35.149739 ], [ 126.922748, 35.149788 ], [ 126.922693, 35.149864 ], [ 126.922693, 35.149865 ], [ 126.922669, 35.149898 ], [ 126.922621, 35.149944 ], [ 126.922558, 35.150004 ], [ 126.922486, 35.150052 ], [ 126.922375, 35.150126 ], [ 126.922324, 35.150164 ], [ 126.922204, 35.150262 ], [ 126.92217, 35.150292 ], [ 126.922138, 35.150325 ], [ 126.92199, 35.150492 ], [ 126.921989, 35.150493 ], [ 126.921918, 35.150574 ], [ 126.921761, 35.150729 ], [ 126.921746, 35.150745 ], [ 126.921712, 35.150781 ], [ 126.921434, 35.150867 ], [ 126.921294, 35.1509 ], [ 126.921228, 35.150919 ], [ 126.921165, 35.150944 ], [ 126.921105, 35.150974 ], [ 126.92105, 35.151009 ], [ 126.920915, 35.151103 ], [ 126.920863, 35.151144 ], [ 126.920817, 35.151189 ], [ 126.920777, 35.151237 ], [ 126.920691, 35.151356 ], [ 126.920619, 35.15144 ], [ 126.920614, 35.151446 ], [ 126.920574, 35.151494 ], [ 126.920574, 35.151494 ], [ 126.920537, 35.151538 ], [ 126.920517, 35.151552 ], [ 126.920512, 35.151555 ], [ 126.920476, 35.151581 ], [ 126.920421, 35.151619 ], [ 126.920325, 35.151667 ], [ 126.920274, 35.151695 ], [ 126.920226, 35.151728 ], [ 126.920182, 35.151764 ], [ 126.920041, 35.151891 ], [ 126.919965, 35.151959 ], [ 126.91993, 35.151993 ], [ 126.919899, 35.152029 ], [ 126.919854, 35.152085 ], [ 126.91983, 35.152115 ], [ 126.919675, 35.152235 ], [ 126.919604, 35.152261 ], [ 126.919478, 35.152307 ], [ 126.919424, 35.152329 ], [ 126.919373, 35.152355 ], [ 126.919325, 35.152385 ], [ 126.919233, 35.152448 ], [ 126.919174, 35.152488 ], [ 126.919072, 35.152556 ], [ 126.919019, 35.152595 ], [ 126.918972, 35.152638 ], [ 126.918924, 35.152688 ], [ 126.918897, 35.152715 ], [ 126.918897, 35.152715 ], [ 126.91887, 35.152741 ], [ 126.918844, 35.15277 ], [ 126.91874, 35.152878 ], [ 126.918739, 35.152879 ], [ 126.918734, 35.152885 ], [ 126.918698, 35.152927 ], [ 126.918666, 35.152971 ], [ 126.918641, 35.153018 ], [ 126.91862, 35.153067 ], [ 126.918606, 35.153117 ], [ 126.918597, 35.153168 ], [ 126.918594, 35.15322 ], [ 126.918597, 35.153271 ], [ 126.918607, 35.153322 ], [ 126.918622, 35.153372 ], [ 126.918642, 35.153421 ], [ 126.918669, 35.153467 ], [ 126.9187, 35.153512 ], [ 126.918737, 35.153554 ], [ 126.918778, 35.153592 ], [ 126.918804, 35.153613 ], [ 126.919336, 35.154039 ] ] ], [ [ [ 126.941808, 35.1497 ], [ 126.941761, 35.149437 ], [ 126.941683, 35.14918 ], [ 126.941574, 35.14893 ], [ 126.941436, 35.14869 ], [ 126.94127, 35.148462 ], [ 126.941078, 35.148249 ], [ 126.940861, 35.148052 ], [ 126.940622, 35.147874 ], [ 126.940362, 35.147716 ], [ 126.940085, 35.147579 ], [ 126.939793, 35.147466 ], [ 126.939489, 35.147376 ], [ 126.939176, 35.147312 ], [ 126.938856, 35.147273 ], [ 126.938534, 35.147259 ], [ 126.938211, 35.147272 ], [ 126.937891, 35.147311 ], [ 126.937578, 35.147375 ], [ 126.937274, 35.147465 ], [ 126.936981, 35.147578 ], [ 126.936704, 35.147714 ], [ 126.936445, 35.147872 ], [ 126.936205, 35.14805 ], [ 126.935988, 35.148247 ], [ 126.935795, 35.14846 ], [ 126.935629, 35.148687 ], [ 126.935491, 35.148927 ], [ 126.935382, 35.149177 ], [ 126.935303, 35.149434 ], [ 126.935255, 35.149697 ], [ 126.935239, 35.149962 ], [ 126.935255, 35.150227 ], [ 126.935302, 35.150489 ], [ 126.93538, 35.150747 ], [ 126.935489, 35.150997 ], [ 126.935627, 35.151237 ], [ 126.935793, 35.151464 ], [ 126.935985, 35.151678 ], [ 126.936202, 35.151874 ], [ 126.936441, 35.152053 ], [ 126.936701, 35.152211 ], [ 126.936978, 35.152347 ], [ 126.93727, 35.152461 ], [ 126.937574, 35.152551 ], [ 126.937887, 35.152615 ], [ 126.938207, 35.152654 ], [ 126.938529, 35.152667 ], [ 126.938852, 35.152655 ], [ 126.939172, 35.152616 ], [ 126.939485, 35.152552 ], [ 126.93979, 35.152462 ], [ 126.940082, 35.152349 ], [ 126.940359, 35.152213 ], [ 126.940619, 35.152055 ], [ 126.940858, 35.151877 ], [ 126.941075, 35.15168 ], [ 126.941268, 35.151467 ], [ 126.941434, 35.15124 ], [ 126.941572, 35.151 ], [ 126.941681, 35.15075 ], [ 126.94176, 35.150493 ], [ 126.941808, 35.15023 ], [ 126.941824, 35.149965 ], [ 126.941808, 35.1497 ] ] ], [ [ [ 126.918042, 35.154317 ], [ 126.917995, 35.154054 ], [ 126.917917, 35.153797 ], [ 126.917808, 35.153547 ], [ 126.91767, 35.153307 ], [ 126.917505, 35.153079 ], [ 126.917312, 35.152866 ], [ 126.917095, 35.152669 ], [ 126.916856, 35.152491 ], [ 126.916597, 35.152332 ], [ 126.91632, 35.152196 ], [ 126.916028, 35.152082 ], [ 126.915724, 35.151992 ], [ 126.91541, 35.151928 ], [ 126.915091, 35.151889 ], [ 126.914768, 35.151875 ], [ 126.914445, 35.151888 ], [ 126.914126, 35.151927 ], [ 126.913812, 35.151991 ], [ 126.913508, 35.15208 ], [ 126.913216, 35.152194 ], [ 126.912939, 35.15233 ], [ 126.912679, 35.152488 ], [ 126.912439, 35.152666 ], [ 126.912222, 35.152862 ], [ 126.912029, 35.153075 ], [ 126.911863, 35.153303 ], [ 126.911725, 35.153542 ], [ 126.911616, 35.153792 ], [ 126.911537, 35.15405 ], [ 126.911489, 35.154312 ], [ 126.911473, 35.154577 ], [ 126.911488, 35.154842 ], [ 126.911536, 35.155105 ], [ 126.911614, 35.155362 ], [ 126.911722, 35.155612 ], [ 126.91186, 35.155852 ], [ 126.912026, 35.15608 ], [ 126.912218, 35.156293 ], [ 126.912435, 35.15649 ], [ 126.912674, 35.156668 ], [ 126.912934, 35.156826 ], [ 126.913211, 35.156963 ], [ 126.913503, 35.157077 ], [ 126.913807, 35.157166 ], [ 126.91412, 35.157231 ], [ 126.91444, 35.15727 ], [ 126.914763, 35.157283 ], [ 126.915085, 35.157271 ], [ 126.915405, 35.157232 ], [ 126.915718, 35.157168 ], [ 126.916023, 35.157079 ], [ 126.916315, 35.156965 ], [ 126.916592, 35.156829 ], [ 126.916852, 35.156671 ], [ 126.917092, 35.156493 ], [ 126.917309, 35.156297 ], [ 126.917501, 35.156084 ], [ 126.917668, 35.155856 ], [ 126.917806, 35.155616 ], [ 126.917915, 35.155367 ], [ 126.917994, 35.155109 ], [ 126.918042, 35.154847 ], [ 126.918058, 35.154582 ], [ 126.918042, 35.154317 ] ] ] ] } }
]
}
