{"type":"FeatureCollection","name":"sidewalk","features":[{"type":"Feature","properties":{},"geometry":{"type":"Polygon","coordinates":[[[126.93214,35.143572],[126.932089,35.143554],[126.932044,35.143548],[126.930719,35.143593],[126.92973,35.143497],[126.929497,35.143466],[126.929284,35.143422],[126.929327,35.143401],[126.929354,35.143397],[126.929576,35.143435],[126.929581,35.143428],[126.929683,35.143443],[126.93073,35.14355],[126.930947,35.143547],[126.932023,35.143507],[126.932099,35.143515],[126.932153,35.143531],[126.932175,35.143544],[126.932193,35.143556],[126.932213,35.143585],[126.932223,35.143636],[126.932126,35.143987],[126.93208,35.144083],[126.932048,35.144123],[126.932012,35.144162],[126.93198,35.144184],[126.931868,35.144234],[126.931762,35.144267],[126.931634,35.144281],[126.931286,35.144239],[126.931071,35.143965],[126.930863,35.144061],[126.930845,35.144055],[126.930837,35.14404],[126.931068,35.14394],[126.931138,35.144024],[126.931168,35.144049],[126.931283,35.144202],[126.931309,35.144225],[126.931458,35.144245],[126.931651,35.144261],[126.931691,35.144259],[126.931762,35.144244],[126.93187,35.144211],[126.931976,35.14415],[126.932003,35.144127],[126.932027,35.144105],[126.932079,35.144019],[126.932186,35.14364],[126.932181,35.14361],[126.93214,35.143572]]]}},{"type":"Feature","properties":{},"geometry":{"type":"Polygon","coordinates":[[[126.926439,35.143679],[126.926357,35.14373],[126.926191,35.143811],[126.926158,35.143824],[126.926072,35.143843],[126.925991,35.143854],[126.925922,35.143854],[126.925858,35.14383],[126.925823,35.143808],[126.925793,35.14378],[126.925534,35.143378],[126.925452,35.143309],[126.925323,35.143101],[126.925378,35.143101],[126.925496,35.143288],[126.925579,35.143357],[126.925821,35.143737],[126.925841,35.143762],[126.925878,35.14379],[126.925937,35.143814],[126.925971,35.143812],[126.926075,35.143769],[126.92648,35.143528],[126.926588,35.143411],[126.926639,35.143348],[126.92666,35.143312],[126.926712,35.143174],[126.926725,35.143101],[126.926825,35.143101],[126.926769,35.143306],[126.926703,35.14342],[126.926529,35.143584],[126.926439,35.143679]]]}},{"type":"Feature","properties":{},"geometry":{"type":"Polygon","coordinates":[[[126.928163,35.149049],[126.928177,35.149066],[126.928201,35.14908],[126.928264,35.149102],[126.928323,35.149109],[126.928331,35.149131],[126.928454,35.149165],[126.92846,35.149173],[126.928882,35.149277],[126.928924,35.149259],[126.928443,35.148566],[126.928224,35.148237],[126.928175,35.148253],[126.928107,35.148104],[126.928022,35.147951],[126.928035,35.14794],[126.927856,35.147648],[126.927872,35.147653],[126.927953,35.147765],[126.928041,35.147855],[126.928343,35.14831],[126.92899,35.149252],[126.928957,35.14928],[126.928904,35.149294],[126.928862,35.149295],[126.928777,35.149278],[126.928449,35.149191],[126.928209,35.149113],[126.928173,35.149097],[126.928146,35.149064],[126.928139,35.148997],[126.92815,35.148999],[126.928163,35.149049]]]}},{"type":"Feature","properties":{},"geometry":{"type":"Polygon","coordinates":[[[126.925471,35.144018],[126.925264,35.143698],[126.925269,35.143695],[126.925215,35.143614],[126.92521,35.143596],[126.925169,35.143534],[126.925145,35.143529],[126.925119,35.143454],[126.924895,35.143101],[126.924986,35.143101],[126.925588,35.144047],[126.925585,35.144077],[126.92551,35.144129],[126.925476,35.14413],[126.925442,35.144112],[126.924993,35.143426],[126.92501,35.143419],[126.925246,35.143778],[126.925303,35.143844],[126.925473,35.144116],[126.92549,35.144121],[126.925489,35.144099],[126.925471,35.144051],[126.925471,35.144018]]]}},{"type":"Feature","properties":{},"geometry":{"type":"Polygon","coordinates":[[[126.939533,35.148179],[126.939282,35.148124],[126.938609,35.147995],[126.937863,35.147864],[126.937865,35.147848],[126.937876,35.147846],[126.938526,35.147965],[126.939395,35.14813],[126.939519,35.148156],[126.93965,35.148199],[126.940132,35.148394],[126.94094,35.148765],[126.940938,35.148783],[126.940915,35.148804],[126.940864,35.148807],[126.940691,35.14876],[126.940654,35.148742],[126.940412,35.148564],[126.940039,35.148392],[126.939712,35.148434],[126.939614,35.14843],[126.939512,35.148404],[126.939307,35.148318],[126.939261,35.148308],[126.939107,35.148227],[126.939077,35.148221],[126.938959,35.148229],[126.938899,35.148243],[126.938803,35.148286],[126.938789,35.14828],[126.938851,35.148247],[126.938901,35.14823],[126.938991,35.148212],[126.939089,35.148209],[126.939111,35.148215],[126.939278,35.1483],[126.939306,35.148303],[126.939503,35.148386],[126.939595,35.148412],[126.93967,35.148421],[126.939752,35.148415],[126.94004,35.148377],[126.94045,35.148569],[126.940621,35.148698],[126.940691,35.148744],[126.940846,35.14879],[126.940913,35.14879],[126.94091,35.148779],[126.940847,35.148747],[126.940045,35.148375],[126.939925,35.148325],[126.939533,35.148179]]]}},{"type":"Feature","properties":{},"geometry":{"type":"Polygon","coordinates":[[[126.933828,35.145097],[126.933807,35.145119],[126.933772,35.145087],[126.933747,35.145043],[126.933693,35.144878],[126.933669,35.144759],[126.933599,35.144292],[126.933582,35.144111],[126.933574,35.143783],[126.933584,35.143433],[126.933626,35.143163],[126.933621,35.143125],[126.933611,35.143101],[126.933651,35.143101],[126.933662,35.143143],[126.933662,35.143179],[126.933624,35.14342],[126.933617,35.143579],[126.933615,35.143866],[126.933632,35.144236],[126.933701,35.144744],[126.933739,35.144907],[126.933772,35.145009],[126.933796,35.145061],[126.933828,35.145097]]]}},{"type":"Feature","properties":{},"geometry":{"type":"Polygon","coordinates":[[[126.926862,35.143755],[126.926783,35.143817],[126.926806,35.143839],[126.926711,35.1439],[126.926669,35.143926],[126.926651,35.143898],[126.926295,35.144078],[126.926188,35.144138],[126.926152,35.144189],[126.926144,35.144226],[126.926099,35.144247],[126.926094,35.144217],[126.926099,35.14419],[126.926128,35.144125],[126.926184,35.144062],[126.926261,35.144007],[126.926432,35.14392],[126.926719,35.143753],[126.926763,35.143732],[126.92682,35.143732],[126.926841,35.143739],[126.926862,35.143755]]]}},{"type":"Feature","properties":{},"geometry":{"type":"Polygon","coordinates":[[[126.934183,35.143101],[126.934209,35.143101],[126.933904,35.144423],[126.93389,35.144436],[126.933878,35.144438],[126.933845,35.144436],[126.933815,35.144423],[126.93379,35.14439],[126.933728,35.143892],[126.93374,35.143635],[126.933762,35.143368],[126.933782,35.143235],[126.933775,35.143101],[126.933811,35.143101],[126.933815,35.143235],[126.933794,35.143372],[126.933759,35.14379],[126.933757,35.143888],[126.933813,35.144386],[126.933827,35.144407],[126.933863,35.144413],[126.933881,35.144407],[126.933889,35.144397],[126.934183,35.143101]]]}},{"type":"Feature","properties":{},"geometry":{"type":"Polygon","coordinates":[[[126.930003,35.143366],[126.930365,35.143399],[126.93043,35.14341],[126.930695,35.143432],[126.930804,35.143436],[126.930922,35.143432],[126.931052,35.14341],[126.931323,35.143401],[126.931392,35.143396],[126.931415,35.143388],[126.931464,35.143355],[126.931491,35.143325],[126.931505,35.143272],[126.931528,35.143101],[126.931563,35.143101],[126.93154,35.143276],[126.931523,35.143337],[126.931464,35.143395],[126.931398,35.143425],[126.931038,35.14344],[126.930965,35.143471],[126.930736,35.143473],[126.929981,35.1434],[126.929917,35.143372],[126.929862,35.143368],[126.929869,35.143331],[126.929937,35.143337],[126.930003,35.143366]]]}},{"type":"Feature","properties":{},"geometry":{"type":"Polygon","coordinates":[[[126.934138,35.144324],[126.93423,35.143938],[126.934187,35.143932],[126.934179,35.143924],[126.934224,35.143729],[126.934236,35.143723],[126.934276,35.14373],[126.934422,35.143101],[126.934454,35.143101],[126.934362,35.14348],[126.934446,35.14349],[126.934419,35.143609],[126.93438,35.143603],[126.934354,35.143722],[126.934318,35.143719],[126.934301,35.143792],[126.934225,35.14378],[126.934202,35.143876],[126.934269,35.143887],[126.934202,35.144184],[126.93422,35.144197],[126.934192,35.144247],[126.934187,35.144321],[126.934122,35.144401],[126.934094,35.144384],[126.934094,35.144378],[126.934138,35.144324]]]}},{"type":"Feature","properties":{},"geometry":{"type":"Polygon","coordinates":[[[126.926908,35.149234],[126.92679,35.149218],[126.926683,35.149193],[126.926693,35.149181],[126.926716,35.149173],[126.926936,35.1492],[126.927076,35.149192],[126.927248,35.149165],[126.927616,35.149091],[126.927751,35.149072],[126.927835,35.149069],[126.927956,35.149088],[126.928072,35.149126],[126.928109,35.149154],[126.928191,35.149264],[126.928251,35.149545],[126.928249,35.149566],[126.928231,35.149592],[126.928194,35.149606],[126.928166,35.149609],[126.928161,35.149602],[126.928211,35.149584],[126.928226,35.149564],[126.928197,35.149382],[126.92817,35.149262],[126.928121,35.149202],[126.928029,35.149144],[126.927893,35.149104],[126.927754,35.149098],[126.927657,35.149115],[126.92764,35.14912],[126.92764,35.149124],[126.927576,35.14914],[126.927291,35.149184],[126.927044,35.149232],[126.926963,35.149237],[126.926908,35.149234]]]}},{"type":"Feature","properties":{},"geometry":{"type":"Polygon","coordinates":[[[126.934142,35.145718],[126.934155,35.145712],[126.934206,35.145474],[126.934184,35.14547],[126.934221,35.145421],[126.934267,35.145393],[126.934252,35.145452],[126.934263,35.145454],[126.934155,35.145947],[126.934166,35.14595],[126.934156,35.145997],[126.934138,35.146001],[126.934066,35.146322],[126.934011,35.146292],[126.93402,35.146286],[126.934031,35.146248],[126.934086,35.146007],[126.93408,35.146001],[126.933997,35.14599],[126.934027,35.145905],[126.93403,35.145916],[126.934038,35.145918],[126.934095,35.145925],[126.934106,35.145922],[126.934143,35.145755],[126.934088,35.145741],[126.934099,35.145708],[126.934142,35.145718]]]}},{"type":"Feature","properties":{},"geometry":{"type":"Polygon","coordinates":[[[126.927713,35.146823],[126.927305,35.146195],[126.927144,35.145944],[126.927171,35.145898],[126.927767,35.14683],[126.927713,35.146823]]]}},{"type":"Feature","properties":{},"geometry":{"type":"Polygon","coordinates":[[[126.92781,35.146889],[126.928184,35.147473],[126.92836,35.147725],[126.928304,35.147733],[126.928073,35.147386],[126.927781,35.14693],[126.927791,35.146893],[126.927803,35.146879],[126.927995,35.146792],[126.928008,35.146799],[126.92781,35.146889]]]}},{"type":"Feature","properties":{},"geometry":{"type":"Polygon","coordinates":[[[126.931841,35.144981],[126.931811,35.144994],[126.931663,35.144778],[126.931517,35.144482],[126.931506,35.144444],[126.931511,35.144412],[126.931534,35.144388],[126.931546,35.144384],[126.931717,35.144389],[126.931813,35.144381],[126.931899,35.144364],[126.931995,35.144328],[126.932139,35.144256],[126.932271,35.144218],[126.932408,35.144221],[126.932407,35.144239],[126.932307,35.144237],[126.932273,35.144243],[126.932143,35.144299],[126.932078,35.144318],[126.93199,35.144361],[126.931856,35.144403],[126.931735,35.144419],[126.931564,35.144412],[126.931547,35.14446],[126.931577,35.144547],[126.931589,35.144544],[126.931688,35.144749],[126.931841,35.144981]]]}},{"type":"Feature","properties":{},"geometry":{"type":"Polygon","coordinates":[[[126.925348,35.145877],[126.925251,35.145755],[126.925295,35.145762],[126.925321,35.145782],[126.926394,35.147338],[126.92639,35.147369],[126.92589,35.146647],[126.925818,35.146532],[126.925442,35.146009],[126.925431,35.146012],[126.925348,35.145877]]]}},{"type":"Feature","properties":{},"geometry":{"type":"Polygon","coordinates":[[[126.932327,35.146824],[126.932341,35.146851],[126.931943,35.146979],[126.93137,35.146081],[126.931704,35.1459],[126.931723,35.145923],[126.931407,35.146092],[126.931943,35.146947],[126.93232,35.146822],[126.932327,35.146824]]]}},{"type":"Feature","properties":{},"geometry":{"type":"Polygon","coordinates":[[[126.934052,35.145237],[126.933995,35.145207],[126.933859,35.145152],[126.933878,35.14513],[126.934052,35.1452],[126.93409,35.145231],[126.934107,35.145264],[126.934112,35.14532],[126.934107,35.145354],[126.933762,35.146229],[126.933741,35.146217],[126.933781,35.146113],[126.933761,35.146107],[126.93383,35.14592],[126.933854,35.145926],[126.933916,35.145772],[126.933897,35.145767],[126.933987,35.145538],[126.934005,35.145541],[126.934034,35.14547],[126.934017,35.145462],[126.93405,35.145366],[126.934075,35.145374],[126.934078,35.14536],[126.934072,35.14528],[126.934065,35.145255],[126.934052,35.145237]]]}},{"type":"Feature","properties":{},"geometry":{"type":"Polygon","coordinates":[[[126.934816,35.14467],[126.934861,35.144643],[126.934875,35.144655],[126.93482,35.144689],[126.934492,35.144984],[126.934433,35.145019],[126.9343,35.145058],[126.934215,35.145064],[126.93414,35.145065],[126.934028,35.145038],[126.933968,35.145013],[126.933909,35.144959],[126.933885,35.144908],[126.933874,35.144863],[126.933872,35.144781],[126.933881,35.144696],[126.934011,35.144473],[126.934057,35.144424],[126.934089,35.14444],[126.934054,35.144478],[126.934008,35.144546],[126.933969,35.144624],[126.933945,35.144654],[126.933915,35.144727],[126.933913,35.144863],[126.933925,35.144924],[126.933959,35.144965],[126.934016,35.145],[126.934086,35.145024],[126.93418,35.145037],[126.934249,35.145033],[126.934355,35.145018],[126.934455,35.144987],[126.934479,35.144973],[126.934643,35.144831],[126.934816,35.14467]]]}},{"type":"Feature","properties":{},"geometry":{"type":"Polygon","coordinates":[[[126.928882,35.148476],[126.929079,35.148758],[126.929207,35.148959],[126.929352,35.14915],[126.929314,35.149147],[126.92926,35.149124],[126.929036,35.148808],[126.928916,35.148616],[126.928854,35.148529],[126.928882,35.148476]]]}},{"type":"Feature","properties":{},"geometry":{"type":"Polygon","coordinates":[[[126.921007,35.143463],[126.921033,35.143432],[126.921459,35.144356],[126.921518,35.144357],[126.921499,35.144384],[126.921467,35.144389],[126.921436,35.144386],[126.92142,35.144371],[126.921007,35.143463]]]}},{"type":"Feature","properties":{},"geometry":{"type":"Polygon","coordinates":[[[126.927526,35.147059],[126.927533,35.147066],[126.927758,35.14742],[126.927751,35.147454],[126.927735,35.147464],[126.927588,35.147278],[126.927586,35.147271],[126.927604,35.147243],[126.927563,35.147178],[126.927497,35.14726],[126.927451,35.14718],[126.927426,35.14719],[126.927368,35.147083],[126.927465,35.147042],[126.927526,35.147059]]]}},{"type":"Feature","properties":{},"geometry":{"type":"Polygon","coordinates":[[[126.921303,35.144657],[126.921219,35.144478],[126.920894,35.143753],[126.920931,35.143742],[126.921328,35.144609],[126.921323,35.144631],[126.921303,35.144657]]]}},{"type":"Feature","properties":{},"geometry":{"type":"Polygon","coordinates":[[[126.935813,35.149385],[126.935824,35.149378],[126.936832,35.149318],[126.936918,35.149378],[126.936926,35.1494],[126.936947,35.149768],[126.936944,35.149784],[126.93692,35.149801],[126.936894,35.149393],[126.936821,35.149342],[126.935815,35.149407],[126.935813,35.149385]]]}},{"type":"Feature","properties":{},"geometry":{"type":"Polygon","coordinates":[[[126.925711,35.148789],[126.92569,35.1488],[126.92548,35.148755],[126.925402,35.148748],[126.925268,35.148762],[126.92513,35.148799],[126.925028,35.148711],[126.925026,35.148687],[126.925049,35.148658],[126.925076,35.148668],[126.925059,35.148681],[126.925116,35.148737],[126.925246,35.148709],[126.925411,35.148694],[126.925474,35.1487],[126.925729,35.148749],[126.925711,35.148789]]]}},{"type":"Feature","properties":{},"geometry":{"type":"Polygon","coordinates":[[[126.933081,35.149404],[126.933796,35.149354],[126.934457,35.149322],[126.93444,35.14934],[126.934418,35.149349],[126.933807,35.149381],[126.933114,35.149431],[126.933084,35.149428],[126.933069,35.149409],[126.933029,35.14931],[126.933041,35.149296],[126.933081,35.149404]]]}},{"type":"Feature","properties":{},"geometry":{"type":"Polygon","coordinates":[[[126.936831,35.148725],[126.936823,35.148692],[126.936787,35.148669],[126.93684,35.148667],[126.936857,35.148678],[126.936867,35.148698],[126.936899,35.149121],[126.936894,35.149139],[126.936827,35.149199],[126.93605,35.149246],[126.93603,35.149221],[126.936818,35.149174],[126.93687,35.149119],[126.936831,35.148725]]]}},{"type":"Feature","properties":{},"geometry":{"type":"Polygon","coordinates":[[[126.936886,35.143604],[126.936832,35.143545],[126.93687,35.143553],[126.936884,35.143562],[126.93696,35.143653],[126.936994,35.143738],[126.937003,35.143834],[126.936994,35.143869],[126.936958,35.143932],[126.936913,35.14398],[126.936874,35.143999],[126.936843,35.144005],[126.936805,35.144001],[126.936713,35.143971],[126.936571,35.143912],[126.936466,35.143881],[126.936079,35.143711],[126.936092,35.143696],[126.936475,35.143858],[126.936658,35.143923],[126.936811,35.143964],[126.936867,35.143965],[126.936908,35.143938],[126.936932,35.143912],[126.936958,35.143861],[126.936965,35.143805],[126.936955,35.143736],[126.936936,35.143681],[126.936886,35.143604]]]}},{"type":"Feature","properties":{},"geometry":{"type":"Polygon","coordinates":[[[126.928367,35.147838],[126.928383,35.14778],[126.928395,35.147775],[126.928772,35.148312],[126.928732,35.14833],[126.928718,35.148332],[126.928367,35.147838]]]}},{"type":"Feature","properties":{},"geometry":{"type":"Polygon","coordinates":[[[126.935978,35.149223],[126.935961,35.149252],[126.935946,35.149258],[126.935367,35.149286],[126.934655,35.149332],[126.934638,35.149329],[126.934626,35.14931],[126.934686,35.149306],[126.934686,35.149302],[126.935978,35.149223]]]}},{"type":"Feature","properties":{},"geometry":{"type":"Polygon","coordinates":[[[126.92623,35.146903],[126.926207,35.146907],[126.925392,35.145731],[126.925404,35.145676],[126.925446,35.145749],[126.925431,35.145755],[126.925976,35.146526],[126.92623,35.146903]]]}},{"type":"Feature","properties":{},"geometry":{"type":"Polygon","coordinates":[[[126.926678,35.145218],[126.926696,35.145184],[126.926705,35.14518],[126.927138,35.145852],[126.927083,35.145845],[126.926678,35.145218]]]}},{"type":"Feature","properties":{},"geometry":{"type":"Polygon","coordinates":[[[126.932706,35.143383],[126.93265,35.143395],[126.932606,35.143398],[126.932585,35.143393],[126.932579,35.143387],[126.93258,35.14337],[126.932784,35.143101],[126.932828,35.143101],[126.932653,35.143335],[126.932654,35.14335],[126.932698,35.143352],[126.932748,35.14334],[126.933061,35.143101],[126.933121,35.143101],[126.932839,35.14332],[126.932779,35.143354],[126.932706,35.143383]]]}},{"type":"Feature","properties":{},"geometry":{"type":"Polygon","coordinates":[[[126.923553,35.144926],[126.923583,35.144923],[126.923991,35.14476],[126.924432,35.144566],[126.924455,35.144509],[126.9244,35.144426],[126.924384,35.144432],[126.924085,35.144003],[126.924114,35.144003],[126.924465,35.144504],[126.924465,35.144526],[126.924452,35.144559],[126.924433,35.144585],[126.924421,35.144591],[126.923606,35.144941],[126.923578,35.144938],[126.923553,35.144926]]]}},{"type":"Feature","properties":{},"geometry":{"type":"Polygon","coordinates":[[[126.932106,35.145531],[126.932089,35.145541],[126.931484,35.144658],[126.931461,35.144632],[126.931443,35.144524],[126.931385,35.144379],[126.931412,35.144377],[126.931433,35.144447],[126.931617,35.144821],[126.932106,35.145531]]]}},{"type":"Feature","properties":{},"geometry":{"type":"Polygon","coordinates":[[[126.933872,35.149497],[126.934987,35.149433],[126.93501,35.149438],[126.935021,35.149457],[126.933877,35.149524],[126.933854,35.14953],[126.933857,35.149507],[126.933872,35.149497]]]}},{"type":"Feature","properties":{},"geometry":{"type":"Polygon","coordinates":[[[126.924673,35.144483],[126.924638,35.14449],[126.924585,35.144486],[126.924563,35.144473],[126.924497,35.14438],[126.924264,35.144043],[126.924249,35.14401],[126.92426,35.144005],[126.924305,35.14406],[126.92457,35.144452],[126.924628,35.144457],[126.924757,35.144404],[126.924808,35.144403],[126.925232,35.144223],[126.925237,35.144232],[126.925237,35.144243],[126.925226,35.144248],[126.924673,35.144483]]]}},{"type":"Feature","properties":{},"geometry":{"type":"Polygon","coordinates":[[[126.93125,35.145981],[126.930967,35.145567],[126.930974,35.14554],[126.931365,35.146126],[126.931921,35.147002],[126.931965,35.147012],[126.931972,35.147028],[126.931922,35.147021],[126.931911,35.147013],[126.93125,35.145981]]]}},{"type":"Feature","properties":{},"geometry":{"type":"Polygon","coordinates":[[[126.932211,35.143381],[126.932251,35.143362],[126.932269,35.143341],[126.932305,35.143356],[126.932279,35.143387],[126.932205,35.143409],[126.932054,35.143422],[126.932,35.143403],[126.931723,35.143411],[126.931691,35.143396],[126.931656,35.143365],[126.931634,35.143328],[126.931632,35.143299],[126.931658,35.143101],[126.931695,35.143101],[126.93167,35.143319],[126.931674,35.143332],[126.931697,35.143359],[126.931725,35.143378],[126.931992,35.143373],[126.932048,35.14339],[126.932071,35.14339],[126.932211,35.143381]]]}},{"type":"Feature","properties":{},"geometry":{"type":"Polygon","coordinates":[[[126.933742,35.149503],[126.933761,35.149508],[126.933769,35.149531],[126.933238,35.14956],[126.933183,35.149616],[126.933179,35.15],[126.933157,35.15],[126.933144,35.149611],[126.933191,35.149561],[126.933234,35.149533],[126.933742,35.149503]]]}},{"type":"Feature","properties":{},"geometry":{"type":"Polygon","coordinates":[[[126.932886,35.143385],[126.932924,35.14338],[126.932964,35.143388],[126.933007,35.143408],[126.933032,35.14343],[126.933042,35.143453],[126.933039,35.143503],[126.933029,35.143508],[126.932988,35.143504],[126.932994,35.143456],[126.932983,35.143437],[126.932946,35.143418],[126.932904,35.143418],[126.932466,35.143766],[126.932438,35.143751],[126.932497,35.143695],[126.932886,35.143385]]]}},{"type":"Feature","properties":{},"geometry":{"type":"Polygon","coordinates":[[[126.93459,35.147715],[126.934571,35.147724],[126.934078,35.147713],[126.933388,35.147745],[126.933261,35.147756],[126.933074,35.1478],[126.933058,35.147794],[126.933026,35.147757],[126.933273,35.147731],[126.934085,35.147698],[126.93459,35.147715]]]}},{"type":"Feature","properties":{},"geometry":{"type":"Polygon","coordinates":[[[126.925196,35.148877],[126.925161,35.148897],[126.925122,35.148941],[126.925125,35.148885],[126.925138,35.148863],[126.925284,35.148819],[126.925369,35.148807],[126.925432,35.148808],[126.925617,35.148845],[126.925752,35.148881],[126.92578,35.148913],[126.925791,35.148956],[126.925768,35.148933],[126.925654,35.148892],[126.925449,35.14885],[126.925268,35.148871],[126.925266,35.148861],[126.925196,35.148877]]]}},{"type":"Feature","properties":{},"geometry":{"type":"Polygon","coordinates":[[[126.927194,35.146673],[126.927174,35.146659],[126.927243,35.146622],[126.927447,35.146939],[126.92742,35.146974],[126.927352,35.147012],[126.927329,35.146986],[126.927385,35.146962],[126.927194,35.146673]]]}},{"type":"Feature","properties":{},"geometry":{"type":"Polygon","coordinates":[[[126.929737,35.143332],[126.92958,35.143313],[126.929509,35.143298],[126.92933,35.143243],[126.929277,35.143223],[126.929193,35.143179],[126.929105,35.143101],[126.929181,35.143101],[126.929232,35.143149],[126.929333,35.1432],[126.929464,35.143247],[126.929599,35.143272],[126.929747,35.14329],[126.929737,35.143332]]]}},{"type":"Feature","properties":{},"geometry":{"type":"Polygon","coordinates":[[[126.929429,35.149241],[126.929572,35.149451],[126.929738,35.149676],[126.92966,35.149663],[126.929394,35.149298],[126.929402,35.149275],[126.929429,35.149241]]]}},{"type":"Feature","properties":{},"geometry":{"type":"Polygon","coordinates":[[[126.925847,35.148771],[126.925838,35.148789],[126.925979,35.14884],[126.926299,35.148969],[126.926231,35.148987],[126.925841,35.148847],[126.925827,35.148828],[126.925811,35.148776],[126.925806,35.148716],[126.925844,35.148723],[126.925847,35.148771]]]}},{"type":"Feature","properties":{},"geometry":{"type":"Polygon","coordinates":[[[126.936904,35.148004],[126.936897,35.14799],[126.936874,35.147721],[126.936877,35.147712],[126.936925,35.147674],[126.936948,35.147672],[126.937543,35.147783],[126.93774,35.147824],[126.937756,35.147832],[126.937752,35.147845],[126.937564,35.147805],[126.936936,35.147696],[126.936896,35.147739],[126.936928,35.148019],[126.936904,35.148004]]]}},{"type":"Feature","properties":{},"geometry":{"type":"Polygon","coordinates":[[[126.94241,35.149268],[126.942326,35.149263],[126.942186,35.149239],[126.94215,35.149226],[126.942144,35.149204],[126.942163,35.149215],[126.942276,35.149239],[126.94241,35.149253],[126.9438,35.1492],[126.9438,35.149216],[126.94241,35.149268]]]}},{"type":"Feature","properties":{},"geometry":{"type":"Polygon","coordinates":[[[126.928622,35.149303],[126.929119,35.149413],[126.929227,35.149564],[126.929225,35.149576],[126.929181,35.149618],[126.929169,35.149623],[126.92915,35.149593],[126.929155,35.149568],[126.929053,35.149425],[126.928634,35.149326],[126.928595,35.149346],[126.928601,35.149313],[126.928622,35.149303]]]}},{"type":"Feature","properties":{},"geometry":{"type":"Polygon","coordinates":[[[126.942008,35.149274],[126.941558,35.149075],[126.941001,35.148821],[126.941018,35.14881],[126.941039,35.148812],[126.942,35.14925],[126.942009,35.149262],[126.942008,35.149274]]]}},{"type":"Feature","properties":{},"geometry":{"type":"Polygon","coordinates":[[[126.927559,35.144384],[126.927546,35.14439],[126.927539,35.144379],[126.927455,35.144416],[126.927438,35.14439],[126.927422,35.144396],[126.92742,35.144391],[126.927459,35.144371],[126.927461,35.144356],[126.927226,35.143997],[126.92722,35.143998],[126.927215,35.14399],[126.927014,35.144079],[126.926999,35.144057],[126.927071,35.144024],[126.927065,35.144014],[126.927088,35.144005],[126.927089,35.144012],[126.927097,35.144012],[126.92717,35.143982],[126.927172,35.143972],[126.927143,35.143929],[126.927167,35.143925],[126.927183,35.143932],[126.927296,35.144046],[126.927291,35.144048],[126.927367,35.14417],[126.927485,35.144348],[126.927523,35.144333],[126.927559,35.144384]]]}},{"type":"Feature","properties":{},"geometry":{"type":"Polygon","coordinates":[[[126.921749,35.145],[126.921702,35.145],[126.9215,35.14454],[126.921505,35.144525],[126.921538,35.144501],[126.921564,35.144579],[126.921749,35.145]]]}},{"type":"Feature","properties":{},"geometry":{"type":"Polygon","coordinates":[[[126.935854,35.144253],[126.93583,35.144153],[126.935811,35.144119],[126.935714,35.14401],[126.935578,35.143905],[126.935531,35.143883],[126.935511,35.143864],[126.935502,35.143828],[126.935552,35.14373],[126.93556,35.143733],[126.935532,35.14378],[126.93552,35.143815],[126.935526,35.143851],[126.935616,35.143903],[126.935711,35.143969],[126.935819,35.144076],[126.935845,35.144116],[126.935865,35.14416],[126.935876,35.144209],[126.935882,35.144302],[126.935878,35.144351],[126.935867,35.14439],[126.935835,35.144454],[126.935812,35.144442],[126.935846,35.144364],[126.935854,35.144253]]]}},{"type":"Feature","properties":{},"geometry":{"type":"Polygon","coordinates":[[[126.929041,35.143348],[126.928922,35.143232],[126.92889,35.143194],[126.928829,35.143101],[126.928905,35.143101],[126.928971,35.143197],[126.929088,35.143311],[126.929138,35.143387],[126.929095,35.143376],[126.929041,35.143348]]]}},{"type":"Feature","properties":{},"geometry":{"type":"Polygon","coordinates":[[[126.940065,35.148071],[126.940074,35.148127],[126.940121,35.148179],[126.940082,35.148218],[126.940036,35.14823],[126.93999,35.14823],[126.939892,35.14815],[126.939825,35.148133],[126.939708,35.148131],[126.939691,35.148122],[126.939672,35.14809],[126.939704,35.148108],[126.939736,35.148115],[126.939839,35.148116],[126.939894,35.148133],[126.939957,35.148161],[126.939995,35.148122],[126.940028,35.148073],[126.940065,35.148071]]]}},{"type":"Feature","properties":{},"geometry":{"type":"Polygon","coordinates":[[[126.926845,35.149137],[126.926801,35.149132],[126.926792,35.149123],[126.926792,35.149095],[126.926921,35.149106],[126.927091,35.149111],[126.927298,35.149067],[126.927463,35.149026],[126.927457,35.149067],[126.927221,35.149114],[126.927002,35.149142],[126.926845,35.149137]]]}},{"type":"Feature","properties":{},"geometry":{"type":"Polygon","coordinates":[[[126.932969,35.147905],[126.933136,35.147848],[126.933253,35.147824],[126.93357,35.147805],[126.933573,35.14782],[126.933567,35.147821],[126.933269,35.147835],[126.932998,35.147918],[126.932746,35.148028],[126.932604,35.148114],[126.932592,35.148136],[126.932621,35.148205],[126.932596,35.148196],[126.932582,35.148157],[126.932584,35.148115],[126.932599,35.148091],[126.932782,35.147994],[126.932969,35.147905]]]}},{"type":"Feature","properties":{},"geometry":{"type":"Polygon","coordinates":[[[126.941759,35.14904],[126.941734,35.149051],[126.940879,35.148659],[126.940873,35.148649],[126.940876,35.148633],[126.941759,35.14904]]]}},{"type":"Feature","properties":{},"geometry":{"type":"Polygon","coordinates":[[[126.926468,35.149132],[126.926581,35.149155],[126.926592,35.149168],[126.926588,35.149195],[126.925907,35.148973],[126.925866,35.148999],[126.925895,35.148953],[126.925928,35.148942],[126.926343,35.149094],[126.926468,35.149132]]]}},{"type":"Feature","properties":{},"geometry":{"type":"Polygon","coordinates":[[[126.931489,35.146517],[126.931059,35.145851],[126.931083,35.145848],[126.931299,35.146169],[126.931502,35.146497],[126.931489,35.146517]]]}},{"type":"Feature","properties":{},"geometry":{"type":"Polygon","coordinates":[[[126.932943,35.143634],[126.932903,35.143632],[126.932903,35.143614],[126.932936,35.143616],[126.932943,35.143556],[126.932906,35.143553],[126.932907,35.14352],[126.932917,35.143501],[126.932941,35.143497],[126.932988,35.143504],[126.932953,35.143868],[126.932919,35.143869],[126.932895,35.143817],[126.9329,35.143699],[126.932935,35.143701],[126.932943,35.143634]]]}},{"type":"Feature","properties":{},"geometry":{"type":"Polygon","coordinates":[[[126.924866,35.144899],[126.924933,35.144926],[126.92492,35.14493],[126.924846,35.144907],[126.924698,35.144683],[126.924697,35.144667],[126.924714,35.144626],[126.924749,35.144593],[126.925358,35.144332],[126.925372,35.144339],[126.925377,35.144349],[126.925011,35.144493],[126.924743,35.144615],[126.924712,35.144666],[126.924866,35.144899]]]}},{"type":"Feature","properties":{},"geometry":{"type":"Polygon","coordinates":[[[126.925826,35.148328],[126.925842,35.148653],[126.925814,35.148653],[126.925799,35.148639],[126.925785,35.14841],[126.925756,35.148378],[126.925788,35.148348],[126.925652,35.148228],[126.925667,35.148215],[126.925781,35.148309],[126.925826,35.148328]]]}},{"type":"Feature","properties":{},"geometry":{"type":"Polygon","coordinates":[[[126.92829,35.149317],[126.928337,35.149552],[126.928335,35.149681],[126.928274,35.15],[126.928249,35.15],[126.928309,35.149686],[126.928316,35.149605],[126.928265,35.149313],[126.928323,35.149251],[126.928346,35.149253],[126.92829,35.149317]]]}},{"type":"Feature","properties":{},"geometry":{"type":"Polygon","coordinates":[[[126.930005,35.145918],[126.930031,35.145929],[126.929986,35.145947],[126.929968,35.145942],[126.928906,35.146394],[126.928723,35.14647],[126.928715,35.146462],[126.928716,35.14646],[126.929985,35.14592],[126.930005,35.145918]]]}},{"type":"Feature","properties":{},"geometry":{"type":"Polygon","coordinates":[[[126.936754,35.147941],[126.936792,35.147984],[126.936815,35.148271],[126.936852,35.148583],[126.936843,35.148594],[126.936821,35.148604],[126.936754,35.147941]]]}},{"type":"Feature","properties":{},"geometry":{"type":"Polygon","coordinates":[[[126.928451,35.149287],[126.928427,35.149284],[126.928352,35.149254],[126.928462,35.149276],[126.928481,35.149298],[126.928509,35.149347],[126.928547,35.149657],[126.928539,35.149885],[126.928528,35.15],[126.928507,35.15],[126.928525,35.149662],[126.928487,35.149353],[126.928451,35.149287]]]}},{"type":"Feature","properties":{},"geometry":{"type":"Polygon","coordinates":[[[126.93923,35.148009],[126.93923,35.148021],[126.939214,35.148023],[126.938184,35.147832],[126.938172,35.147824],[126.938179,35.147813],[126.93923,35.148009]]]}},{"type":"Feature","properties":{},"geometry":{"type":"Polygon","coordinates":[[[126.926677,35.14513],[126.926613,35.145116],[126.926503,35.144948],[126.926455,35.144831],[126.926416,35.14476],[126.926416,35.144749],[126.926425,35.144741],[126.926677,35.14513]]]}},{"type":"Feature","properties":{},"geometry":{"type":"Polygon","coordinates":[[[126.926955,35.144006],[126.926986,35.144056],[126.926933,35.144077],[126.926872,35.143978],[126.926862,35.143977],[126.926705,35.144046],[126.926695,35.14403],[126.926686,35.144029],[126.926682,35.144022],[126.926716,35.144007],[126.926888,35.143903],[126.926946,35.143991],[126.926957,35.143982],[126.926969,35.144002],[126.926955,35.144006]]]}},{"type":"Feature","properties":{},"geometry":{"type":"Polygon","coordinates":[[[126.927108,35.143358],[126.927038,35.143337],[126.927091,35.143101],[126.927155,35.143101],[126.927108,35.143358]]]}},{"type":"Feature","properties":{},"geometry":{"type":"Polygon","coordinates":[[[126.930439,35.146193],[126.930495,35.146214],[126.930158,35.146917],[126.930126,35.146937],[126.930466,35.146229],[126.93043,35.146216],[126.930439,35.146193]]]}},{"type":"Feature","properties":{},"geometry":{"type":"Polygon","coordinates":[[[126.932024,35.147211],[126.932028,35.147185],[126.932122,35.147355],[126.932493,35.147959],[126.932556,35.147998],[126.932823,35.147878],[126.932949,35.147826],[126.932954,35.147831],[126.932954,35.147841],[126.932563,35.148007],[126.932538,35.148002],[126.932485,35.147968],[126.932024,35.147211]]]}},{"type":"Feature","properties":{},"geometry":{"type":"Polygon","coordinates":[[[126.935997,35.14772],[126.935994,35.147731],[126.93574,35.147751],[126.934926,35.147813],[126.934924,35.147802],[126.934927,35.147797],[126.934942,35.147793],[126.935082,35.147782],[126.935997,35.14772]]]}},{"type":"Feature","properties":{},"geometry":{"type":"Polygon","coordinates":[[[126.920916,35.143708],[126.920879,35.14372],[126.920718,35.143381],[126.920753,35.143373],[126.920762,35.143377],[126.920885,35.143631],[126.920916,35.143708]]]}},{"type":"Feature","properties":{},"geometry":{"type":"Polygon","coordinates":[[[126.923285,35.14367],[126.923274,35.143631],[126.922704,35.143397],[126.922573,35.143348],[126.922593,35.143332],[126.923285,35.14361],[126.923294,35.143642],[126.923285,35.14367]]]}},{"type":"Feature","properties":{},"geometry":{"type":"Polygon","coordinates":[[[126.925324,35.145566],[126.925404,35.145584],[126.925366,35.145593],[126.925318,35.145582],[126.92529,35.145565],[126.925,35.145142],[126.925,35.145094],[126.925324,35.145566]]]}},{"type":"Feature","properties":{},"geometry":{"type":"Polygon","coordinates":[[[126.927853,35.149013],[126.927783,35.149011],[126.927538,35.149045],[126.927524,35.149009],[126.927778,35.148978],[126.927916,35.148988],[126.928028,35.149005],[126.927991,35.149026],[126.927975,35.149028],[126.927853,35.149013]]]}},{"type":"Feature","properties":{},"geometry":{"type":"Polygon","coordinates":[[[126.93065,35.145637],[126.930691,35.145628],[126.930744,35.145625],[126.930806,35.14563],[126.930865,35.145647],[126.930932,35.145678],[126.930998,35.145728],[126.931032,35.145769],[126.931028,35.145798],[126.930913,35.145697],[126.930832,35.145655],[126.930716,35.145647],[126.930658,35.145653],[126.930346,35.145786],[126.930325,35.145776],[126.93065,35.145637]]]}},{"type":"Feature","properties":{},"geometry":{"type":"Polygon","coordinates":[[[126.93292,35.14423],[126.932886,35.144651],[126.932847,35.144654],[126.932884,35.144229],[126.93292,35.14423]]]}},{"type":"Feature","properties":{},"geometry":{"type":"Polygon","coordinates":[[[126.935967,35.147638],[126.935946,35.147645],[126.935364,35.14769],[126.935361,35.147664],[126.935972,35.147616],[126.935976,35.147612],[126.935967,35.147638]]]}},{"type":"Feature","properties":{},"geometry":{"type":"Polygon","coordinates":[[[126.93706,35.15],[126.937026,35.149433],[126.937053,35.149398],[126.93706,35.149549],[126.937086,35.15],[126.93706,35.15]]]}},{"type":"Feature","properties":{},"geometry":{"type":"Polygon","coordinates":[[[126.943421,35.149299],[126.943486,35.149306],[126.943509,35.149316],[126.942701,35.149346],[126.942701,35.149332],[126.942703,35.149326],[126.943421,35.149299]]]}},{"type":"Feature","properties":{},"geometry":{"type":"Polygon","coordinates":[[[126.923347,35.143683],[126.923369,35.143664],[126.923417,35.143658],[126.92393,35.143874],[126.924018,35.143913],[126.924025,35.143935],[126.9234,35.143673],[126.923347,35.143683]]]}},{"type":"Feature","properties":{},"geometry":{"type":"Polygon","coordinates":[[[126.926563,35.145618],[126.926357,35.145313],[126.926407,35.145317],[126.92662,35.145651],[126.926594,35.145657],[126.926563,35.145618]]]}},{"type":"Feature","properties":{},"geometry":{"type":"Polygon","coordinates":[[[126.929405,35.149813],[126.929344,35.149837],[126.929228,35.149672],[126.929268,35.149632],[126.929277,35.14963],[126.929405,35.149813]]]}},{"type":"Feature","properties":{},"geometry":{"type":"Polygon","coordinates":[[[126.933174,35.143362],[126.933177,35.14342],[126.933193,35.143466],[126.933174,35.143471],[126.933159,35.143467],[126.933145,35.143447],[126.933137,35.143363],[126.933154,35.143254],[126.933171,35.143192],[126.933191,35.143154],[126.933252,35.143101],[126.933304,35.143101],[126.933224,35.143164],[126.933207,35.143196],[126.933181,35.143297],[126.933174,35.143362]]]}},{"type":"Feature","properties":{},"geometry":{"type":"Polygon","coordinates":[[[126.937555,35.147716],[126.936959,35.147606],[126.936681,35.147585],[126.936674,35.14756],[126.936696,35.147573],[126.936977,35.147592],[126.937577,35.147703],[126.937555,35.147716]]]}},{"type":"Feature","properties":{},"geometry":{"type":"Polygon","coordinates":[[[126.940804,35.148601],[126.940812,35.148598],[126.940848,35.148553],[126.94086,35.148564],[126.940822,35.148615],[126.940813,35.148622],[126.9408,35.148622],[126.940609,35.148523],[126.940361,35.148368],[126.940361,35.148283],[126.940388,35.148249],[126.940384,35.148356],[126.940428,35.148384],[126.940424,35.148389],[126.940529,35.148451],[126.940532,35.148448],[126.940623,35.148509],[126.940804,35.148601]]]}},{"type":"Feature","properties":{},"geometry":{"type":"Polygon","coordinates":[[[126.921506,35.145],[126.921461,35.145],[126.921331,35.144705],[126.921387,35.144728],[126.921506,35.145]]]}},{"type":"Feature","properties":{},"geometry":{"type":"Polygon","coordinates":[[[126.922565,35.143321],[126.922558,35.143341],[126.922297,35.143235],[126.921997,35.14312],[126.922018,35.143102],[126.922168,35.14316],[126.922565,35.143321]]]}},{"type":"Feature","properties":{},"geometry":{"type":"Polygon","coordinates":[[[126.926522,35.144257],[126.926515,35.14425],[126.926533,35.144244],[126.926537,35.144252],[126.926554,35.144246],[126.926664,35.144196],[126.926657,35.14419],[126.926676,35.144181],[126.92668,35.144189],[126.926766,35.144152],[126.926785,35.144184],[126.926701,35.144208],[126.926494,35.144298],[126.926488,35.144306],[126.926497,35.144338],[126.926588,35.144481],[126.926575,35.144487],[126.926447,35.14429],[126.926522,35.144257]]]}},{"type":"Feature","properties":{},"geometry":{"type":"Polygon","coordinates":[[[126.926947,35.143519],[126.926977,35.143486],[126.927061,35.143482],[126.927045,35.143532],[126.926971,35.143655],[126.926941,35.143617],[126.926931,35.143573],[126.926947,35.143519]]]}},{"type":"Feature","properties":{},"geometry":{"type":"Polygon","coordinates":[[[126.927474,35.144681],[126.927889,35.144492],[126.927762,35.144294],[126.927769,35.144295],[126.927795,35.14431],[126.927876,35.144435],[126.927908,35.144491],[126.927908,35.144502],[126.927467,35.144693],[126.927426,35.144634],[126.927386,35.14465],[126.927374,35.14463],[126.927426,35.144607],[126.927474,35.144681]]]}},{"type":"Feature","properties":{},"geometry":{"type":"Polygon","coordinates":[[[126.935095,35.149452],[126.935097,35.149434],[126.935108,35.149426],[126.935625,35.1494],[126.935644,35.149421],[126.935095,35.149452]]]}},{"type":"Feature","properties":{},"geometry":{"type":"Polygon","coordinates":[[[126.936076,35.147711],[126.93614,35.147704],[126.936238,35.1477],[126.93639,35.1477],[126.93643,35.147706],[126.936476,35.147722],[126.936547,35.147762],[126.936612,35.147819],[126.936623,35.147844],[126.93662,35.147868],[126.936607,35.147889],[126.93661,35.147842],[126.936564,35.147802],[126.936524,35.147781],[126.936449,35.147725],[126.936385,35.147718],[126.936137,35.147723],[126.936076,35.147737],[126.936067,35.147717],[126.936076,35.147711]]]}},{"type":"Feature","properties":{},"geometry":{"type":"Polygon","coordinates":[[[126.936937,35.148117],[126.936981,35.14859],[126.937,35.148606],[126.936988,35.148608],[126.936963,35.148595],[126.936959,35.148584],[126.93691,35.148112],[126.936933,35.148091],[126.936966,35.148099],[126.936937,35.148117]]]}},{"type":"Feature","properties":{},"geometry":{"type":"Polygon","coordinates":[[[126.92,35.143473],[126.920171,35.143101],[126.920197,35.143101],[126.92,35.143535],[126.92,35.143473]]]}},{"type":"Feature","properties":{},"geometry":{"type":"Polygon","coordinates":[[[126.932951,35.143911],[126.932924,35.144192],[126.932886,35.144191],[126.932913,35.143908],[126.932951,35.143911]]]}},{"type":"Feature","properties":{},"geometry":{"type":"Polygon","coordinates":[[[126.9403,35.148114],[126.940284,35.148138],[126.940268,35.148145],[126.940218,35.148151],[126.940168,35.148146],[126.940136,35.148121],[126.940129,35.148077],[126.940305,35.148074],[126.9403,35.148114]]]}},{"type":"Feature","properties":{},"geometry":{"type":"Polygon","coordinates":[[[126.920691,35.14332],[126.920591,35.143101],[126.920638,35.143101],[126.92073,35.143303],[126.920713,35.143316],[126.920691,35.14332]]]}},{"type":"Feature","properties":{},"geometry":{"type":"Polygon","coordinates":[[[126.923172,35.143466],[126.923175,35.143452],[126.923917,35.143757],[126.923903,35.143764],[126.923172,35.143466]]]}},{"type":"Feature","properties":{},"geometry":{"type":"Polygon","coordinates":[[[126.92981,35.14988],[126.929713,35.149745],[126.929712,35.149737],[126.929787,35.149736],[126.929865,35.149853],[126.92981,35.14988]]]}},{"type":"Feature","properties":{},"geometry":{"type":"Polygon","coordinates":[[[126.932407,35.145748],[126.932313,35.145695],[126.932274,35.145666],[126.932176,35.14554],[126.932198,35.145547],[126.932262,35.145627],[126.932322,35.145678],[126.932412,35.145724],[126.932452,35.14574],[126.932475,35.145741],[126.932579,35.145715],[126.932592,35.145735],[126.932539,35.145758],[126.932498,35.145767],[126.932455,35.145764],[126.932407,35.145748]]]}},{"type":"Feature","properties":{},"geometry":{"type":"Polygon","coordinates":[[[126.936503,35.147606],[126.936101,35.147635],[126.936065,35.147632],[126.936061,35.14761],[126.936471,35.147594],[126.936547,35.147573],[126.936541,35.147589],[126.936503,35.147606]]]}},{"type":"Feature","properties":{},"geometry":{"type":"Polygon","coordinates":[[[126.920025,35.143681],[126.920172,35.143358],[126.920197,35.143365],[126.920047,35.143692],[126.920025,35.143681]]]}},{"type":"Feature","properties":{},"geometry":{"type":"Polygon","coordinates":[[[126.920837,35.143101],[126.920878,35.143101],[126.920983,35.143329],[126.920936,35.143318],[126.920837,35.143101]]]}},{"type":"Feature","properties":{},"geometry":{"type":"Polygon","coordinates":[[[126.924001,35.14491],[126.924247,35.144808],[126.924261,35.144818],[126.923976,35.144941],[126.923956,35.14496],[126.923847,35.145],[126.92379,35.145],[126.924001,35.14491]]]}},{"type":"Feature","properties":{},"geometry":{"type":"Polygon","coordinates":[[[126.925188,35.145637],[126.925127,35.145531],[126.925,35.145343],[126.925,35.145311],[126.925225,35.14564],[126.925212,35.145666],[126.925172,35.145685],[126.925188,35.145637]]]}},{"type":"Feature","properties":{},"geometry":{"type":"Polygon","coordinates":[[[126.937022,35.149341],[126.936992,35.148976],[126.937018,35.14897],[126.937044,35.149357],[126.937029,35.149356],[126.937022,35.149341]]]}},{"type":"Feature","properties":{},"geometry":{"type":"Polygon","coordinates":[[[126.927368,35.147083],[126.926611,35.1474],[126.926617,35.147386],[126.927355,35.147078],[126.927368,35.147083]]]}},{"type":"Feature","properties":{},"geometry":{"type":"Polygon","coordinates":[[[126.928202,35.149665],[126.928221,35.149676],[126.928233,35.149689],[126.92824,35.149712],[126.928187,35.15],[126.928169,35.15],[126.928219,35.149714],[126.928212,35.149697],[126.928197,35.14969],[126.928183,35.149696],[126.928181,35.149705],[126.92817,35.149687],[126.928169,35.149658],[126.928202,35.149665]]]}},{"type":"Feature","properties":{},"geometry":{"type":"Polygon","coordinates":[[[126.928424,35.146712],[126.928333,35.146654],[126.928034,35.146788],[126.92803,35.146771],[126.928303,35.146642],[126.928389,35.146659],[126.928424,35.146712]]]}},{"type":"Feature","properties":{},"geometry":{"type":"Polygon","coordinates":[[[126.93256,35.143258],[126.932532,35.143277],[126.932512,35.143281],[126.932507,35.143268],[126.932636,35.143101],[126.932682,35.143101],[126.93256,35.143258]]]}},{"type":"Feature","properties":{},"geometry":{"type":"Polygon","coordinates":[[[126.940394,35.147159],[126.940397,35.147147],[126.94041,35.147138],[126.940415,35.147277],[126.940411,35.14755],[126.940409,35.147586],[126.940394,35.147589],[126.940395,35.147443],[126.940394,35.147159]]]}},{"type":"Feature","properties":{},"geometry":{"type":"Polygon","coordinates":[[[126.920181,35.143335],[126.920288,35.143101],[126.920313,35.143101],[126.920206,35.143345],[126.920181,35.143335]]]}},{"type":"Feature","properties":{},"geometry":{"type":"Polygon","coordinates":[[[126.924621,35.144743],[126.92475,35.144936],[126.924741,35.144959],[126.924734,35.14496],[126.924669,35.144861],[126.924673,35.144854],[126.924594,35.144738],[126.924492,35.144705],[126.924512,35.144702],[126.924545,35.144707],[126.924589,35.144722],[126.924621,35.144743]]]}},{"type":"Feature","properties":{},"geometry":{"type":"Polygon","coordinates":[[[126.926512,35.147312],[126.926611,35.147327],[126.926559,35.147333],[126.926508,35.147324],[126.926488,35.147314],[126.92634,35.147099],[126.926337,35.147081],[126.926349,35.147076],[126.926512,35.147312]]]}},{"type":"Feature","properties":{},"geometry":{"type":"Polygon","coordinates":[[[126.926602,35.149093],[126.926584,35.149095],[126.926456,35.149067],[126.926434,35.149045],[126.926435,35.149021],[126.926634,35.149073],[126.926602,35.149093]]]}},{"type":"Feature","properties":{},"geometry":{"type":"Polygon","coordinates":[[[126.927689,35.143865],[126.927672,35.143868],[126.927672,35.143881],[126.927599,35.143888],[126.927596,35.143859],[126.927968,35.143824],[126.92797,35.143843],[126.927689,35.143865]]]}},{"type":"Feature","properties":{},"geometry":{"type":"Polygon","coordinates":[[[126.934032,35.147798],[126.933599,35.147817],[126.933597,35.147805],[126.9336,35.147802],[126.934019,35.147783],[126.934032,35.147798]]]}},{"type":"Feature","properties":{},"geometry":{"type":"Polygon","coordinates":[[[126.936982,35.148678],[126.937014,35.148954],[126.93699,35.14895],[126.936961,35.148671],[126.936968,35.148655],[126.937009,35.148652],[126.936982,35.148678]]]}},{"type":"Feature","properties":{},"geometry":{"type":"Polygon","coordinates":[[[126.922597,35.143229],[126.922271,35.143101],[126.922317,35.143101],[126.922624,35.14322],[126.922597,35.143229]]]}},{"type":"Feature","properties":{},"geometry":{"type":"Polygon","coordinates":[[[126.929895,35.15],[126.92987,35.149966],[126.929858,35.149945],[126.929888,35.149888],[126.929964,35.15],[126.929895,35.15]]]}},{"type":"Feature","properties":{},"geometry":{"type":"Polygon","coordinates":[[[126.931344,35.146708],[126.931163,35.146679],[126.931168,35.146651],[126.931356,35.146677],[126.931344,35.146708]]]}},{"type":"Feature","properties":{},"geometry":{"type":"Polygon","coordinates":[[[126.932946,35.149061],[126.932965,35.149043],[126.933048,35.149284],[126.933018,35.149281],[126.932946,35.149061]]]}},{"type":"Feature","properties":{},"geometry":{"type":"Polygon","coordinates":[[[126.938107,35.147803],[126.938087,35.147811],[126.937604,35.147724],[126.937599,35.147709],[126.938107,35.147803]]]}},{"type":"Feature","properties":{},"geometry":{"type":"Polygon","coordinates":[[[126.940401,35.147847],[126.940401,35.148143],[126.940387,35.14814],[126.940377,35.148126],[126.940384,35.147855],[126.940401,35.147847]]]}},{"type":"Feature","properties":{},"geometry":{"type":"Polygon","coordinates":[[[126.926681,35.144625],[126.926811,35.144822],[126.926744,35.144852],[126.926755,35.144869],[126.926741,35.144875],[126.926723,35.144847],[126.92679,35.144817],[126.926669,35.144632],[126.926681,35.144625]]]}},{"type":"Feature","properties":{},"geometry":{"type":"Polygon","coordinates":[[[126.927969,35.143901],[126.92768,35.143926],[126.927677,35.14391],[126.927976,35.143885],[126.927969,35.143901]]]}},{"type":"Feature","properties":{},"geometry":{"type":"Polygon","coordinates":[[[126.928195,35.143863],[126.928618,35.143827],[126.928619,35.143835],[126.928175,35.143879],[126.928175,35.143873],[126.928196,35.143871],[126.928195,35.143863]]]}},{"type":"Feature","properties":{},"geometry":{"type":"Polygon","coordinates":[[[126.932946,35.149001],[126.932926,35.149001],[126.932917,35.148996],[126.932847,35.148787],[126.932862,35.148772],[126.932946,35.149001]]]}},{"type":"Feature","properties":{},"geometry":{"type":"Polygon","coordinates":[[[126.934437,35.147799],[126.934093,35.1478],[126.934092,35.147786],[126.9341,35.147783],[126.934411,35.147785],[126.934437,35.147799]]]}},{"type":"Feature","properties":{},"geometry":{"type":"Polygon","coordinates":[[[126.934838,35.147854],[126.934814,35.147846],[126.934683,35.147831],[126.934644,35.147832],[126.934643,35.147827],[126.934655,35.147813],[126.934832,35.147807],[126.934838,35.147854]]]}},{"type":"Feature","properties":{},"geometry":{"type":"Polygon","coordinates":[[[126.92287,35.143335],[126.922858,35.143337],[126.922699,35.14327],[126.922687,35.143247],[126.922851,35.143313],[126.922865,35.143285],[126.922885,35.143293],[126.922887,35.143304],[126.92287,35.143335]]]}},{"type":"Feature","properties":{},"geometry":{"type":"Polygon","coordinates":[[[126.922918,35.14334],[126.923133,35.143429],[126.923107,35.143437],[126.922931,35.143368],[126.922917,35.14335],[126.922918,35.14334]]]}},{"type":"Feature","properties":{},"geometry":{"type":"Polygon","coordinates":[[[126.927219,35.144772],[126.927182,35.144788],[126.92713,35.144707],[126.927171,35.144691],[126.927219,35.144772]]]}},{"type":"Feature","properties":{},"geometry":{"type":"Polygon","coordinates":[[[126.928108,35.149215],[126.928146,35.149298],[126.928159,35.149356],[126.928128,35.149363],[126.928116,35.149307],[126.928092,35.14925],[126.928108,35.149215]]]}},{"type":"Feature","properties":{},"geometry":{"type":"Polygon","coordinates":[[[126.930099,35.1459],[126.930097,35.145877],[126.930111,35.145864],[126.930259,35.145806],[126.930273,35.145803],[126.930292,35.145813],[126.930113,35.145883],[126.930108,35.145895],[126.930099,35.1459]]]}},{"type":"Feature","properties":{},"geometry":{"type":"Polygon","coordinates":[[[126.931407,35.145796],[126.931386,35.145807],[126.931355,35.145764],[126.931264,35.145633],[126.931277,35.145625],[126.931407,35.145796]]]}},{"type":"Feature","properties":{},"geometry":{"type":"Polygon","coordinates":[[[126.935121,35.147694],[126.935113,35.14769],[126.935111,35.147676],[126.935314,35.147671],[126.935305,35.14769],[126.935121,35.147694]]]}},{"type":"Feature","properties":{},"geometry":{"type":"Polygon","coordinates":[[[126.939559,35.148075],[126.93959,35.148058],[126.939579,35.148084],[126.939555,35.148091],[126.939342,35.148042],[126.939335,35.148021],[126.939352,35.14803],[126.939559,35.148075]]]}},{"type":"Feature","properties":{},"geometry":{"type":"Polygon","coordinates":[[[126.940019,35.146189],[126.940029,35.14617],[126.940211,35.14616],[126.940226,35.146166],[126.94023,35.146177],[126.940019,35.146189]]]}},{"type":"Feature","properties":{},"geometry":{"type":"Polygon","coordinates":[[[126.940385,35.146835],[126.940382,35.146843],[126.940409,35.147103],[126.940395,35.147106],[126.940369,35.146848],[126.940374,35.146838],[126.940385,35.146835]]]}},{"type":"Feature","properties":{},"geometry":{"type":"Polygon","coordinates":[[[126.941813,35.149086],[126.941811,35.149064],[126.942037,35.149168],[126.942021,35.149181],[126.941813,35.149086]]]}},{"type":"Feature","properties":{},"geometry":{"type":"Polygon","coordinates":[[[126.94264,35.149328],[126.942646,35.149349],[126.942438,35.149357],[126.942431,35.149338],[126.94264,35.149328]]]}},{"type":"Feature","properties":{},"geometry":{"type":"Polygon","coordinates":[[[126.926245,35.144489],[126.926281,35.144476],[126.926329,35.144557],[126.926299,35.144569],[126.926245,35.144489]]]}},{"type":"Feature","properties":{},"geometry":{"type":"Polygon","coordinates":[[[126.926272,35.145115],[126.926337,35.145216],[126.926315,35.145228],[126.926252,35.14513],[126.926272,35.145115]]]}},{"type":"Feature","properties":{},"geometry":{"type":"Polygon","coordinates":[[[126.928811,35.148369],[126.928849,35.148423],[126.928786,35.148431],[126.928759,35.14839],[126.928811,35.148369]]]}},{"type":"Feature","properties":{},"geometry":{"type":"Polygon","coordinates":[[[126.929463,35.15],[126.929431,35.149948],[126.929519,35.149975],[126.929537,35.15],[126.929463,35.15]]]}},{"type":"Feature","properties":{},"geometry":{"type":"Polygon","coordinates":[[[126.931623,35.14669],[126.931608,35.146713],[126.931529,35.146575],[126.931563,35.146588],[126.931623,35.14669]]]}},{"type":"Feature","properties":{},"geometry":{"type":"Polygon","coordinates":[[[126.932638,35.148237],[126.932742,35.148471],[126.93273,35.148471],[126.932722,35.148463],[126.932628,35.148245],[126.932638,35.148237]]]}},{"type":"Feature","properties":{},"geometry":{"type":"Polygon","coordinates":[[[126.932817,35.148706],[126.932809,35.148701],[126.932766,35.148585],[126.932782,35.148573],[126.932831,35.148705],[126.932817,35.148706]]]}},{"type":"Feature","properties":{},"geometry":{"type":"Polygon","coordinates":[[[126.936929,35.149867],[126.936953,35.149879],[126.936962,35.15],[126.936936,35.15],[126.936929,35.149867]]]}},{"type":"Feature","properties":{},"geometry":{"type":"Polygon","coordinates":[[[126.9438,35.149285],[126.9438,35.149308],[126.943667,35.149315],[126.943667,35.149293],[126.9438,35.149285]]]}},{"type":"Feature","properties":{},"geometry":{"type":"Polygon","coordinates":[[[126.92555,35.144262],[126.925437,35.144311],[126.925432,35.144305],[126.925435,35.144298],[126.92554,35.144253],[126.92555,35.144262]]]}},{"type":"Feature","properties":{},"geometry":{"type":"Polygon","coordinates":[[[126.926233,35.146942],[126.92625,35.146932],[126.926318,35.14703],[126.926294,35.147032],[126.926233,35.146942]]]}},{"type":"Feature","properties":{},"geometry":{"type":"Polygon","coordinates":[[[126.942081,35.149282],[126.942167,35.149306],[126.942164,35.149325],[126.942072,35.149296],[126.942081,35.149282]]]}},{"type":"Feature","properties":{},"geometry":{"type":"Polygon","coordinates":[[[126.942253,35.149323],[126.942308,35.14933],[126.942334,35.149353],[126.942216,35.149339],[126.942253,35.149323]]]}},{"type":"Feature","properties":{},"geometry":{"type":"Polygon","coordinates":[[[126.920035,35.143708],[126.92,35.143785],[126.92,35.143735],[126.920019,35.143702],[126.920035,35.143708]]]}},{"type":"Feature","properties":{},"geometry":{"type":"Polygon","coordinates":[[[126.923432,35.145],[126.923387,35.145],[126.923439,35.144976],[126.923432,35.145]]]}},{"type":"Feature","properties":{},"geometry":{"type":"Polygon","coordinates":[[[126.924034,35.143823],[126.923972,35.143796],[126.923976,35.143782],[126.924056,35.143817],[126.924034,35.143823]]]}},{"type":"Feature","properties":{},"geometry":{"type":"Polygon","coordinates":[[[126.934529,35.149316],[126.934581,35.149313],[126.934572,35.149336],[126.934541,35.149338],[126.934532,35.149334],[126.934529,35.149316]]]}}]}