{
"type": "FeatureCollection",
"name": "stations",
"crs": { "type": "name", "properties": { "name": "urn:ogc:def:crs:OGC:1.3:CRS84" } },
"xy_coordinate_resolution": 1e-06,
"features": [
{ "type": "Feature", "properties": { "소방서 및 안전센터명": "동부소방서_광주-지산-119 안전센터", "주소": "광주광역시 동구 밤실로30번길 16(지산동)", "전화번호": "062-606-4423", "kind": "center", "z": 47.0 }, "geometry": { "type": "Point", "coordinates": [ 126.938531, 35.149963 ] } },
{ "type": "Feature", "properties": { "소방서 및 안전센터명": "동부소방서_광주-대인-119 안전센터", "주소": "광주광역시 동구 제봉로 210(대인동)", "전화번호": "062-606-4203", "kind": "center", "z": 8.0 }, "geometry": { "type": "Point", "coordinates": [ 126.914765, 35.154579 ] } },
{ "type": "Feature", "properties": { "소방서 및 안전센터명": "동부소방서", "주소": "광주광역시 동구 제봉로 210(대인동)", "전화번호": "062-613-8413", "kind": "station", "z": 8.0 }, "geometry": { "type": "Point", "coordinates": [ 126.914765, 35.154579 ] } }
]
}
