{
"type": "FeatureCollection",
"name": "streetlights",
"crs": { "type": "name", "properties": { "name": "urn:ogc:def:crs:OGC:1.3:CRS84" } },
"xy_coordinate_resolution": 1e-06,
"features": [
{ "type": "Feature", "properties": { "n_lights": 10, "mgmt_no_sample": "동구-55-1 / 동구-55-2 / 동구-55-3", "addr": "대인동 20-12", "pos_accuracy_m": 50, "verified": false }, "geometry": { "type": "Point", "coordinates": [ 126.913847, 35.154744 ] } },
{ "type": "Feature", "properties": { "n_lights": 11, "mgmt_no_sample": "동구-96-1 / 동구-96-2 / 동구-96-3", "addr": "대인동 324-21", "pos_accuracy_m": 50, "verified": false }, "geometry": { "type": "Point", "coordinates": [ 126.913991, 35.15492 ] } },
{ "type": "Feature", "properties": { "n_lights": 8, "mgmt_no_sample": "동구-183-1 / 동구-183-2 / 동구-183-3", "addr": "대인동 292", "pos_accuracy_m": 50, "verified": false }, "geometry": { "type": "Point", "coordinates": [ 126.91414, 35.153332 ] } },
{ "type": "Feature", "properties": { "n_lights": 8, "mgmt_no_sample": "동구-107-1 / 동구-107-2 / 동구-107-3", "addr": "대인동 80-1", "pos_accuracy_m": 50, "verified": false }, "geometry": { "type": "Point", "coordinates": [ 126.914419, 35.15337 ] } },
{ "type": "Feature", "properties": { "n_lights": 14, "mgmt_no_sample": "동구-97-1 / 동구-97-2 / 동구-97-3", "addr": "대인동 331", "pos_accuracy_m": 50, "verified": false }, "geometry": { "type": "Point", "coordinates": [ 126.914442, 35.156339 ] } },
{ "type": "Feature", "properties": { "n_lights": 11, "mgmt_no_sample": "동구-95-1 / 동구-95-2 / 동구-95-3", "addr": "대인동 32-19", "pos_accuracy_m": 50, "verified": false }, "geometry": { "type": "Point", "coordinates": [ 126.915332, 35.153781 ] } },
{ "type": "Feature", "properties": { "n_lights": 11, "mgmt_no_sample": "동구-07-1 / 동구-07-2 / 동구-07-3", "addr": "대인동 312-19", "pos_accuracy_m": 50, "verified": false }, "geometry": { "type": "Point", "coordinates": [ 126.915434, 35.154023 ] } },
{ "type": "Feature", "properties": { "n_lights": 9, "mgmt_no_sample": "동구-236-1 / 동구-236-2 / 동구-236-3", "addr": "계림동 478-2", "pos_accuracy_m": 50, "verified": false }, "geometry": { "type": "Point", "coordinates": [ 126.917146, 35.155955 ] } },
{ "type": "Feature", "properties": { "n_lights": 17, "mgmt_no_sample": "동구-61-1 / 동구-61-2 / 동구-61-3", "addr": "계림동 514-30", "pos_accuracy_m": 50, "verified": false }, "geometry": { "type": "Point", "coordinates": [ 126.917416, 35.155998 ] } },
{ "type": "Feature", "properties": { "n_lights": 13, "mgmt_no_sample": "동구-196-1 / 동구-196-2 / 동구-196-3", "addr": "계림동 386-15", "pos_accuracy_m": 50, "verified": false }, "geometry": { "type": "Point", "coordinates": [ 126.919284, 35.153567 ] } },
{ "type": "Feature", "properties": { "n_lights": 13, "mgmt_no_sample": "동구-94-1 / 동구-94-2 / 동구-94-3", "addr": "궁동 17-21", "pos_accuracy_m": 50, "verified": false }, "geometry": { "type": "Point", "coordinates": [ 126.920088, 35.150777 ] } },
{ "type": "Feature", "properties": { "n_lights": 14, "mgmt_no_sample": "동구-54-1 / 동구-54-2 / 동구-54-3", "addr": "동명동 248-2", "pos_accuracy_m": 50, "verified": false }, "geometry": { "type": "Point", "coordinates": [ 126.92053, 35.154249 ] } },
{ "type": "Feature", "properties": { "n_lights": 13, "mgmt_no_sample": "동구-120-1 / 동구-120-2 / 동구-120-3", "addr": "장동 39-12", "pos_accuracy_m": 50, "verified": false }, "geometry": { "type": "Point", "coordinates": [ 126.920542, 35.152271 ] } },
{ "type": "Feature", "properties": { "n_lights": 4, "mgmt_no_sample": "동구-245-1 / 동구-245-2 / 동구-245-3", "addr": "동명동267-3", "pos_accuracy_m": 50, "verified": false }, "geometry": { "type": "Point", "coordinates": [ 126.921198, 35.154569 ] } },
{ "type": "Feature", "properties": { "n_lights": 18, "mgmt_no_sample": "동구-243-1 / 동구-243-2 / 동구-243-3", "addr": "계림동 233-18", "pos_accuracy_m": 50, "verified": false }, "geometry": { "type": "Point", "coordinates": [ 126.921376, 35.155321 ] } },
{ "type": "Feature", "properties": { "n_lights": 20, "mgmt_no_sample": "동구-79-1 / 동구-79-2 / 동구-79-3", "addr": "대의동 91", "pos_accuracy_m": 50, "verified": false }, "geometry": { "type": "Point", "coordinates": [ 126.921498, 35.150145 ] } },
{ "type": "Feature", "properties": { "n_lights": 9, "mgmt_no_sample": "동구-256-1 / 동구-256-2 / 동구-256-3", "addr": "장동87-12", "pos_accuracy_m": 50, "verified": false }, "geometry": { "type": "Point", "coordinates": [ 126.923081, 35.148874 ] } },
{ "type": "Feature", "properties": { "n_lights": 10, "mgmt_no_sample": "동구-257-1 / 동구-257-2 / 동구-257-3", "addr": "장동87-12", "pos_accuracy_m": 50, "verified": false }, "geometry": { "type": "Point", "coordinates": [ 126.923401, 35.14885 ] } },
{ "type": "Feature", "properties": { "n_lights": 10, "mgmt_no_sample": "동구-119-1 / 동구-119-2 / 동구-119-3", "addr": "동명동 200-206", "pos_accuracy_m": 50, "verified": false }, "geometry": { "type": "Point", "coordinates": [ 126.923409, 35.152846 ] } },
{ "type": "Feature", "properties": { "n_lights": 10, "mgmt_no_sample": "동구-181-1 / 동구-181-2 / 동구-181-3", "addr": "동명동 154-230", "pos_accuracy_m": 50, "verified": false }, "geometry": { "type": "Point", "coordinates": [ 126.923469, 35.150819 ] } },
{ "type": "Feature", "properties": { "n_lights": 9, "mgmt_no_sample": "동구-136-1 / 동구-136-2 / 동구-136-3", "addr": "동명동 200-166", "pos_accuracy_m": 50, "verified": false }, "geometry": { "type": "Point", "coordinates": [ 126.923519, 35.151189 ] } },
{ "type": "Feature", "properties": { "n_lights": 11, "mgmt_no_sample": "동구-246-1 / 동구-246-2 / 동구-246-3", "addr": "산수동370-2", "pos_accuracy_m": 50, "verified": false }, "geometry": { "type": "Point", "coordinates": [ 126.924416, 35.153912 ] } },
{ "type": "Feature", "properties": { "n_lights": 37, "mgmt_no_sample": "동구-83-1 / 동구-83-2 / 동구-83-3", "addr": "산수동 365-51", "pos_accuracy_m": 50, "verified": false }, "geometry": { "type": "Point", "coordinates": [ 126.924802, 35.153726 ] } },
{ "type": "Feature", "properties": { "n_lights": 9, "mgmt_no_sample": "동구-84-1 / 동구-84-2 / 동구-84-3", "addr": "산수동 724", "pos_accuracy_m": 50, "verified": false }, "geometry": { "type": "Point", "coordinates": [ 126.925743, 35.153914 ] } },
{ "type": "Feature", "properties": { "n_lights": 15, "mgmt_no_sample": "동구-108-1 / 동구-108-2 / 동구-108-3", "addr": "산수동 365-12", "pos_accuracy_m": 50, "verified": false }, "geometry": { "type": "Point", "coordinates": [ 126.925793, 35.153775 ] } },
{ "type": "Feature", "properties": { "n_lights": 12, "mgmt_no_sample": "동구-113-1 / 동구-113-2 / 동구-113-3", "addr": "동명동 175-5", "pos_accuracy_m": 50, "verified": false }, "geometry": { "type": "Point", "coordinates": [ 126.925888, 35.15167 ] } },
{ "type": "Feature", "properties": { "n_lights": 19, "mgmt_no_sample": "동구-200-1 / 동구-200-2 / 동구-200-3", "addr": "동명동 181-1", "pos_accuracy_m": 50, "verified": false }, "geometry": { "type": "Point", "coordinates": [ 126.925941, 35.152691 ] } },
{ "type": "Feature", "properties": { "n_lights": 10, "mgmt_no_sample": "동구-81-1 / 동구-81-2 / 동구-81-3", "addr": "동명동 161-5", "pos_accuracy_m": 50, "verified": false }, "geometry": { "type": "Point", "coordinates": [ 126.926116, 35.151473 ] } },
{ "type": "Feature", "properties": { "n_lights": 16, "mgmt_no_sample": "동구-86-1 / 동구-86-2 / 동구-86-3", "addr": "동명동 143-78", "pos_accuracy_m": 50, "verified": false }, "geometry": { "type": "Point", "coordinates": [ 126.926269, 35.149041 ] } },
{ "type": "Feature", "properties": { "n_lights": 14, "mgmt_no_sample": "동구-168-1 / 동구-168-2 / 동구-168-3", "addr": "서석동 427-10", "pos_accuracy_m": 50, "verified": false }, "geometry": { "type": "Point", "coordinates": [ 126.926936, 35.145542 ] } },
{ "type": "Feature", "properties": { "n_lights": 3, "mgmt_no_sample": "동구-82-1 / 동구-82-2 / 동구-82-3", "addr": "산수동 358-21", "pos_accuracy_m": 50, "verified": false }, "geometry": { "type": "Point", "coordinates": [ 126.927291, 35.153287 ] } },
{ "type": "Feature", "properties": { "n_lights": 15, "mgmt_no_sample": "동구-73-1 / 동구-73-2 / 동구-73-3", "addr": "지산동 671", "pos_accuracy_m": 50, "verified": false }, "geometry": { "type": "Point", "coordinates": [ 126.928011, 35.151814 ] } },
{ "type": "Feature", "properties": { "n_lights": 24, "mgmt_no_sample": "동구-167-1 / 동구-167-2 / 동구-167-3", "addr": "동명동 91-4", "pos_accuracy_m": 50, "verified": false }, "geometry": { "type": "Point", "coordinates": [ 126.928298, 35.148432 ] } },
{ "type": "Feature", "properties": { "n_lights": 16, "mgmt_no_sample": "동구-204-1 / 동구-204-2 / 동구-204-3", "addr": "지산동 724-1", "pos_accuracy_m": 50, "verified": false }, "geometry": { "type": "Point", "coordinates": [ 126.92833, 35.151165 ] } },
{ "type": "Feature", "properties": { "n_lights": 13, "mgmt_no_sample": "동구-169-1 / 동구-169-2 / 동구-169-3", "addr": "동명동 126", "pos_accuracy_m": 50, "verified": false }, "geometry": { "type": "Point", "coordinates": [ 126.928454, 35.147884 ] } },
{ "type": "Feature", "properties": { "n_lights": 9, "mgmt_no_sample": "동구-170-1 / 동구-170-2 / 동구-170-3", "addr": "동명동 17-2", "pos_accuracy_m": 50, "verified": false }, "geometry": { "type": "Point", "coordinates": [ 126.929495, 35.150148 ] } },
{ "type": "Feature", "properties": { "n_lights": 9, "mgmt_no_sample": "동구-171-1 / 동구-171-2 / 동구-171-3", "addr": "동명동 15-3", "pos_accuracy_m": 50, "verified": false }, "geometry": { "type": "Point", "coordinates": [ 126.929964, 35.150041 ] } },
{ "type": "Feature", "properties": { "n_lights": 7, "mgmt_no_sample": "동구-62-1 / 동구-62-2 / 동구-62-3", "addr": "지산동 694-37", "pos_accuracy_m": 50, "verified": false }, "geometry": { "type": "Point", "coordinates": [ 126.930644, 35.148856 ] } },
{ "type": "Feature", "properties": { "n_lights": 18, "mgmt_no_sample": "동구-173-1 / 동구-173-2 / 동구-173-3", "addr": "산수동 561-1", "pos_accuracy_m": 50, "verified": false }, "geometry": { "type": "Point", "coordinates": [ 126.930936, 35.153012 ] } },
{ "type": "Feature", "properties": { "n_lights": 11, "mgmt_no_sample": "동구-71-1 / 동구-71-2 / 동구-71-3", "addr": "지산동 719-47", "pos_accuracy_m": 50, "verified": false }, "geometry": { "type": "Point", "coordinates": [ 126.930951, 35.151011 ] } },
{ "type": "Feature", "properties": { "n_lights": 5, "mgmt_no_sample": "동구-123-1 / 동구-123-2 / 동구-123-3", "addr": "지산동 342-118", "pos_accuracy_m": 50, "verified": false }, "geometry": { "type": "Point", "coordinates": [ 126.933632, 35.150836 ] } },
{ "type": "Feature", "properties": { "n_lights": 7, "mgmt_no_sample": "동구-252-1 / 동구-252-2 / 동구-252-3", "addr": "지산동724-1", "pos_accuracy_m": 50, "verified": false }, "geometry": { "type": "Point", "coordinates": [ 126.936734, 35.149241 ] } },
{ "type": "Feature", "properties": { "n_lights": 24, "mgmt_no_sample": "동구-64-1 / 동구-64-2 / 동구-64-3", "addr": "지산동 724-1", "pos_accuracy_m": 50, "verified": false }, "geometry": { "type": "Point", "coordinates": [ 126.936887, 35.149468 ] } },
{ "type": "Feature", "properties": { "n_lights": 14, "mgmt_no_sample": "동구-58-1 / 동구-58-2 / 동구-58-3", "addr": "지산동 227-18", "pos_accuracy_m": 50, "verified": false }, "geometry": { "type": "Point", "coordinates": [ 126.937011, 35.148743 ] } },
{ "type": "Feature", "properties": { "n_lights": 9, "mgmt_no_sample": "동구-138-1 / 동구-138-2 / 동구-138-3", "addr": "지산동 258-7", "pos_accuracy_m": 50, "verified": false }, "geometry": { "type": "Point", "coordinates": [ 126.9377, 35.14943 ] } },
{ "type": "Feature", "properties": { "n_lights": 4, "mgmt_no_sample": "동구-133-1 / 동구-133-2 / 동구-133-3", "addr": "지산동 691-111", "pos_accuracy_m": 50, "verified": false }, "geometry": { "type": "Point", "coordinates": [ 126.93862, 35.148654 ] } }
]
}
